{"meta":{"total_listings":115},"data":{"listings":[{"name":"Hilltop Premium Green","type":"dispensary","phone":"(907) 745-4425","city":"Sutton-Alpine","state":"Alaska","zipcode":"99674","slug":"hilltop-premium-green"},{"name":"AM Delight","type":"dispensary","phone":"(907) 229-1730","city":"Anchorage","state":"Alaska","zipcode":"99517","slug":"am-delight-ak"},{"name":"MARY JANES CANNABIS EMPORIUM","type":"dispensary","phone":"(907) 677-7689","city":"ANCHORAGE","state":"Alaska","zipcode":"99502","slug":"mary-janes-cannabis-emporium-1"},{"name":"Great Northern Cannabis - Downtown","type":"dispensary","phone":"(907) 929-9333","city":"Anchorage","state":"Alaska","zipcode":"99501","slug":"great-northern-cannabis"},{"name":"Thunder Cloud 9","type":"dispensary","phone":"(907) 419-8429","city":"Juneau","state":"Alaska","zipcode":"99801","slug":"thunder-cloud-9"},{"name":"GoodSinse - West","type":"dispensary","phone":"(907) 347-7689","city":"Fairbanks","state":"Alaska","zipcode":"99709","slug":"goodsinse"},{"name":"Good Titrations","type":"dispensary","phone":"907-474-4663","city":"Fairbanks","state":"Alaska","zipcode":"99701","slug":"good-titrations"},{"name":"Voodoo Cannabis Company","type":"dispensary","phone":"9078658889","city":"Anchorage","state":"Alaska","zipcode":"99501","slug":"voodoo-cannabis-company"},{"name":"Piece of Mind Cannabis Alaska","type":"dispensary","phone":"(907) 222-5420","city":"Anchorage","state":"Alaska","zipcode":"99501","slug":"satori-anchorage"},{"name":"Emjay Test Dispensary","type":"delivery","phone":"909-123-1234","city":"Saint Paul","state":"Alaska","zipcode":"99660","slug":"emjay-test-dispensary"},{"name":"Green Jar - Wasilla","type":"dispensary","phone":"(907) 631-3800","city":"Wasilla","state":"Alaska","zipcode":"99654","slug":"green-jar-wasilla"},{"name":"The Mason Jar","type":"dispensary","phone":"(907) 500-7420","city":"Juneau","state":"Alaska","zipcode":"99801","slug":"the-mason-jar"},{"name":"Enlighten Alaska","type":"dispensary","phone":"(907) 290-8559","city":"Anchorage","state":"Alaska","zipcode":"99503","slug":"enlighten-alaska"},{"name":"Uncle Herb's","type":"dispensary","phone":"(907) 235-4372","city":"Homer","state":"Alaska","zipcode":"99603","slug":"uncle-herb-s"},{"name":"Fat Tops","type":"dispensary","phone":"(907) 262-4200","city":"Soldotna","state":"Alaska","zipcode":"99669","slug":"fat-tops-soldotna"},{"name":"Tundra Herb Company","type":"dispensary","phone":"(907) 929-4372","city":"Anchorage","state":"Alaska","zipcode":"99501","slug":"tundra-herb-company"},{"name":"Green Raven","type":"dispensary","phone":"907-357-0755","city":"Wasilla","state":"Alaska","zipcode":"99623","slug":"green-raven"},{"name":"Cannabaska","type":"dispensary","phone":"(907) 375-9333","city":"Anchorage","state":"Alaska","zipcode":"99503","slug":"cannabaska"},{"name":"The Stoney Moose","type":"dispensary","phone":"(907) 220-9099","city":"Ketchikan","state":"Alaska","zipcode":"99901","slug":"the-stoney-moose-ketchikan"},{"name":"Anchorage Bowl, LLC","type":"dispensary","phone":"(907) 770-2690","city":"Anchorage","state":"Alaska","zipcode":"99517","slug":"anchorage-bowl-llc"},{"name":"Alaskan Blooms","type":"dispensary","phone":"(907) 328-3597","city":"Fairbanks","state":"Alaska","zipcode":"99709","slug":"alaskan-blooms"},{"name":"One Hit Wonder","type":"dispensary","phone":"907-460-9333","city":"Ester","state":"Alaska","zipcode":"99709","slug":"one-hit-wonder"},{"name":"Chena Cannabis","type":"dispensary","phone":"907-488-0489","city":"North Pole","state":"Alaska","zipcode":"99705","slug":"chena-cannabis"},{"name":"Majestic Gardens","type":"dispensary","phone":"(907) 953-4872","city":"Kenai","state":"Alaska","zipcode":"99611","slug":"majestic-gardens"},{"name":"Denali 420 Recreationals","type":"dispensary","phone":"(907) 892-9333","city":"Houston","state":"Alaska","zipcode":"99694","slug":"denali-420-recreationals"},{"name":"The Green Room AK","type":"dispensary","phone":"9072582837","city":"Anchorage","state":"Alaska","zipcode":"99501","slug":"the-green-room-ak"},{"name":"AK Slow Burn","type":"dispensary","phone":"(907) 868-1450","city":"Anchorage","state":"Alaska","zipcode":"99501","slug":"ak-slow-burn"},{"name":"THE 420","type":"dispensary","phone":"(907) 772-3673","city":"Petersburg","state":"Alaska","zipcode":"99833","slug":"the-420-petersburg"},{"name":"The Tufted Puffin","type":"dispensary","phone":"(907) 224-2222","city":"Seward","state":"Alaska","zipcode":"99664","slug":"the-tufted-puffin"},{"name":"Blaze Demo Dispensary 4","type":"dispensary","phone":"5555555555","city":"Cold","state":"Alaska","zipcode":"99762","slug":"blaze-demo-dispensary-4"},{"name":"Country Cannabis","type":"dispensary","phone":"907-745-4663","city":"Palmer","state":"Alaska","zipcode":"99645","slug":"country-cannabis-2"},{"name":"AKO FARMS LLC","type":"dispensary","phone":"9076230322","city":"Sitka","state":"Alaska","zipcode":"99835","slug":"ako-farms-llc-3"},{"name":"The Tree House - AK","type":"dispensary","phone":"907-229-2284","city":"Anchorage","state":"Alaska","zipcode":"99504","slug":"the-tree-house-ak"},{"name":"MCC Flight","type":"dispensary","phone":"907-357-4222","city":"Palmer","state":"Alaska","zipcode":"99645","slug":"mcc-flight"},{"name":"Alaskan Kush Company","type":"dispensary","phone":"(907) 500-7440","city":"Juneau","state":"Alaska","zipcode":"99801","slug":"alaskan-kush-company"},{"name":"GoodSinse - East","type":"dispensary","phone":"(907) 385-6010","city":"Fairbanks","state":"Alaska","zipcode":"99709","slug":"goodsinse-1"},{"name":"Commerce Test Delivery","type":"delivery","phone":"7145551234","city":"North Slope","state":"Alaska","zipcode":"99701","slug":"commerce-test-delivery"},{"name":"Red Run Cannabis Company","type":"dispensary","phone":"(907) 283-0800","city":"Kenai","state":"Alaska","zipcode":"99611","slug":"red-run-cannabis-company"},{"name":"Alaska Weeds","type":"dispensary","phone":"(907) 349-3337","city":"Anchorage","state":"Alaska","zipcode":"99518","slug":"alaska-weeds"},{"name":"Laughing Salmon Cannabis","type":"dispensary","phone":"907-376-0420","city":"Wasilla","state":"Alaska","zipcode":"99654","slug":"laughing-salmon-cannabis"},{"name":"Mile High Alaska","type":"dispensary","phone":"907-222-0420","city":"Anchorage","state":"Alaska","zipcode":"99518","slug":"mile-high-alaska"},{"name":"High-Mark Cannabis","type":"dispensary","phone":"9073578742","city":"Wasilla","state":"Alaska","zipcode":"99623","slug":"high-mark-cannabis"},{"name":"Cannabis Corner","type":"dispensary","phone":"(907) 225-4420","city":"Ketchikan","state":"Alaska","zipcode":"99901","slug":"cannabis-corner-ketchikan"},{"name":"Weed Dudes","type":"dispensary","phone":"(907) 623-0605","city":"Sitka","state":"Alaska","zipcode":"99835","slug":"weed-dudes"},{"name":"Tip Top","type":"dispensary","phone":"907-644-3066","city":"Anchorage","state":"Alaska","zipcode":"99501","slug":"tip-top"},{"name":"Coldsmoke","type":"dispensary","phone":"907-262-WEED","city":"Soldotna","state":"Alaska","zipcode":"99669","slug":"coldsmoke"},{"name":"Canna Get Happy","type":"dispensary","phone":"907-376-2900","city":"Wasilla","state":"Alaska","zipcode":"99654","slug":"canna-get-happy"},{"name":"Winter Greens","type":"dispensary","phone":"(907) 766-3637","city":"Haines","state":"Alaska","zipcode":"99827","slug":"winter-greens"},{"name":"Ganja Guys of Alaska","type":"dispensary","phone":"9072064420","city":"Anchorage","state":"Alaska","zipcode":"99518","slug":"ganja-guys-of-alaska-5"},{"name":"Alaska Harvest Company","type":"dispensary","phone":"907-953-3466","city":"Soldotna","state":"Alaska","zipcode":"99669","slug":"alaska-harvest-company"},{"name":"Great Alaskan Bud Company - GABCO","type":"dispensary","phone":"(907) 479-4420","city":"Fairbanks","state":"Alaska","zipcode":"99701","slug":"great-alaskan-bud-company"},{"name":"GOOD","type":"dispensary","phone":"(907) 452-5463","city":"Fairbanks","state":"Alaska","zipcode":"99701","slug":"good"},{"name":"Cannabaska Downtown","type":"dispensary","phone":"(907) 375-9333","city":"Anchorage","state":"Alaska","zipcode":"99501","slug":"cannabaska-downtown"},{"name":"Glacier Valley Shoppe","type":"dispensary","phone":"(907) 419-7943","city":"Juneau","state":"Alaska","zipcode":"99801","slug":"glacier-valley-shoppe"},{"name":"East Rip","type":"dispensary","phone":"(907) 283-7833","city":"Kenai","state":"Alaska","zipcode":"99611","slug":"east-rip-kenai"},{"name":"Hillside Natural Wellness","type":"dispensary","phone":"(907) 868-8639","city":"Anchorage","state":"Alaska","zipcode":"99507","slug":"hillside-natural-wellness"},{"name":"Great Northern Cannabis - Dimond","type":"dispensary","phone":"(907) 334-5874","city":"Anchorage","state":"Alaska","zipcode":"99515","slug":"great-northern-cannabis-south-anchorage"},{"name":"Hatchers Grass","type":"dispensary","phone":"9077463018","city":"Palmer","state":"Alaska","zipcode":"99645","slug":"hatchers-grass"},{"name":"Higher","type":"dispensary","phone":"9077450420","city":"Palmer","state":"Alaska","zipcode":"99645","slug":"higher-by-bad-gramm3r"},{"name":"WM Pickup Demo (Test)","type":"dispensary","phone":"000-000-0000","city":"North Slope Borough","state":"Alaska","zipcode":"99723","slug":"wm-pickup-demo-test"},{"name":"King Street Cannabis Co","type":"dispensary","phone":"907-522-5464","city":"Anchorage","state":"Alaska","zipcode":"99515","slug":"king-street-cannabis-co-2"},{"name":"Remedy Shoppe","type":"dispensary","phone":"(907) 983-3345","city":"Skagway","state":"Alaska","zipcode":"99840","slug":"remedy-shoppe"},{"name":"Arctic Herbery","type":"dispensary","phone":"(907) 222-1466","city":"Anchorage","state":"Alaska","zipcode":"99518","slug":"arctic-herbery-anchorage"},{"name":"Green Growcer","type":"dispensary","phone":"9073128420","city":"anchorage","state":"Alaska","zipcode":"99515","slug":"green-growcer"},{"name":"K Beach Reef","type":"dispensary","phone":"(907) 335-0016","city":"Soldotna","state":"Alaska","zipcode":"99669","slug":"k-beach-reef-2"},{"name":"The High Expedition","type":"dispensary","phone":"(907) 733-0911","city":"Talkeetna","state":"Alaska","zipcode":"99676","slug":"the-high-expedition"},{"name":"AK Frost","type":"dispensary","phone":"(907) 563-9333","city":"Anchorage","state":"Alaska","zipcode":"99518","slug":"ak-frost"},{"name":"Pine Street Cannabis Company","type":"dispensary","phone":"(907) 260-3330","city":"Soldotna","state":"Alaska","zipcode":"99669","slug":"pine-street-cannabis-company"},{"name":"Releaf Alaska","type":"doctor","phone":"(907) 250-5453","city":"Anchorage","state":"Alaska","zipcode":"99518","slug":"releaf-alaska"},{"name":"AK Tasty Cannabis","type":"dispensary","phone":"9072780510","city":"Anchorage","state":"Alaska","zipcode":"99501","slug":"ak-tasty-cannabis"},{"name":"Airport Way Best Bud","type":"dispensary","phone":"9073280422","city":"Fairbanks","state":"Alaska","zipcode":"99709","slug":"airport-way-best-bud"},{"name":"Rebel Roots","type":"dispensary","phone":"(907) 455-4055","city":"Fairbanks","state":"Alaska","zipcode":"99709","slug":"rebel-roots"},{"name":"House of Green","type":"dispensary","phone":"(907) 929-3105","city":"Anchorage","state":"Alaska","zipcode":"99503","slug":"house-of-green-anchorage"},{"name":"Houston Grass Station","type":"dispensary","phone":"(907) 892-4727","city":"Houston","state":"Alaska","zipcode":"99694","slug":"houston-grass-station"},{"name":"The Depot","type":"dispensary","phone":"9074950711","city":"Willow","state":"Alaska","zipcode":"99688","slug":"the-depot"},{"name":"Denali's Cannabis Cache (Seasonal)","type":"dispensary","phone":"(907) 683-2633","city":"Denali","state":"Alaska","zipcode":"99755","slug":"denali-s-cannabis-cache"},{"name":"Arctic Herbery","type":"dispensary","phone":"907-595-2348","city":"Cooper Landing","state":"Alaska","zipcode":"99572","slug":"arctic-herbery-1"},{"name":"Northern Lights Indoor Gardens","type":"dispensary","phone":"(907) 747-1087","city":"Sitka","state":"Alaska","zipcode":"99835","slug":"northern-lights-indoor-gardens"},{"name":"Denali Dispensaries","type":"dispensary","phone":"(907) 646-4200","city":"Anchorage","state":"Alaska","zipcode":"99501","slug":"denali-dispensaries"},{"name":"AlaskaBuds","type":"dispensary","phone":"(907) 334-6420","city":"Anchorage","state":"Alaska","zipcode":"99501","slug":"alaskabuds"},{"name":"Dankorage","type":"dispensary","phone":"(907) 279-3265","city":"Anchorage","state":"Alaska","zipcode":"99503","slug":"dankorage"},{"name":"The Frost Farms","type":"dispensary","phone":"(907) 522-5050","city":"Anchorage","state":"Alaska","zipcode":"99515","slug":"the-frost-farms"},{"name":"AK Joint","type":"dispensary","phone":"(907) 522-5222","city":"Anchorage","state":"Alaska","zipcode":"99518","slug":"ak-joint"},{"name":"Scorpion Grass","type":"dispensary","phone":"907-373-4777","city":"Wasilla","state":"Alaska","zipcode":"99654","slug":"scorpion-grass"},{"name":"AK Slow Burn - Tudor","type":"dispensary","phone":"(907) 771-4021","city":"Anchorage","state":"Alaska","zipcode":"99507","slug":"ak-slow-burn-1"},{"name":"Bad Gramm3r","type":"dispensary","phone":"(907) 357-0420","city":"Wasilla","state":"Alaska","zipcode":"99654","slug":"bad-gramm3r"},{"name":"Alaska Cannabis Medical","type":"doctor","phone":"(907) 223-1943","city":"Anchorage","state":"Alaska","zipcode":"99515","slug":"alaska-cannabis-medical"},{"name":"Green Degree - Machen - Wasilla","type":"dispensary","phone":"(907) 376-4372","city":"Wasilla","state":"Alaska","zipcode":"99623","slug":"rosebuds-shatter-house"},{"name":"Catalyst Cannabis Company - Southside","type":"dispensary","phone":"(907) 344-0668","city":"Anchorage","state":"Alaska","zipcode":"99515","slug":"catalyst-cannabis-company"},{"name":"Nature’s ReLeaf","type":"dispensary","phone":"(907) 374-9333","city":"Fairbanks","state":"Alaska","zipcode":"99701","slug":"natures-releaf"},{"name":"Catalyst Cannabis Company - Eastside","type":"dispensary","phone":"907-222-6847","city":"Anchorage","state":"Alaska","zipcode":"99504","slug":"catalyst-cannabis-company-1"},{"name":"Hollyweed 907","type":"dispensary","phone":"(907) 929-3331","city":"Anchorage","state":"Alaska","zipcode":"99507","slug":"hollyweed-907"},{"name":"Matanuska Cannabis Company","type":"dispensary","phone":"(907) 745-4211","city":"Palmer","state":"Alaska","zipcode":"99645","slug":"matanuska-cannabis-company"},{"name":"The Great Alaskan Kush Company","type":"dispensary","phone":"000.000.000","city":"Anchorage","state":"Alaska","zipcode":"99518","slug":"the-great-alaskan-kush-company"},{"name":"Alaska Cannabis Exchange","type":"dispensary","phone":"(907) 301-4208","city":"Anchorage","state":"Alaska","zipcode":"99503","slug":"alaska-cannabis-exchange"},{"name":"The Honey Pot","type":"dispensary","phone":"9073850322","city":"North Pole","state":"Alaska","zipcode":"99705","slug":"the-honey-pot-3"},{"name":"Logistics Demo","type":"delivery","phone":"5554841205","city":"North Slope","state":"Alaska","zipcode":"99722","slug":"logistics-demo"},{"name":"Herbal Outfitters","type":"dispensary","phone":"(907) 835-4201","city":"Valdez","state":"Alaska","zipcode":"99686","slug":"herbal-outfitters"},{"name":"Pipe & Leaf","type":"dispensary","phone":"(907) 328-7747","city":"Fairbanks","state":"Alaska","zipcode":"99709","slug":"pipe-and-leaf"},{"name":"WM Delivery Demo (Test)","type":"delivery","phone":"000-000-0000","city":"North Slope Borough","state":"Alaska","zipcode":"99723","slug":"wm-delivery-demo-test"},{"name":"True Dank","type":"dispensary","phone":"(907) 451-4516","city":"Fairbanks","state":"Alaska","zipcode":"99701","slug":"true-dank"},{"name":"Grass Station 49 - Chena Hot Springs","type":"dispensary","phone":"(907) 456-4108","city":"Fairbanks","state":"Alaska","zipcode":"99712","slug":"grass-station-49-2"},{"name":"Good Buds","type":"dispensary","phone":"(907) 422-7598","city":"Seward","state":"Alaska","zipcode":"99664","slug":"good-buds"},{"name":"Kenai River Cannabis","type":"dispensary","phone":"(907) 395-0476","city":"Kenai","state":"Alaska","zipcode":"99611","slug":"kenai-river-cannabis"},{"name":"Green Life Supply","type":"dispensary","phone":"(907) 374-4769","city":"Fairbanks","state":"Alaska","zipcode":"99701","slug":"green-life-supply"},{"name":"Top Shelf Herbs of Alaska","type":"dispensary","phone":"907-222-2488","city":"Anchorage","state":"Alaska","zipcode":"99503","slug":"top-shelf-herbs-of-alaska-llc"},{"name":"Brück Clift MD, LLC","type":"doctor","phone":"(907) 746-6686","city":"Palmer","state":"Alaska","zipcode":"99645","slug":"bruck-clift-md-llc"},{"name":"Alaskan Leaf","type":"dispensary","phone":"(907) 770-0262","city":"Anchorage","state":"Alaska","zipcode":"99502","slug":"alaskan-leaf"},{"name":"High Bush Buds","type":"dispensary","phone":"(907) 953-9393","city":"Soldotna","state":"Alaska","zipcode":"99669","slug":"high-bush-buds-kenai"},{"name":"Raspberry Roots","type":"dispensary","phone":"(907) 522-2450","city":"Anchorage","state":"Alaska","zipcode":"99518","slug":"raspberry-roots"},{"name":"Rainforest Cannabis","type":"dispensary","phone":"(907) 247-9333","city":"Ketchikan","state":"Alaska","zipcode":"99901","slug":"rainforest-cannabis"},{"name":"Green Degree - KGB - Wasilla","type":"dispensary","phone":"(907) 376-3155","city":"Wasilla","state":"Alaska","zipcode":"99654","slug":"green-degree"},{"name":"Permafrost Distributors","type":"dispensary","phone":"(907) 260-7584","city":"Sterling","state":"Alaska","zipcode":"99672","slug":"permafrost-distributors"},{"name":"Cloudberry Cannabis","type":"dispensary","phone":"907-644-3010","city":"Anchorage","state":"Alaska","zipcode":"99503","slug":"cloudberry-cannabis"},{"name":"Badger Buds","type":"dispensary","phone":"907-385-0323","city":"North pole","state":"Alaska","zipcode":"99705","slug":"badger-buds-1"}]}}