{"meta":{"total_listings":157},"data":{"listings":[{"name":"Cannabis Patient Evaluation Center","type":"doctor","phone":"(800) 496-3024","city":"Tempe","state":"Arizona","zipcode":"85282","slug":"cannabis-patient-evaluation-center"},{"name":"Arizona Medical Marijuana Clinic","type":"doctor","phone":"(480) 994-0420","city":"Scottsdale","state":"Arizona","zipcode":"85253","slug":"azmmcc-scottsdale"},{"name":"Nature's Medicines Phoenix Delivery","type":"delivery","phone":"(480) 420-3145","city":"Phoenix","state":"Arizona","zipcode":"85001","slug":"nature-s-medicines-phoenix"},{"name":"Half Baked Medical","type":"doctor","phone":"602-795-4205","city":"Phoenix","state":"Arizona","zipcode":"85018","slug":"half-baked-medical-2"},{"name":"Nova Dispensary","type":"dispensary","phone":"(480) 912-4444","city":"Mesa","state":"Arizona","zipcode":"85202","slug":"nova-dispensary"},{"name":"Sedona Green Cross","type":"doctor","phone":"480-443-8665","city":"Sedona","state":"Arizona","zipcode":"86336","slug":"sedona-green-cross"},{"name":"Bloom Sedona","type":"dispensary","phone":"9282828122","city":"Sedona","state":"Arizona","zipcode":"86336","slug":"bloom-sedona"},{"name":"The Prime Leaf - University","type":"dispensary","phone":"(520) 447-7463","city":"Tucson","state":"Arizona","zipcode":"85719","slug":"the-prime-leaf-3"},{"name":"Green Med Wellness Center","type":"dispensary","phone":"520-886-2484","city":"Tucson","state":"Arizona","zipcode":"85712","slug":"green-med-wellness-center"},{"name":"Tru Bliss","type":"dispensary","phone":"(480) 325-5000","city":"Mesa","state":"Arizona","zipcode":"85212","slug":"tru-bliss"},{"name":"Valley of the Sun Medical Dispensary","type":"dispensary","phone":"(623) 932-3859","city":"Goodyear","state":"Arizona","zipcode":"85338","slug":"valley-of-the-sun-medical-dispensary-goodyear"},{"name":"Scottsdale Marijuana Card Exams","type":"doctor","phone":"(480) 626-1888","city":"Scottsdale","state":"Arizona","zipcode":"85251","slug":"scottsdale-marijuana-card-exams"},{"name":"The Mint Cannabis - Tempe","type":"dispensary","phone":"(480) 749-6468","city":"Guadalupe","state":"Arizona","zipcode":"85283","slug":"the-mint-dispensary"},{"name":"Curaleaf - Pavilions","type":"dispensary","phone":"(623) 244-5349","city":"Phoenix","state":"Arizona","zipcode":"85035","slug":"curaleaf-pavilions"},{"name":"Nature's Medicines Glendale (Rec\/Adult Use)","type":"dispensary","phone":"833-356-3145","city":"Glendale","state":"Arizona","zipcode":"85301","slug":"nature-s-medicines-glendale-recreational"},{"name":"White Mountain Health Center","type":"dispensary","phone":"(623) 374-4141","city":"Sun City","state":"Arizona","zipcode":"85351","slug":"white-mountain-health-center"},{"name":"All Greens Dispensary - Sun City AZ","type":"dispensary","phone":"(623) 214-0801","city":"Sun City","state":"Arizona","zipcode":"85351","slug":"all-greens-dispensary"},{"name":"GREENPHARMS Dispensary Flagstaff","type":"dispensary","phone":"928-522-6337","city":"Flagstaff","state":"Arizona","zipcode":"86004","slug":"greenpharms-flagstaff"},{"name":"WAM - El Mirage","type":"dispensary","phone":"(623) 478-2233","city":"El Mirage","state":"Arizona","zipcode":"85335","slug":"wickenburg-alternative-medicine-el-mirage"},{"name":"Nature's Medicines Glendale Delivery","type":"delivery","phone":"602-641-6600","city":"Glendale","state":"Arizona","zipcode":"85031","slug":"nature-s-medicines-glendale-delivery"},{"name":"Chelson Naturopathic Physician","type":"doctor","phone":"520-437-9562","city":"Tucson","state":"Arizona","zipcode":"85747","slug":"dr-debora-chelson"},{"name":"Health for Life Crimson","type":"dispensary","phone":"(480) 400-1170","city":"Mesa","state":"Arizona","zipcode":"85207","slug":"health-for-life-crimson"},{"name":"Havasu Certifications","type":"doctor","phone":"928-453-0011","city":"Lake Havasu City","state":"Arizona","zipcode":"86406","slug":"havasu-certifications"},{"name":"Trichrome Care Clinic","type":"doctor","phone":"(480) 649-3329 ","city":"Mesa","state":"Arizona","zipcode":"85210","slug":"trichome-care-clinic"},{"name":"Sunday Goods Dispensary","type":"dispensary","phone":"(480) 581-5149","city":"Phoenix","state":"Arizona","zipcode":"85020","slug":"sunday-goods-dispensary"},{"name":"Nature's Wonder Dispensary","type":"dispensary","phone":"(480) 982-1529","city":"Apache Junction","state":"Arizona","zipcode":"85120","slug":"nature-s-wonder-dispensary"},{"name":"Marijuana Certifications","type":"doctor","phone":"213-542-0665","city":"Scottsdale","state":"Arizona","zipcode":"85254","slug":"marijuana-certifications-3"},{"name":"Marijuana Certifications","type":"doctor","phone":"213-542-0665","city":"Chino Valley","state":"Arizona","zipcode":"86323","slug":"marijuana-certifications-5"},{"name":"Curaleaf Gilbert","type":"dispensary","phone":"480-361-0078","city":"Gilbert","state":"Arizona","zipcode":"85233","slug":"curaleafgilbert"},{"name":"Independent Wellness Center","type":"doctor","phone":"(480) 983-5060","city":"Apache Junction","state":"Arizona","zipcode":"85120","slug":"independent-wellness-center"},{"name":"AZ Medical Marijuana Doctor","type":"doctor","phone":"623-295-9382","city":"Scottsdale","state":"Arizona","zipcode":"85251","slug":"community-of-higher-learning"},{"name":"The Green Halo - Tucson Dispensary","type":"dispensary","phone":"(520) 664-2251","city":"Tucson","state":"Arizona","zipcode":"85706","slug":"the-green-halo"},{"name":"SWC Prescott","type":"dispensary","phone":"928-778-5900","city":"Prescott","state":"Arizona","zipcode":"86301","slug":"swc-prescott"},{"name":"Marijuana Doctor","type":"doctor","phone":"480-966-6537","city":"Tempe","state":"Arizona","zipcode":"85012","slug":"the-marijuana-doctor-camelback-rd"},{"name":"The Marijuana Doctor","type":"doctor","phone":"602-277-6537","city":"Phoenix","state":"Arizona","zipcode":"85012","slug":"the-marijuana-doctor-2"},{"name":"Green Cross Patient Center","type":"doctor","phone":"(480) 420-6582","city":"Gilbert","state":"Arizona","zipcode":"85234","slug":"green-cross-medical-marijuana-dr"},{"name":"New Life Clinic","type":"doctor","phone":"480-510-5344","city":"Scottsdale","state":"Arizona","zipcode":"85251","slug":"new-life-clinic"},{"name":"Nature's Medicines Phoenix (Rec\/Adult Use)","type":"dispensary","phone":"833-356-3145","city":"Phoenix","state":"Arizona","zipcode":"85009","slug":"nature-s-medicines-phoenix-recreational"},{"name":"Curaleaf - Youngtown","type":"dispensary","phone":"(623) 444-5977","city":"Youngtown","state":"Arizona","zipcode":"85363","slug":"curaleaf-youngtown"},{"name":"Natural Remedy Patient Center","type":"dispensary","phone":"9284326959","city":"Safford","state":"Arizona","zipcode":"85546","slug":"natural-remedy-patient-center-dispensary"},{"name":"Arizona Natural Selections - Mesa","type":"dispensary","phone":"(480) 272-9888","city":"Mesa","state":"Arizona","zipcode":"85204","slug":"arizona-natural-selections-mesa"},{"name":"MuV Dispensary - Phoenix","type":"dispensary","phone":"602-960-2273","city":"Phoenix","state":"Arizona","zipcode":"85022","slug":"muv-alt-med"},{"name":"Arizona Medical Marijuana Certification Clinic","type":"doctor","phone":"(520) 441-7420","city":"Tucson","state":"Arizona","zipcode":"85718","slug":"azmmcc-tucson"},{"name":"Sol Flower - Tempe McClintock","type":"dispensary","phone":"(480) 795-6363","city":"Tempe","state":"Arizona","zipcode":"85281","slug":"sol-flower-2"},{"name":"Oasis Cannabis | Glendale","type":"dispensary","phone":"(623) 295-1788","city":"Glendale","state":"Arizona","zipcode":"85308","slug":"oasis-dispensaries-glendale"},{"name":"Natural Healing Care Center","type":"doctor","phone":"(520) 323-0069","city":"Tucson","state":"Arizona","zipcode":"85719","slug":"natural-healing-care-center"},{"name":"Earth's Healing Delivery","type":"delivery","phone":"520-253-7198","city":"Tucson","state":"Arizona","zipcode":"85714","slug":"earth-s-healing-dispensary"},{"name":"Green Farmacy","type":"dispensary","phone":"(520) 686-8708","city":"Bisbee","state":"Arizona","zipcode":"85603","slug":"green-farmacy"},{"name":"Bloom Phoenix","type":"dispensary","phone":"(602) 396-5757","city":"Phoenix","state":"Arizona","zipcode":"85034","slug":"bloom-phoenix-dispensary"},{"name":"The Flower Shop – Mesa","type":"dispensary","phone":"(480) 500-5054","city":"Mesa","state":"Arizona","zipcode":"85205","slug":"sky-dispensaries-mesa"},{"name":"Curaleaf - Central","type":"dispensary","phone":"(480) 739-0366","city":"Phoenix","state":"Arizona","zipcode":"85040","slug":"curaleaf-central"},{"name":"Untamed Herbs","type":"dispensary","phone":"(928) 474-2420","city":"Payson","state":"Arizona","zipcode":"85541","slug":"uncle-herbs-health-center-payson"},{"name":"The Phoenix","type":"dispensary","phone":"(480) 420-0377","city":"Tolleson","state":"Arizona","zipcode":"85353","slug":"the-phoenix"},{"name":"Raven Wellness Center","type":"doctor","phone":"(480) 845-1399","city":"Apache Junction","state":"Arizona","zipcode":"85120","slug":"raven-wellness-center"},{"name":"The Good Dispensary","type":"dispensary","phone":"(480) 900-8042","city":"Mesa","state":"Arizona","zipcode":"85202","slug":"the-good-dispensary-mesa-az"},{"name":"Half Baked Medical","type":"doctor","phone":"480-361-6010","city":"Mesa","state":"Arizona","zipcode":"85210","slug":"half-baked-medical"},{"name":"Local Joint Phoenix","type":"dispensary","phone":"(602) 437-1645","city":"Phoenix","state":"Arizona","zipcode":"85034","slug":"local-joint-phoenix"},{"name":"Jamestown Yuma","type":"dispensary","phone":"(928) 344-1735","city":"Yuma","state":"Arizona","zipcode":"85365","slug":"jamestown-yuma"},{"name":"Canna-Releaf","type":"doctor","phone":"480-364-1338","city":"Mesa","state":"Arizona","zipcode":"85206","slug":"canna-releaf"},{"name":"Oasis Cannabis | North Chandler","type":"dispensary","phone":"(480) 626-7333","city":"Chandler","state":"Arizona","zipcode":"85226","slug":"oasis-dispensaries"},{"name":"Curaleaf","type":"dispensary","phone":"(602) 388-4400","city":"Phoenix","state":"Arizona","zipcode":"85023","slug":"curaleaf-bell"},{"name":"iLava Now","type":"delivery","phone":"(520) 485-2000","city":"Tucson","state":"Arizona","zipcode":"85705","slug":"ilava"},{"name":"Hana Kingman","type":"dispensary","phone":"928-692-0000","city":"Kingman","state":"Arizona","zipcode":"86409","slug":"hana-kingman"},{"name":"Marijuana Certifications","type":"doctor","phone":"213-542-0665","city":"Kingman","state":"Arizona","zipcode":"86409","slug":"marijuana-certifications-8"},{"name":"Territory Dispensary - Mesa (Medical)","type":"dispensary","phone":"480-581-4010","city":"Mesa","state":"Arizona","zipcode":"85201","slug":"territory-dispensary-mesa-1"},{"name":"Greenhouse of Flagstaff","type":"dispensary","phone":"(928) 351-7775","city":"Flagstaff","state":"Arizona","zipcode":"86001","slug":"greenhouse-of-flagstaff"},{"name":"IRIE Natural Health Center","type":"doctor","phone":"480-341-9400","city":"Tempe","state":"Arizona","zipcode":"85283","slug":"irie-natural-health-center"},{"name":"Emerald Dispensary","type":"dispensary","phone":"(623) 271-6065","city":"Phoenix","state":"Arizona","zipcode":"85051","slug":"emerald-phoenix"},{"name":"Valley Evaluation Centers Phoenix Goodyear","type":"doctor","phone":"602-448-4655","city":"Litchfield Park","state":"Arizona","zipcode":"85340","slug":"valley-evaluation-centers"},{"name":"MedMen Scottsdale - Talking Stick","type":"dispensary","phone":"(480) 818-6903","city":"Scottsdale","state":"Arizona","zipcode":"85258","slug":"medmen-scottsdale-talking-stick"},{"name":"The Nirvana Center - Apache Juction","type":"dispensary","phone":"(480) 935-1090","city":"Apache Junction","state":"Arizona","zipcode":"85120","slug":"the-nirvana-center-apache-juction"},{"name":"Cannabist Tempe","type":"dispensary","phone":"(480) 245-6751","city":"Tempe","state":"Arizona","zipcode":"85281","slug":"swc-tempe"},{"name":"Debbie's Dispensary - Phoenix","type":"dispensary","phone":"(833) 332-2437","city":"Phoenix","state":"Arizona","zipcode":"85027","slug":"debbie-s-dispensary-4"},{"name":"The Kind Connection Clinic","type":"doctor","phone":"928-846-9191","city":"Lake Havasu City","state":"Arizona","zipcode":"86403","slug":"the-kind-connection-clinic"},{"name":"D2 Dispensary","type":"dispensary","phone":"(520) 214-3232","city":"Tucson","state":"Arizona","zipcode":"85710","slug":"d2-dispensary"},{"name":"Nature’s Medicine Happy Valley","type":"dispensary","phone":"833-356-3145","city":"Phoenix","state":"Arizona","zipcode":"85085","slug":"desert-rose-phoenix"},{"name":"Desert Bloom Re-Leaf Center","type":"dispensary","phone":"(520) 886-1760","city":"Tucson","state":"Arizona","zipcode":"85710","slug":"desert-bloom-re-leaf-center"},{"name":"Arizona Organix","type":"dispensary","phone":"623-937-2752","city":"Glendale","state":"Arizona","zipcode":"85301","slug":"arizona-organix"},{"name":"The Mint Cannabis - Mesa","type":"dispensary","phone":"480-749-6468","city":"Mesa","state":"Arizona","zipcode":"85210","slug":"mint-dispensary"},{"name":"Green Leaf Medical Marijuana Card Doctors - Scottsdale","type":"doctor","phone":"602-314-8420","city":"Scottsdale","state":"Arizona","zipcode":"85258","slug":"green-leaf-mmj-clinic-scottsdale"},{"name":"Marijuana Certifications","type":"doctor","phone":"2135420665","city":"Yuma","state":"Arizona","zipcode":"85365","slug":"marijuana-certifications-6"},{"name":"Kind Meds Inc","type":"dispensary","phone":"(480) 686-9302","city":"Mesa","state":"Arizona","zipcode":"85210","slug":"kind-meds-inc"},{"name":"Wild Wellness Integrative Medicine: Dr. Josh Reilly","type":"doctor","phone":"520-600-0211","city":"Tucson","state":"Arizona","zipcode":"85705","slug":"wild-wellness-integrative-medicine-dr-josh-reilly"},{"name":"The Mint Cannabis - Phoenix","type":"dispensary","phone":"(480) 749-6468","city":"Phoenix","state":"Arizona","zipcode":"85032","slug":"the-mint-cannabis-cave-creek"},{"name":"Marigold","type":"dispensary","phone":"6029004557","city":"Phoenix","state":"Arizona","zipcode":"85021","slug":"marigold"},{"name":"Arizona MMJ Trading Company","type":"dispensary","phone":"(623) 335-2093","city":"Coolidge","state":"Arizona","zipcode":"85128","slug":"arizona-mmj-trading-company-coolidge"},{"name":"Green Goods - Phoenix","type":"dispensary","phone":"(623) 582-0436","city":"Phoenix","state":"Arizona","zipcode":"85027","slug":"arizona-natural-remedies"},{"name":"The Prime Leaf - Midtown","type":"dispensary","phone":"(520) 447-7463","city":"Tucson","state":"Arizona","zipcode":"85712","slug":"the-prime-leaf"},{"name":"Curaleaf - Camelback","type":"dispensary","phone":"(602) 354-3094","city":"Phoenix","state":"Arizona","zipcode":"85014","slug":"curaleaf-camelback"},{"name":"Giving Tree Dispensary","type":"dispensary","phone":"(623) 242-9080","city":"Phoenix","state":"Arizona","zipcode":"85027","slug":"giving-tree-dispensary"},{"name":"Marijuana Certifications","type":"doctor","phone":"2135420665","city":"Show Low","state":"Arizona","zipcode":"85901","slug":"marijuana-certifications-4"},{"name":"YiLo Superstore","type":"dispensary","phone":"(602) 539-2828","city":"Phoenix","state":"Arizona","zipcode":"85053","slug":"yilo-superstore"},{"name":"GREENPHARMS Delivery - Mesa","type":"delivery","phone":"(480) 410-6705","city":"Mesa","state":"Arizona","zipcode":"85209","slug":"greenpharms-dispensary-mesa"},{"name":"Herbal Wellness Center West","type":"dispensary","phone":"602-635-3502","city":"Phoenix","state":"Arizona","zipcode":"85019","slug":"herbal-wellness-center"},{"name":"Nature's Medicine Happy Valley (Rec\/Adult Use)","type":"dispensary","phone":"833-356-3145","city":"Phoenix","state":"Arizona","zipcode":"85085","slug":"nature-s-medicine-happy-valley-recreational"},{"name":"JARS Cannabis - Metro","type":"dispensary","phone":"(602) 870-8700","city":"Phoenix","state":"Arizona","zipcode":"85051","slug":"metro-meds-arizona"},{"name":"JARS Cannabis - 24th Street","type":"dispensary","phone":"6026756999","city":"Phoenix","state":"Arizona","zipcode":"85034","slug":"jars-cannabis-sky-harbor"},{"name":"Oasis Cannabis | South Chandler","type":"dispensary","phone":"(602) 903-3665","city":"Chandler","state":"Arizona","zipcode":"85248","slug":"oasis-dispensaries-chandler"},{"name":"Earth's Healing","type":"dispensary","phone":"(520) 373-5779","city":"Tucson","state":"Arizona","zipcode":"85714","slug":"earth-s-healing-tucson"},{"name":"Nature's Medicines Phoenix (Medical)","type":"dispensary","phone":"833-356-3145","city":"Phoenix","state":"Arizona","zipcode":"85009","slug":"natures-az-medicines-phoenix"},{"name":"Arizona Cannabis Society Inc","type":"dispensary","phone":"888-249-2927","city":"El Mirage","state":"Arizona","zipcode":"85335","slug":"arizona-cannabis-society-inc"},{"name":"The Superior Dispensary","type":"dispensary","phone":"(602) 926-9100","city":"Phoenix","state":"Arizona","zipcode":"85043","slug":"the-superior-dispensary"},{"name":"Debbie's Dispensary - Bullhead City","type":"dispensary","phone":"928-768-4665","city":"Bullhead City","state":"Arizona","zipcode":"86442","slug":"debbie-s-dispensary"},{"name":"The Nirvana Center of Prescott Valley","type":"dispensary","phone":"(928) 227-2441","city":"Prescott Valley","state":"Arizona","zipcode":"86314","slug":"the-nirvana-center-of-prescott-valley"},{"name":"Green Leaf Medical Marijuana Card Doctors - Chandler","type":"doctor","phone":"480-656-1068","city":"Chandler","state":"Arizona","zipcode":"85224","slug":"green-leaf-mmj-clinic"},{"name":"Genesis Natural Medicine Center","type":"doctor","phone":"520-495-4400","city":"Tucson","state":"Arizona","zipcode":"85719","slug":"genesis-natural-medicine-center"},{"name":"The Holistic Center","type":"dispensary","phone":"(602)842-5790","city":"Phoenix","state":"Arizona","zipcode":"85024","slug":"the-holistic-center-3"},{"name":"TruMed Premier Dispensary","type":"dispensary","phone":"602-275-1279","city":"Phoenix","state":"Arizona","zipcode":"85008","slug":"trumed-premier-dispensary-arcadia-phoenix"},{"name":"Reef Dispensaries - Northwest Phoenix","type":"dispensary","phone":"(602) 535-0999","city":"Glendale","state":"Arizona","zipcode":"85308","slug":"reef-dispensaries-phoenix"},{"name":"Health for Life AZ North Mesa","type":"dispensary","phone":"(480) 830-8251","city":"Mesa","state":"Arizona","zipcode":"85215","slug":"health-for-life-az-north-mesa"},{"name":"Sol Flower - Sun City","type":"dispensary","phone":"(623) 246-8080","city":"Sun City","state":"Arizona","zipcode":"85351","slug":"sol-flower"},{"name":"Reef Dispensaries - Queen Creek","type":"dispensary","phone":"(480) 550-9121","city":"Queen Creek","state":"Arizona","zipcode":"85142","slug":"reef-dispensaries-queen-creek"},{"name":"Medusa Farms","type":"dispensary","phone":"(928) 421-0020","city":"Kingman","state":"Arizona","zipcode":"86401","slug":"medusa-farms"},{"name":"Downtown Dispensary","type":"dispensary","phone":"(520) 838-0492","city":"Tucson","state":"Arizona","zipcode":"85705","slug":"the-downtown-dispensary"},{"name":"Bloom Tucson","type":"dispensary","phone":"(520) 293-3315","city":"Tucson","state":"Arizona","zipcode":"85705","slug":"bloom-tucson"},{"name":"Curaleaf Midtown","type":"dispensary","phone":"(602) 466-1087","city":"Phoenix","state":"Arizona","zipcode":"85012","slug":"mid-town-roots"},{"name":"The Flower Shop – Phoenix","type":"dispensary","phone":"(602) 812-4695","city":"Phoenix","state":"Arizona","zipcode":"85008","slug":"sky-dispensaries-phoenix"},{"name":"Hana Green Valley","type":"dispensary","phone":"520-289-8030","city":"Sahuarita","state":"Arizona","zipcode":"85614","slug":"hana-green-valley"},{"name":"Ponderosa Dispensary","type":"dispensary","phone":"(623) 877-3934","city":"Glendale","state":"Arizona","zipcode":"85305","slug":"ponderosa-releaf"},{"name":"Nirvana Center - West Phoenix","type":"dispensary","phone":"(602) 786-7988","city":"Phoenix","state":"Arizona","zipcode":"85305","slug":"nirvanawestphoenix"},{"name":"MMJ APOTHECARY","type":"dispensary","phone":"(928) 684-8880","city":"Wickenburg","state":"Arizona","zipcode":"85390","slug":"mmj-apothercary-az"},{"name":"Dr. Barbara Dorf","type":"doctor","phone":"9287532100","city":"Kingman","state":"Arizona","zipcode":"86401","slug":"dr-barbara-dorf"},{"name":"Stone Naturopathic","type":"doctor","phone":"480-331-7353","city":"Tempe","state":"Arizona","zipcode":"85282","slug":"stone-naturopathic"},{"name":"Marijuana Certifications","type":"doctor","phone":"213-542-0665","city":"Phoenix","state":"Arizona","zipcode":"85017","slug":"marijuana-certifications"},{"name":"Bloom Peoria","type":"dispensary","phone":"6232331010","city":"Peoria","state":"Arizona","zipcode":"85345","slug":"bloom-peoria"},{"name":"High Mountain Health","type":"dispensary","phone":"928-774-5467","city":"Flagstaff","state":"Arizona","zipcode":"86001","slug":"high-mountain-health-flagstaff"},{"name":"Arizona Natural Concepts","type":"dispensary","phone":"(602) 224-5999","city":"Phoenix","state":"Arizona","zipcode":"85085","slug":"arizona-natural-concepts"},{"name":"Sol Flower - Scottsdale Airpark","type":"dispensary","phone":"(480) 420-3300","city":"Scottsdale","state":"Arizona","zipcode":"85260","slug":"sol-flower-1"},{"name":"Territory Dispensary - Gilbert (Medical)","type":"dispensary","phone":"480-307-6880","city":"Mesa","state":"Arizona","zipcode":"85212","slug":"territory-dispensary-gilbert-1"},{"name":"Kompo","type":"dispensary","phone":"(928) 536-5151","city":"Taylor","state":"Arizona","zipcode":"85939","slug":"kompo-care"},{"name":"Sunnyside Cannabis Dispensary – Phoenix","type":"dispensary","phone":"602-649-0132","city":"Phoenix","state":"Arizona","zipcode":"85009","slug":"sunnyside-dispensary-phoenix"},{"name":"Affordable Evaluations of Arizona (AEAZ)","type":"doctor","phone":"(480) 420-4756","city":"Scottsdale","state":"Arizona","zipcode":"85257","slug":"affordable-evaluations-of-arizona-aeaz"},{"name":"Green Mountain Wellness","type":"doctor","phone":"928-965-9545","city":"Tucson","state":"Arizona","zipcode":"85716","slug":"green-mountain-wellness-kactus-kush"},{"name":"JARS Cannabis - New River","type":"dispensary","phone":"(623) 936-9333","city":"New River","state":"Arizona","zipcode":"85087","slug":"zen-dispensary"},{"name":"Botanica - Tucson","type":"dispensary","phone":"(520) 395-0230","city":"Tucson","state":"Arizona","zipcode":"85741","slug":"botanica-tucson"},{"name":"Farm Fresh Medical Marijuana Dispensary","type":"dispensary","phone":"(928) 733-6339","city":"Lake Havasu City","state":"Arizona","zipcode":"86403","slug":"farm-fresh-medical-marijuana-dispensary"},{"name":"The Nirvana Center - Phoenix","type":"dispensary","phone":"(602) 730-3236","city":"Phoenix","state":"Arizona","zipcode":"85009","slug":"the-nirvana-center"},{"name":"Territory Dispensary - Chandler (Medical)","type":"dispensary","phone":"(480) 636-8032","city":"Chandler","state":"Arizona","zipcode":"85226","slug":"territory-dispensary"},{"name":"East Valley MMJ","type":"doctor","phone":"800-614-9440","city":"Chandler","state":"Arizona","zipcode":"85225","slug":"east-valley-mmj"},{"name":"Health for Life - Ellsworth","type":"dispensary","phone":"480-888-0247","city":"Mesa","state":"Arizona","zipcode":"85212","slug":"health-for-life-az-east-mesa"},{"name":"Nature Med","type":"dispensary","phone":"(520) 620-9123","city":"Tucson","state":"Arizona","zipcode":"85743","slug":"nature-med-inc-tucson"},{"name":"GREENPHARMS Dispensary Mesa","type":"dispensary","phone":"(480) 410-6705","city":"Mesa","state":"Arizona","zipcode":"85209","slug":"greenpharms-mesa"},{"name":"Debbie's Dispensary - Peoria","type":"dispensary","phone":"833-332-2437","city":"Peoria","state":"Arizona","zipcode":"85382","slug":"debbie-s-dispensary-2"},{"name":"Dr. Heather Moroso","type":"doctor","phone":"520-495-4054","city":"Tucson","state":"Arizona","zipcode":"85705","slug":"moroso-medical-center"},{"name":"Nature Med Delivery","type":"delivery","phone":"520-620-9123","city":"Oro Valley","state":"Arizona","zipcode":"85737","slug":"golden-leaf-delivery"},{"name":"Dana Health Services","type":"doctor","phone":"480-840-7307","city":"Scottsdale","state":"Arizona","zipcode":"85251","slug":"dana-health-services-2"},{"name":"The Flower Shop – Ahwatukee","type":"dispensary","phone":"(480) 350-7624","city":"Phoenix","state":"Arizona","zipcode":"85044","slug":"sky-dispensaries-ahwatukee"},{"name":"Altitude Cannabis Evaluations","type":"doctor","phone":"(928) 719-7665","city":"Flagstaff","state":"Arizona","zipcode":"86001","slug":"altitude-cannabis-evaluations"},{"name":"Nature's Medicines Glendale (Medical)","type":"dispensary","phone":"833-356-3145","city":"Glendale","state":"Arizona","zipcode":"85301","slug":"nature-s-medicines-grand-coming-soon"},{"name":"Marijuana Certifications","type":"doctor","phone":"213-542-0665","city":"Payson","state":"Arizona","zipcode":"85541","slug":"marijuana-certifications-2"},{"name":"Curaleaf Glendale","type":"dispensary","phone":"(623) 385-1310","city":"Glendale","state":"Arizona","zipcode":"85308","slug":"curaleaf-glendale"},{"name":"Marijuana Certifications","type":"doctor","phone":"2135420665","city":"Lake Havasu City","state":"Arizona","zipcode":"86403","slug":"marijuana-certifications-7"},{"name":"Earth's Healing North","type":"dispensary","phone":"520-253-7198","city":"Tucson","state":"Arizona","zipcode":"85704","slug":"earth-s-healing"},{"name":"Herbal Wellness Center North","type":"dispensary","phone":"6028770211","city":"Phoenix","state":"Arizona","zipcode":"85024","slug":"herbal-wellness-center-north"},{"name":"Cannabis Certification Centers","type":"doctor","phone":"1-800-880-6563","city":"Scottsdale","state":"Arizona","zipcode":"85251","slug":"cannabis-certification-centers"},{"name":"Sol Flower - Tempe University","type":"dispensary","phone":"(480) 664-2017","city":"Tempe","state":"Arizona","zipcode":"85282","slug":"sol-flower-3"},{"name":"Nirvana Center - Tempe","type":"dispensary","phone":"4803786917","city":"Tempe","state":"Arizona","zipcode":"85120","slug":"nirvana-center"}]}}