{"meta":{"total_listings":55},"data":{"listings":[{"name":"Advance Healthcare NWA","type":"doctor","phone":"(479) 571-2273","city":"Springdale","state":"Arkansas","zipcode":"72764","slug":"advance-healthcare-nwa"},{"name":"Enlightened - Cannabis For People - Heber Springs","type":"dispensary","phone":"501-887-7420","city":"Heber Springs","state":"Arkansas","zipcode":"72543","slug":"enlightened-cannabis-for-people-heber-springs"},{"name":"Green Springs Medical","type":"dispensary","phone":"(501) 207-0420","city":"Hot Springs","state":"Arkansas","zipcode":"71901","slug":"green-springs-medical"},{"name":"Noah's Ark (Coming Soon)","type":"dispensary","phone":"000-000-0000","city":"El Dorado","state":"Arkansas","zipcode":"71730","slug":"noah-s-ark"},{"name":"Greenlight - Monticello","type":"dispensary","phone":"(501) 492-6991","city":"Monticello","state":"Arkansas","zipcode":"71655","slug":"monticello-dispensary"},{"name":"Enlightened – Cannabis For People - Arkadelphia","type":"dispensary","phone":"501-432-4200","city":"Arkadelphia","state":"Arkansas","zipcode":"71923","slug":"enlightened-cannabis-for-people-arkadelphia"},{"name":"Body and Mind - West Memphis Dispensary","type":"dispensary","phone":"870-514-3711","city":"West Memphis","state":"Arkansas","zipcode":"72301","slug":"comprehensive-care-group-1"},{"name":"Spring River Dispensary","type":"dispensary","phone":"870-955-5050","city":"Hardy","state":"Arkansas","zipcode":"72542","slug":"spring-river-dispensary"},{"name":"Enlightened – Cannabis For People - Clarksville","type":"dispensary","phone":"479-358-7575","city":"Clarksville","state":"Arkansas","zipcode":"72830","slug":"enlightened-cannabis-for-people-clarksville"},{"name":"Arkansas Natural Products","type":"dispensary","phone":"(501) 386-3166","city":"Clinton","state":"Arkansas","zipcode":"72031","slug":"arkansas-natural-products"},{"name":"Natural Relief Dispensary","type":"dispensary","phone":"501-487-6045","city":"Sherwood","state":"Arkansas","zipcode":"72120","slug":"natural-relief-dispensary"},{"name":"420 Dispensary","type":"dispensary","phone":"(479)-498-4200","city":"Russellville","state":"Arkansas","zipcode":"72802","slug":"420-dispensary-russellville"},{"name":"NEA Full Spectrum","type":"dispensary","phone":"870-634-6412","city":"Brookland","state":"Arkansas","zipcode":"72417","slug":"nea-full-spectrum"},{"name":"Miracle Leaf Arkansas","type":"doctor","phone":"8332603624","city":"Little Rock","state":"Arkansas","zipcode":"72201","slug":"miracle-leaf-arkansas"},{"name":"AR MMJ Cards (previously Concierge Cannabis Clinics)","type":"doctor","phone":"4793424585","city":"Little Rock","state":"Arkansas","zipcode":"72206","slug":"concierge-cannabis-clinics-2"},{"name":"Arkansas Marijuana Card","type":"doctor","phone":"479-935-9952","city":"Fayetteville","state":"Arkansas","zipcode":"72703","slug":"arkansas-marijuana-card"},{"name":"Native Green Hensley","type":"dispensary","phone":"(501) 993-0617","city":"Hensley","state":"Arkansas","zipcode":"72065","slug":"native-green-wellness-2"},{"name":"Custom Cannabis","type":"dispensary","phone":"501-213-0115","city":"Alexander","state":"Arkansas","zipcode":"72002","slug":"natural-state-medical-group-2"},{"name":"Hash and Co. (COMING SOON)","type":"dispensary","phone":"870-663-0900","city":"Pine Bluff","state":"Arkansas","zipcode":"71601","slug":"hash-and-co"},{"name":"James Miller MD","type":"doctor","phone":"870-394-9853","city":"West Memphis","state":"Arkansas","zipcode":"72301","slug":"james-miller-md"},{"name":"AR Cannabis Clinic","type":"doctor","phone":"8884542111","city":"Little Rock","state":"Arkansas","zipcode":"72211","slug":"ar-cannabis-clinic"},{"name":"Zen Leaf El Dorado (Now Open!)","type":"dispensary","phone":"8702291453","city":"El Dorado","state":"Arkansas","zipcode":"71730","slug":"zen-leaf-el-dorado"},{"name":"Delta Cannabis Co.","type":"dispensary","phone":"870-551-3642","city":"West Memphis","state":"Arkansas","zipcode":"72301","slug":"delta-cannabis-co-1"},{"name":"Red River Remedy","type":"dispensary","phone":"870-330-4951","city":"Texarkana","state":"Arkansas","zipcode":"71854","slug":"red-river-remedy"},{"name":"AR Cannabis Clinic","type":"doctor","phone":"1-888-454-2111","city":"Bentonville","state":"Arkansas","zipcode":"72712","slug":"ar-cannabis-clinic-4"},{"name":"Plant Family Therapeutics","type":"dispensary","phone":"870-709-0800","city":"Mountain Home","state":"Arkansas","zipcode":"72653","slug":"plant-family-therapeutics"},{"name":"Compassionate Care and Wellness, PLLC","type":"doctor","phone":"(479) 721-4414","city":"Rogers","state":"Arkansas","zipcode":"72756","slug":"compassionate-care-and-wellness-pllc"},{"name":"Ascension Wellness Clinic","type":"doctor","phone":"(501) 620-5106","city":"Hot Springs","state":"Arkansas","zipcode":"71913","slug":"ascension-wellness-clinic"},{"name":"Suite 443","type":"dispensary","phone":"(501) 262-9333","city":"Hot Springs","state":"Arkansas","zipcode":"71901","slug":"suite-443"},{"name":"AR Cannabis Clinic","type":"doctor","phone":"8884542111","city":"Texarkana","state":"Arkansas","zipcode":"71854","slug":"ar-cannabis-clinic-3"},{"name":"Dr. Tammy's Healing Art Centers","type":"doctor","phone":"(800) 479-6435","city":"Rogers","state":"Arkansas","zipcode":"72758","slug":"dr-tammys-healing-art-centers"},{"name":"Purspirit Cannabis Co.","type":"dispensary","phone":"479-957-1973","city":"Fayetteville","state":"Arkansas","zipcode":"72704","slug":"purspirit-cannabis-co"},{"name":"AR Cannabis Clinic","type":"doctor","phone":"8884542111","city":"North Little Rock","state":"Arkansas","zipcode":"72117","slug":"ar-cannabis-clinic-2"},{"name":"Pure Care Cannabis Clinic","type":"doctor","phone":"501-291-0606","city":"Little Rock","state":"Arkansas","zipcode":"72205","slug":"alternative-medical-clinic-of-arkansas"},{"name":"Enlightened – Cannabis For People - Morrilton","type":"dispensary","phone":"501-645-7035","city":"Morrilton","state":"Arkansas","zipcode":"72110","slug":"enlightened-cannabis-for-people-morrilton"},{"name":"High Bank Cannabis Co.","type":"dispensary","phone":"870-568-0420","city":"Pine Bluff","state":"Arkansas","zipcode":"71603","slug":"high-bank-cannabis-co"},{"name":"The Sanctuary Wellness Institute","type":"doctor","phone":"(501) 226-4177","city":"Little Rock","state":"Arkansas","zipcode":"72201","slug":"the-sanctuary-wellness-institute-13"},{"name":"Greenlight - West Memphis","type":"dispensary","phone":"870-497-2175","city":"West Memphis","state":"Arkansas","zipcode":"72301","slug":"west-memphis-dispensary"},{"name":"Arkansas Legal Cannabis","type":"doctor","phone":"(501) 377-1077","city":"Little Rock","state":"Arkansas","zipcode":"72205","slug":"arkansas-legal-cannabis"},{"name":"Greenlight - Helena","type":"dispensary","phone":"8707146119","city":"Helena","state":"Arkansas","zipcode":"72342","slug":"greenlight-helena"},{"name":"the Murphy Clinic","type":"doctor","phone":"501-766-4768","city":"Conway","state":"Arkansas","zipcode":"72032","slug":"the-murphy-clinic"},{"name":"Harvest Cannabis Dispensary","type":"dispensary","phone":"(501) 504-6065","city":"Conway","state":"Arkansas","zipcode":"72032","slug":"harvest-cannabis-dispensary-1"},{"name":"Native Green Little Rock (Now Open!)","type":"dispensary","phone":"5012637519","city":"Little Rock","state":"Arkansas","zipcode":"72202","slug":"native-green-wellness-little-rock"},{"name":"AR Cannabis Clinic","type":"doctor","phone":"8884542111","city":"Hot Springs","state":"Arkansas","zipcode":"71901","slug":"ar-cannabis-clinic-5"},{"name":"The Sanctuary Wellness Institute","type":"doctor","phone":"(479) 319-2673","city":"Bentonville","state":"Arkansas","zipcode":"72712","slug":"the-sanctuary-wellness-institute-12"},{"name":"Good Day Farm (NOW OPEN!)","type":"dispensary","phone":"5012384242","city":"Little Rock","state":"Arkansas","zipcode":"72204","slug":"good-day-farm"},{"name":"The Source - Bentonville","type":"dispensary","phone":"(479) 330-9333","city":"Bentonville","state":"Arkansas","zipcode":"72712","slug":"the-source-bentonville"},{"name":"Acanza Health Group","type":"dispensary","phone":"800-266-9057","city":"Fayetteville","state":"Arkansas","zipcode":"72704","slug":"acanza-health-group"},{"name":"My Medical Card Compassionate Care Clinic","type":"doctor","phone":"(501) 282-4341","city":"Hot Springs","state":"Arkansas","zipcode":"71913","slug":"my-medical-card-compassionate-care-clinic"},{"name":"Bloom Medicinals - Texarkana","type":"dispensary","phone":"501-263-8852","city":"Texarkana","state":"Arkansas","zipcode":"71854","slug":"bloom-medicinals-cannabis-dispensary-texarkana-1"},{"name":"Fiddler's Green - Mountain View","type":"dispensary","phone":"(870) 269-8600","city":"Mountain View","state":"Arkansas","zipcode":"72560","slug":"fiddler-s-green"},{"name":"Herbology - Little Rock (Now Open!)","type":"dispensary","phone":"501-236-6906","city":"Little Rock","state":"Arkansas","zipcode":"72204","slug":"herbology-little-rock"},{"name":"Arkansas Progressive Medicine","type":"doctor","phone":"(870) 520-6007","city":"Jonesboro","state":"Arkansas","zipcode":"72401","slug":"arkansas-progressive-medicine"},{"name":"Fort Cannabis Co.","type":"dispensary","phone":"479-551-2235","city":"Fort Smith","state":"Arkansas","zipcode":"72908","slug":"fort-cannabis-co"},{"name":"AR MMJ Cards (previously Concierge Cannabis Clinics)","type":"doctor","phone":"479-342-4585","city":"Rogers","state":"Arkansas","zipcode":"72758","slug":"concierge-cannabis-clinics"}]}}