{"meta":{"total_listings":820},"data":{"listings":[{"name":"NuVue - Trinidad","type":"dispensary","phone":"(719) 846-2376","city":"Trinidad","state":"Colorado","zipcode":"81082","slug":"nuvue-trinidad"},{"name":"Lucky Monkey Buds","type":"dispensary","phone":"(719) 422-8112","city":"Trinidad","state":"Colorado","zipcode":"81089","slug":"lucky-monkey-buds"},{"name":"Sergeant Green Leaf Wellness Center","type":"dispensary","phone":"303-569-0444","city":"Georgetown","state":"Colorado","zipcode":"80444","slug":"sergeant-green-leaf-wellness-center"},{"name":"Golden Meds - Oneida St.","type":"dispensary","phone":"(720) 287-2377","city":"Denver","state":"Colorado","zipcode":"80224","slug":"golden-meds-leetsdale"},{"name":"Native Roots Dispensary North Denver","type":"dispensary","phone":"(720) 476-3399","city":"Denver","state":"Colorado","zipcode":"80216","slug":"native-roots-dispensary-north-denver"},{"name":"Starbuds - Niwot","type":"dispensary","phone":"(720)-340-4548","city":"Niwot","state":"Colorado","zipcode":"80503","slug":"starbuds-niwot"},{"name":"Medical Cannabis & Partners","type":"dispensary","phone":"(719) 799-0516","city":"Colorado Springs","state":"Colorado","zipcode":"80909","slug":"medical-cannabis-partners"},{"name":"LivWell Enlightened Health - Pueblo North","type":"dispensary","phone":"(719) 306-0042","city":"Pueblo","state":"Colorado","zipcode":"81008","slug":"livwell-pueblo-north"},{"name":"Budcardi","type":"dispensary","phone":"(720) 242-6654","city":"Denver","state":"Colorado","zipcode":"80223","slug":"budcardi"},{"name":"Dr. Kent Roberson M.D.","type":"doctor","phone":"(719) 635-6337","city":"Colorado Springs","state":"Colorado","zipcode":"80904","slug":"walter-young-md"},{"name":"Mighty Tree","type":"dispensary","phone":"(720) 642-9600","city":"Denver","state":"Colorado","zipcode":"80223","slug":"mighty-tree-colorado"},{"name":"SugarLoaf","type":"dispensary","phone":"(719) 422-8198","city":"Trinidad","state":"Colorado","zipcode":"81082","slug":"sugar-loaf"},{"name":"Main Street Cannabis","type":"dispensary","phone":"(719) 967-1111","city":"Trinidad","state":"Colorado","zipcode":"81082","slug":"main-street-cannabis"},{"name":"Buddy Boy South Federal","type":"dispensary","phone":"(303) 936-0309","city":"Denver","state":"Colorado","zipcode":"80219","slug":"buddy-boy-brands-south-federal"},{"name":"Blend","type":"dispensary","phone":"9705335050","city":"Mancos","state":"Colorado","zipcode":"81328","slug":"blend"},{"name":"Village Green Society","type":"dispensary","phone":"(720) 389-5726","city":"Boulder","state":"Colorado","zipcode":"80302","slug":"the-village-green-society-2"},{"name":"LivWell Enlightened Health - Commerce City","type":"dispensary","phone":"720-476-4736","city":"Commerce City","state":"Colorado","zipcode":"80022","slug":"livwell-commerce-city"},{"name":"Greenfields","type":"dispensary","phone":"(303) 455-1795","city":"Denver","state":"Colorado","zipcode":"80223","slug":"greenfields-2"},{"name":"High Plainz Strains - Garden City","type":"dispensary","phone":"(970) 352-4119","city":"Garden City","state":"Colorado","zipcode":"80631","slug":"cloud-nine-caregivers"},{"name":"Rocky Road Thornton","type":"dispensary","phone":"(720) 324-2002","city":"Thornton","state":"Colorado","zipcode":"80233","slug":"rocky-road-thornton"},{"name":"Starbuds - Longmont","type":"dispensary","phone":"(303) 651-0709","city":"Longmont","state":"Colorado","zipcode":"80503","slug":"starbuds-longmont"},{"name":"Kind Care Of Colorado - 21+","type":"dispensary","phone":"(970) 568-8020","city":"Fort Collins","state":"Colorado","zipcode":"80525","slug":"kind-care-of-colorado-2"},{"name":"Dalwhinnie Farms","type":"dispensary","phone":"7208400387","city":"Aspen","state":"Colorado","zipcode":"81611","slug":"buffalo-biotech-llc"},{"name":"LOVA Colfax","type":"dispensary","phone":"(720) 479-8127","city":"Denver","state":"Colorado","zipcode":"80206","slug":"groundswell-recreational"},{"name":"High Level Health - Colfax MED","type":"dispensary","phone":"(303) 355-9333 ","city":"Denver","state":"Colorado","zipcode":"80206","slug":"high-level-health-colfax-adult-use"},{"name":"Elite Organics","type":"dispensary","phone":"970-214-9889","city":"Ft. Collins","state":"Colorado","zipcode":"80524","slug":"elite-organics"},{"name":"Third Day Apothecary","type":"dispensary","phone":"(719) 266-6699","city":"Colorado Springs","state":"Colorado","zipcode":"80918","slug":"third-day-apothecary"},{"name":"Maggies Farm Nevada - MED","type":"dispensary","phone":"719-328-0420","city":"Colorado Springs","state":"Colorado","zipcode":"80905","slug":"maggie-s-farm"},{"name":"ORGANIX","type":"dispensary","phone":"970-453-1340","city":"Breckenridge","state":"Colorado","zipcode":"80424","slug":"organix-adult-use"},{"name":"Lightshade - Dayton","type":"dispensary","phone":"(720) 699-2690","city":"Denver","state":"Colorado","zipcode":"80247","slug":"lightshade-peoria-2"},{"name":"Strawberry Fields Pueblo Central","type":"dispensary","phone":"719-502-5956","city":"Pueblo","state":"Colorado","zipcode":"81003","slug":"strawberry-fields-pueblo"},{"name":"Rocky Mountain High - Wazee","type":"dispensary","phone":"(303) 623-7247","city":"Denver","state":"Colorado","zipcode":"80202","slug":"rocky-mountain-high-denver"},{"name":"NuVue - Pueblo East","type":"dispensary","phone":"719-621-1796","city":"Pueblo","state":"Colorado","zipcode":"81006","slug":"nuvue-pueblo-east"},{"name":"L'Eagle Services","type":"dispensary","phone":"303-825-0497","city":"Denver","state":"Colorado","zipcode":"80223","slug":"l-eagle-services"},{"name":"Star Buds Las Animas Recreational Dispensary at East 4th","type":"dispensary","phone":"719-456-9620","city":"Las Animas","state":"Colorado","zipcode":"81054","slug":"mesa-organics-las-animas"},{"name":"Good Chemistry Aurora","type":"dispensary","phone":"303-745-2420","city":"Aurora","state":"Colorado","zipcode":"80013","slug":"good-chemistry-aurora"},{"name":"Spark Dispensary","type":"dispensary","phone":"(303) 573-4800","city":"Denver","state":"Colorado","zipcode":"80216","slug":"spark-3"},{"name":"High Valley Healing Alamosa MED","type":"dispensary","phone":"(719) 206-3345","city":"Monte Vista","state":"Colorado","zipcode":"81144","slug":"high-valley-healing-center-2-2"},{"name":"Natural Alternatives for Health Medical","type":"dispensary","phone":"970-221-0339","city":"Fort Collins","state":"Colorado","zipcode":"80525","slug":"natural-alternatives-for-health-2"},{"name":"The Healing Canna","type":"dispensary","phone":"719-637-7645","city":"Colorado springs","state":"Colorado","zipcode":"80909","slug":"the-healing-canna"},{"name":"Grant Pharms II","type":"dispensary","phone":"719-387-1634","city":"Colorado Springs","state":"Colorado","zipcode":"80906","slug":"grant-pharms"},{"name":"Primo","type":"dispensary","phone":"(719) 588-3497","city":"Villa Grove","state":"Colorado","zipcode":"81155","slug":"primo"},{"name":"Stellar Cannabis","type":"dispensary","phone":"(720) 531-5039","city":"Lakewood","state":"Colorado","zipcode":"80232","slug":"stellar-cannabis"},{"name":"Altitude Organic Medicine - South Tejon","type":"dispensary","phone":"(719) 313-9841","city":"Colorado Springs","state":"Colorado","zipcode":"80903","slug":"altitude-organic-medicine"},{"name":"Cookies Denver","type":"dispensary","phone":"(303) 862-5169","city":"Denver","state":"Colorado","zipcode":"80210","slug":"cookies-denver"},{"name":"Tweedleaf - Jason","type":"dispensary","phone":"(303) 955-6255","city":"Denver","state":"Colorado","zipcode":"80223","slug":"tweedleaf-jason"},{"name":"Smokin Gun Apothecary","type":"dispensary","phone":"(720) 519-0891","city":"Glendale","state":"Colorado","zipcode":"80246","slug":"smokin-gun-apothecary"},{"name":"Herbal Healing - Fillmore St","type":"dispensary","phone":"(719) 632-5904","city":"Colorado Springs","state":"Colorado","zipcode":"80905","slug":"herbal-healing-colorado-ave"},{"name":"Nature's Herbs & Wellness - Sedgwick","type":"dispensary","phone":"970-463-5788","city":"Sedgwick","state":"Colorado","zipcode":"80749","slug":"nature-s-herbs-wellness-sedgwick"},{"name":"Oasis Cannabis Superstore Mountain View - Adult Use","type":"dispensary","phone":"303-333-3338","city":"Mountain View","state":"Colorado","zipcode":"80212","slug":"medicinal-wellness-center"},{"name":"Starbuds - Montview Blvd.","type":"dispensary","phone":"(720) 949-1389","city":"Aurora","state":"Colorado","zipcode":"80010","slug":"starbuds-aurora"},{"name":"High Level Health - Colfax","type":"dispensary","phone":"303-355-9333","city":"Denver","state":"Colorado","zipcode":"80206","slug":"high-level-health-colfax"},{"name":"LaConte's Clone Bar & Dispensary on 7th","type":"dispensary","phone":"(303) 292-2252","city":"Denver","state":"Colorado","zipcode":"80203","slug":"lacontes-clone-bar-dispensary-central"},{"name":"Telluride Bud Company - Durango","type":"dispensary","phone":"970-422-8311","city":"Durango","state":"Colorado","zipcode":"81301","slug":"telluride-bud-company-durango"},{"name":"Trinidads Higher Calling U","type":"dispensary","phone":"719-846-0420","city":"Trinidad","state":"Colorado","zipcode":"81082","slug":"trinidads-higher-calling-u"},{"name":"The Green Joint Glenwood Springs","type":"dispensary","phone":"970-384-1234","city":"Glenwood Springs","state":"Colorado","zipcode":"81601","slug":"the-green-joint"},{"name":"Rocky Mountain High - Alameda","type":"dispensary","phone":"720-941-9333","city":"Denver","state":"Colorado","zipcode":"80223","slug":"rocky-mtn-high-alameda-store"},{"name":"Trenchtown Cannabis - Medical","type":"dispensary","phone":"303-495-3531","city":"Denver","state":"Colorado","zipcode":"80214","slug":"trenchtown-medical-marijuana-center"},{"name":"Pure Marijuana Dispensary - W. 40th Ave. - Recreational","type":"dispensary","phone":"720-287-4211","city":"Denver","state":"Colorado","zipcode":"80216","slug":"pure-medical-dispensary-40th-ave-med"},{"name":"Strawberry Fields Pueblo North","type":"dispensary","phone":"719-964-4503","city":"Pueblo","state":"Colorado","zipcode":"81008","slug":"strawberry-fields-adult-use-north"},{"name":"Altitude Organic Cannabis","type":"dispensary","phone":"970-485-6147","city":"Dillon","state":"Colorado","zipcode":"80435","slug":"altitude-organic-cannabis"},{"name":"Life Flower Dispensary","type":"dispensary","phone":"7203897442","city":"Glendale","state":"Colorado","zipcode":"80246","slug":"life-flower-dispensary-recreational"},{"name":"Little Green Pharmacy - Medical 18+","type":"dispensary","phone":"(303) 722-2133","city":"Denver","state":"Colorado","zipcode":"80210","slug":"little-green-pharmacy-8"},{"name":"Native Roots Dispensary Vail REC","type":"dispensary","phone":"970-470-4079","city":"Avon","state":"Colorado","zipcode":"81620","slug":"native-roots-vail-2"},{"name":"Roots Rx Vail","type":"dispensary","phone":"970-399-9333 (WEED)","city":"Eagle-Vail","state":"Colorado","zipcode":"81620","slug":"roots-rx-eagle-vail-81620"},{"name":"Maggies Farm Pueblo East - MED","type":"dispensary","phone":"(719) 582-1925","city":"Pueblo","state":"Colorado","zipcode":"81006","slug":"maggies-farm-pueblo-east-medical"},{"name":"Everbloom Rifle","type":"dispensary","phone":"970-233-8895","city":"Rifle","state":"Colorado","zipcode":"81650","slug":"everbloom-rifle"},{"name":"Grant Pharms MMC","type":"dispensary","phone":"(719) 387-1633","city":"Colorado Springs","state":"Colorado","zipcode":"80909","slug":"grant-pharms-mmc"},{"name":"Cannajuana","type":"dispensary","phone":"3039635306","city":"Denver","state":"Colorado","zipcode":"80223","slug":"cannajuana"},{"name":"Lucy Sky on Broadway MED","type":"dispensary","phone":"(720) 379-7295","city":"Denver","state":"Colorado","zipcode":"80210","slug":"lucy-sky-on-broadway-medical"},{"name":"RiverRock South","type":"dispensary","phone":"303-825-3314","city":"Denver","state":"Colorado","zipcode":"80204","slug":"riverrock-south-recreational"},{"name":"A Cut Above","type":"dispensary","phone":"(719) 434-1665","city":"Colorado Springs","state":"Colorado","zipcode":"80907","slug":"a-cut-above-colorado-springs"},{"name":"Seed & Smith Cannabis","type":"dispensary","phone":"(720) 506-2533","city":"Denver","state":"Colorado","zipcode":"80239","slug":"seed-smith-cannabis"},{"name":"Blue Heron Dispensary","type":"dispensary","phone":"(970) 736-2268","city":"Oak Creek","state":"Colorado","zipcode":"80467","slug":"park-range-recreationals"},{"name":"Nature's Herbs & Wellness - Garden City MED","type":"dispensary","phone":"970-353-1170","city":"Garden City","state":"Colorado","zipcode":"80631","slug":"natures-herbs"},{"name":"The Green Solution - College Ave","type":"dispensary","phone":"(303) 990-9723","city":"Fort Collins","state":"Colorado","zipcode":"80524","slug":"the-green-solution-6"},{"name":"The Green Stop","type":"dispensary","phone":"970-867-7867","city":"Log Lane Village","state":"Colorado","zipcode":"80705","slug":"the-green-stop"},{"name":"High Q Snowmass Village Mall","type":"dispensary","phone":"970-429-8789","city":"Snowmass Village","state":"Colorado","zipcode":"81615","slug":"high-q-snowmass-village-mall"},{"name":"Star Buds Pueblo East Recreational Dispensary at Highway 50","type":"dispensary","phone":"(719) 404-3400","city":"Pueblo","state":"Colorado","zipcode":"81006","slug":"mesa-organics"},{"name":"The Happy Camper Cannabis Company","type":"dispensary","phone":"(970) 609-0420","city":"Palisade","state":"Colorado","zipcode":"81526","slug":"the-happy-camper-cannabis-company-2"},{"name":"Good Chemistry - Broadway MED","type":"dispensary","phone":"(303) 733-3113","city":"Denver","state":"Colorado","zipcode":"80210","slug":"good-chemistry-denver"},{"name":"Botanico 2","type":"dispensary","phone":"(720) 415-2976","city":"Denver","state":"Colorado","zipcode":"80204","slug":"pando-3"},{"name":"Smoke Rings","type":"dispensary","phone":"(970) 264-0942","city":"Pagosa Springs","state":"Colorado","zipcode":"81147","slug":"smoke-rings-3"},{"name":"Roots RX Leadville","type":"dispensary","phone":"719-486-0912","city":"Leadville","state":"Colorado","zipcode":"80461","slug":"roots-rx-leadville"},{"name":"Cabin Cannabis Gunnison","type":"dispensary","phone":"970-640-0675","city":"Gunnison","state":"Colorado","zipcode":"81230","slug":"colorado-cannabis-cabin"},{"name":"The Kind Castle","type":"dispensary","phone":"(970) 361-4922","city":"Parachute","state":"Colorado","zipcode":"81635","slug":"the-kind-castle"},{"name":"Telluride Bud Company - Telluride","type":"dispensary","phone":"970-239-6039","city":"Telluride","state":"Colorado","zipcode":"81435","slug":"telluride-bud-company-2-2"},{"name":"Buddy Boy Walnut – RiNo MED","type":"dispensary","phone":"(303) 308-0420","city":"Denver","state":"Colorado","zipcode":"80205","slug":"buddy-boy-brands-walnut-2-5"},{"name":"Livwell Enlightened Health - Trinidad","type":"dispensary","phone":"(719) 422-8251","city":"Trinidad","state":"Colorado","zipcode":"81082","slug":"livwell-trinidad"},{"name":"Apothecary Farms Pueblo REC","type":"dispensary","phone":"(719) 544-5323","city":"Pueblo","state":"Colorado","zipcode":"81006","slug":"apothecary-farms-pueblo-2"},{"name":"Frosted Leaf Colfax","type":"dispensary","phone":"(720) 328-0758","city":"Denver","state":"Colorado","zipcode":"80220","slug":"frosted-leaf-colfax-2"},{"name":"Martins Natural Meds","type":"dispensary","phone":"(970) 945-2040","city":"Glenwood Springs","state":"Colorado","zipcode":"81601","slug":"martins-natural-medicinals-recreational"},{"name":"Nature's Medicine - Northglenn REC","type":"dispensary","phone":"7203895062","city":"Northglenn","state":"Colorado","zipcode":"80234","slug":"green-tree-northglenn-2"},{"name":"Grass Roots Medical Clinic (Boulder)","type":"doctor","phone":"(303) 499-9399","city":"Boulder","state":"Colorado","zipcode":"80302","slug":"grass-roots-medical-clinic-boulder"},{"name":"Elevations","type":"dispensary","phone":"(719) 468-6337","city":"Colorado Springs","state":"Colorado","zipcode":"80920","slug":"elevations"},{"name":"Earl's","type":"dispensary","phone":"(719) 293-2770","city":"Leadville","state":"Colorado","zipcode":"80461","slug":"earl-s"},{"name":"Sacred Seed - MED","type":"dispensary","phone":"(303) 756-3762","city":"Denver","state":"Colorado","zipcode":"80222","slug":"sacred-seed-denver"},{"name":"Livwell Enlightened Health - Mancos","type":"dispensary","phone":"(970) 533-9848","city":"Mancos","state":"Colorado","zipcode":"81328","slug":"livwell-mancos"},{"name":"OG Medicinals","type":"dispensary","phone":"(303) 375-6652","city":"Denver","state":"Colorado","zipcode":"80239","slug":"og-medicinals-2"},{"name":"Elevated Longmont","type":"dispensary","phone":"303-776-8695","city":"Longmont","state":"Colorado","zipcode":"80501","slug":"elevated-longmont"},{"name":"Altitude Organic Medicine - Nevada","type":"dispensary","phone":"(719) 445-0136","city":"Colorado Springs","state":"Colorado","zipcode":"80907","slug":"altitude-organic-medicine-nevada"},{"name":"La Bodega","type":"dispensary","phone":"720-475-1983","city":"Denver","state":"Colorado","zipcode":"80223","slug":"buddies-wellness"},{"name":"Livwell Enlightened Health - Pearl St.","type":"dispensary","phone":"303-952-9150","city":"Denver","state":"Colorado","zipcode":"80203","slug":"livwell-pearl-st-recreational"},{"name":"Rocky Mountain High - Durango","type":"dispensary","phone":"(970) 259-4093","city":"Durango","state":"Colorado","zipcode":"81301","slug":"rocky-mountain-high"},{"name":"Kaya Cannabis Santa Fe","type":"dispensary","phone":"(303) 593-2931","city":"Denver","state":"Colorado","zipcode":"80223","slug":"kaya-santa-fe"},{"name":"Green Sativa","type":"dispensary","phone":"303-284-1155","city":"Federal Heights","state":"Colorado","zipcode":"80260","slug":"green-sativa"},{"name":"Harvest House","type":"dispensary","phone":"(303)258-3144","city":"Nederland","state":"Colorado","zipcode":"80466","slug":"harvest-house-nederland"},{"name":"High Country Healing - Silverthorne REC","type":"dispensary","phone":"970-468-7858","city":"Silverthorne","state":"Colorado","zipcode":"80498","slug":"high-country-healing-recreational"},{"name":"The Green Solution Black Hawk","type":"dispensary","phone":"(303) 990-9723","city":"Black Hawk","state":"Colorado","zipcode":"80422","slug":"the-green-solution-black-hawk"},{"name":"DANK Colorado - Adult Use","type":"dispensary","phone":"303-394-3265","city":"Denver","state":"Colorado","zipcode":"80207","slug":"dank-colorado-adult-use-denvers-best"},{"name":"Lux Leaf","type":"dispensary","phone":"(719) 999-5934","city":"Colorado Springs","state":"Colorado","zipcode":"80904","slug":"lux-leaf"},{"name":"Elements Boulder","type":"dispensary","phone":"303-444-0861","city":"Boulder","state":"Colorado","zipcode":"80303","slug":"elements-boulder"},{"name":"Colorado Grow Company","type":"dispensary","phone":"970-259-1647","city":"Durango","state":"Colorado","zipcode":"81301","slug":"colorado-grow-company"},{"name":"Cannaco Walsenburg","type":"dispensary","phone":"719-738-4878","city":"Walsenburg","state":"Colorado","zipcode":"81089","slug":"cannaco-walsenburg"},{"name":"Buds Premium Cannabis - De Beque","type":"dispensary","phone":"(970) 609-2837","city":"De Beque","state":"Colorado","zipcode":"81630","slug":"buds-llc-2"},{"name":"Starbuds - Commerce City","type":"dispensary","phone":"(303) 999-0401","city":"Commerce City","state":"Colorado","zipcode":"80022","slug":"starbuds-cc-2"},{"name":"Quality Choice Dispensaries - Academy","type":"dispensary","phone":"(719) 354-4381","city":"Colorado Springs","state":"Colorado","zipcode":"80909","slug":"quality-choice-dispensaries-academy"},{"name":"Maggies Farm Pueblo West","type":"dispensary","phone":"7195478345","city":"Pueblo","state":"Colorado","zipcode":"81007","slug":"maggie-s-farm-pueblo-west-adult"},{"name":"Maggies Farm Pueblo West - MED","type":"dispensary","phone":"7195478345","city":"Pueblo","state":"Colorado","zipcode":"81007","slug":"maggie-s-farm-medical"},{"name":"High Hopes North","type":"dispensary","phone":"719-593-7191","city":"Colorado Springs","state":"Colorado","zipcode":"80918","slug":"high-hopes-north"},{"name":"Levity Wellness","type":"dispensary","phone":"719-266-5463","city":"Colorado Springs","state":"Colorado","zipcode":"80907","slug":"levitywellness"},{"name":"Native Roots Speer Rec","type":"dispensary","phone":"(303) 623-1900","city":"Denver","state":"Colorado","zipcode":"80203","slug":"native-roots-apotherary-adult-use-denver-downtown-recreational"},{"name":"Ganja Gourmet","type":"dispensary","phone":"303-282-9333","city":"Denver","state":"Colorado","zipcode":"80210","slug":"ganja-gourmet"},{"name":"Bonfire Cannabis - Idaho Springs","type":"dispensary","phone":"(720) 541-7089","city":"Idaho Springs","state":"Colorado","zipcode":"80452","slug":"bonfire-cannabis-company1"},{"name":"Lightshade - Evans","type":"dispensary","phone":"303-756-3762","city":"Denver","state":"Colorado","zipcode":"80222","slug":"sacred-seed-recreational"},{"name":"Canna Health Clinic","type":"doctor","phone":"720-882-5521","city":"Denver","state":"Colorado","zipcode":"80224","slug":"canna-health-clinic"},{"name":"Western Slope Caregivers","type":"dispensary","phone":"970-625-2040","city":"Rifle","state":"Colorado","zipcode":"81650","slug":"western-slope-caregivers"},{"name":"The Health Center UHills MED","type":"dispensary","phone":"(303) 758-9997","city":"Denver","state":"Colorado","zipcode":"80222","slug":"the-health-center-dispensary-denver"},{"name":"The Herbal Cure - Recreational","type":"dispensary","phone":"303-777-9333","city":"Denver","state":"Colorado","zipcode":"80209","slug":"the-herbal-cure-recreational"},{"name":"The Lodge Cannabis on Federal - REC","type":"dispensary","phone":"303-945-4774","city":"Denver","state":"Colorado","zipcode":"80219","slug":"champion-cannabis"},{"name":"Docs Apothecary - Globeville","type":"dispensary","phone":"(720) 458-0898","city":"Denver","state":"Colorado","zipcode":"80216","slug":"doc-s-apothecary-globeville"},{"name":"Mighty Tree","type":"dispensary","phone":"(303) 600-8961","city":"Denver","state":"Colorado","zipcode":"80211","slug":"mighty-tree-sunnyside"},{"name":"NaturaLeaf Central","type":"dispensary","phone":"719-368-7800","city":"Colorado Springs","state":"Colorado","zipcode":"80909","slug":"naturaleaf-2"},{"name":"BUKU LOUD","type":"dispensary","phone":"(719) 391-2858","city":"Colorado Springs","state":"Colorado","zipcode":"80916","slug":"buku-loud"},{"name":"Big Medicine Cannabissary","type":"dispensary","phone":"719-418-3854","city":"Colorado Springs","state":"Colorado","zipcode":"80907","slug":"big-medicine-cannabissary"},{"name":"The Dispo","type":"dispensary","phone":"(719) 873-8286","city":"Pueblo","state":"Colorado","zipcode":"81007","slug":"the-dispo-1"},{"name":"High Q Carbondale","type":"dispensary","phone":"(844) 420-3265","city":"Carbondale","state":"Colorado","zipcode":"81623","slug":"high-q-carbondale"},{"name":"Green Meadows Dispensary - Montrose","type":"dispensary","phone":"970-252-1811","city":"Montrose","state":"Colorado","zipcode":"81403","slug":"green-meadows-dispensary-llc"},{"name":"Solace Meds of Wheat Ridge - Recreational","type":"dispensary","phone":"303-997-4082","city":"Wheat Ridge","state":"Colorado","zipcode":"80033","slug":"solace-meds-of-wheat-ridge-recreational"},{"name":"bgood Northglenn - MED","type":"dispensary","phone":"303-254-4200","city":"Northglenn","state":"Colorado","zipcode":"80234","slug":"botanacare-mm"},{"name":"C1B True Organics","type":"dispensary","phone":"(719) 695-0414","city":"walsenburg","state":"Colorado","zipcode":"81089","slug":"c1b-true-organics"},{"name":"Alpine Wellness","type":"dispensary","phone":"(970) 728-1834","city":"Telluride","state":"Colorado","zipcode":"81435","slug":"alpine-wellness"},{"name":"EverBloom on Jackson","type":"dispensary","phone":"(720) 226-9298","city":"Denver","state":"Colorado","zipcode":"80216","slug":"everbloom-on-jackson"},{"name":"Floyds Fine Cannabis","type":"dispensary","phone":"(719) 293-2221","city":"Leadville","state":"Colorado","zipcode":"80461","slug":"floyds-of-leadville-2"},{"name":"Rooted","type":"dispensary","phone":"(719) 422-8079","city":"Trinidad","state":"Colorado","zipcode":"81082","slug":"rooted"},{"name":"Verde Natural on Colfax","type":"dispensary","phone":"303-474-4489","city":"Denver","state":"Colorado","zipcode":"80220","slug":"verde-natural-on-colfax-2"},{"name":"Altitude The Dispensary Aurora","type":"dispensary","phone":"(303) 343-0166","city":"Aurora","state":"Colorado","zipcode":"80010","slug":"altitude-aurora"},{"name":"Pueblo West Organics (Medical)","type":"dispensary","phone":"719-647-2043","city":"Pueblo West","state":"Colorado","zipcode":"81007","slug":"pueblo-west-organics"},{"name":"The Green Solution Longmont","type":"dispensary","phone":"(303) 990-9723","city":"Longmont","state":"Colorado","zipcode":"80501","slug":"the-green-solution-longmont"},{"name":"Cherry Peak","type":"dispensary","phone":"(303) 386-3185","city":"Glendale","state":"Colorado","zipcode":"80246","slug":"cherry-peak"},{"name":"Green Cross Caregivers - REC","type":"dispensary","phone":"303-337-2229","city":"Denver","state":"Colorado","zipcode":"80231","slug":"green-cross-caregivers-rec"},{"name":"Leiffa","type":"dispensary","phone":"(303) 233-3901","city":"Lakewood","state":"Colorado","zipcode":"80214","slug":"leiffa"},{"name":"Native Roots Dispensary Highlands","type":"dispensary","phone":"(720) 287-1478","city":"Denver","state":"Colorado","zipcode":"80211","slug":"native-roots-highlands-rec"},{"name":"Berkeley Dispensary","type":"dispensary","phone":"(720) 310-8057","city":"Arvada","state":"Colorado","zipcode":"80002","slug":"berkeley-dispensary"},{"name":"Doctors Garden","type":"dispensary","phone":"(970) 384-2034","city":"Glenwood Springs","state":"Colorado","zipcode":"81601","slug":"doctors-garden-med"},{"name":"High Level Health - Market","type":"dispensary","phone":"303-953-0884","city":"Denver","state":"Colorado","zipcode":"80202","slug":"natural-remedies-adult-use"},{"name":"High Plainz Strains - Sedgwick","type":"dispensary","phone":"970-463-0420","city":"Sedgwick","state":"Colorado","zipcode":"80749","slug":"high-plainz-strains-3"},{"name":"Organic Alternatives","type":"dispensary","phone":"970-482-7100","city":"Fort Collins","state":"Colorado","zipcode":"80524","slug":"organic-alternatives"},{"name":"NuVue - Pueblo North","type":"dispensary","phone":"(719) 470-7444","city":"Pueblo","state":"Colorado","zipcode":"81008","slug":"nuvue-pueblo"},{"name":"Native Roots Dispensary Frisco REC","type":"dispensary","phone":"970-368-6024","city":"Frisco","state":"Colorado","zipcode":"80443","slug":"native-roots-frisco-silverthorne-mmj-recreational"},{"name":"Cherry Peak MED","type":"dispensary","phone":"(303) 386-3185","city":"Glendale","state":"Colorado","zipcode":"80246","slug":"cherry-peak-med"},{"name":"MedEval Clinic - Colorado Springs","type":"doctor","phone":"720-744-2010","city":"Colorado Springs","state":"Colorado","zipcode":"80917","slug":"medevalclinic-2"},{"name":"HIGH COUNTRY HEALING - Alma - Recreational","type":"dispensary","phone":"719-836-9000","city":"ALMA","state":"Colorado","zipcode":"80420","slug":"high-country-healing-2-recreational-alma"},{"name":"RiverRock North","type":"dispensary","phone":"303-474-4136","city":"Denver","state":"Colorado","zipcode":"80216","slug":"riverrock-north-recreational"},{"name":"Ascend Cannabis Co - Medical","type":"dispensary","phone":"(720) 482-3191","city":"Denver","state":"Colorado","zipcode":"80237","slug":"ascend-cannabis-co-medical"},{"name":"Red Roots Dispensary (formerly Aroma Dispensary)","type":"dispensary","phone":"(303) 286-0420","city":"Commerce City","state":"Colorado","zipcode":"80022","slug":"aroma-dispensary"},{"name":"The Farmers Market - NEW LOCATION","type":"dispensary","phone":"(720) 262-3265","city":"Denver","state":"Colorado","zipcode":"80231","slug":"the-farmers-market-rec"},{"name":"Buddy Boy York","type":"dispensary","phone":"(303) 292-3383","city":"Denver","state":"Colorado","zipcode":"80216","slug":"buddy-boy-2-6"},{"name":"La Casa Cannabis II","type":"dispensary","phone":"719-589-3503","city":"Alamosa","state":"Colorado","zipcode":"81101","slug":"la-casa-cannabis-ii-2"},{"name":"Pure Harvest","type":"dispensary","phone":"3035674752","city":"Dumont","state":"Colorado","zipcode":"80436","slug":"sofa-king-medicinal-wellness-products"},{"name":"Nature's Herbs & Wellness - Garden City","type":"dispensary","phone":"970-573-5087","city":"Garden City","state":"Colorado","zipcode":"80631","slug":"natures-herbs-and-wellness-center-recreational"},{"name":"Native Roots Dispensary Edgewater - Med","type":"dispensary","phone":"720-476-4856.","city":"Edgewater","state":"Colorado","zipcode":"80214","slug":"native-roots-edgewater-2"},{"name":"Durango Rec Room","type":"dispensary","phone":"(970) 764-4087","city":"Durango","state":"Colorado","zipcode":"81301","slug":"durango-rec-room"},{"name":"Ascend Cannabis Co - Littleton","type":"dispensary","phone":"303-794-5254","city":"Littleton","state":"Colorado","zipcode":"80120","slug":"ascend-cannabis-co-2"},{"name":"Euflora Southlands","type":"dispensary","phone":"(303) 766-8677","city":"Aurora","state":"Colorado","zipcode":"80016","slug":"euflora-southlands-2"},{"name":"Livwell Enlightened Health - Pueblo South","type":"dispensary","phone":"(719) 696-8709","city":"Pueblo","state":"Colorado","zipcode":"81004","slug":"livwell-dispensary-pueblo"},{"name":"Elk Mountain Trading Post Retail Cannabis","type":"dispensary","phone":"970-283-8937","city":"Debeque","state":"Colorado","zipcode":"81630","slug":"elk-mountain-trading-post-retail-cannabis"},{"name":"bgood Englewood","type":"dispensary","phone":"(303) 722-5239","city":"Englewood","state":"Colorado","zipcode":"80110","slug":"bgood-englewood"},{"name":"Wolf Pac Cannabis","type":"dispensary","phone":"(720) 428-8697","city":"Denver","state":"Colorado","zipcode":"80219","slug":"wolf-pac"},{"name":"Mountain Annie's - Durango","type":"dispensary","phone":"970-247-2190","city":"Durango","state":"Colorado","zipcode":"81301","slug":"mountain-annie-s-durango"},{"name":"The 64 Store","type":"dispensary","phone":"719-602-0640","city":"Colorado Springs","state":"Colorado","zipcode":"80905","slug":"the-64-store"},{"name":"Relaxed Clarity Pueblo","type":"doctor","phone":"719-354-5445","city":"Pueblo","state":"Colorado","zipcode":"81005","slug":"relaxed-clarity-pueblo"},{"name":"Green Meadows Dispensary - Delta","type":"dispensary","phone":"970-399-7663","city":"Delta","state":"Colorado","zipcode":"81416","slug":"green-meadows-dispensary-llc-1"},{"name":"Rocky Road - Delivery (Coming Soon)","type":"delivery","phone":"(720) 277-0320","city":"Denver","state":"Colorado","zipcode":"80219","slug":"rocky-road-delivery-1"},{"name":"Doctors Orders Denver - Medical","type":"dispensary","phone":"(303) 433-0276","city":"Denver","state":"Colorado","zipcode":"80211","slug":"doc303"},{"name":"Terps Dispensary Pueblo","type":"dispensary","phone":"(719) 547-1850","city":"Pueblo","state":"Colorado","zipcode":"81007","slug":"terps-dispensary-pueblo"},{"name":"Pure Marijuana Dispensary - Colfax Ave. - Recreational","type":"dispensary","phone":"303-733-9956","city":"Denver","state":"Colorado","zipcode":"80220","slug":"pure-medical-dispensary-2"},{"name":"Fox Cannabis - Street Wellness Medical","type":"dispensary","phone":"(720) 881-7460","city":"Denver","state":"Colorado","zipcode":"80216","slug":"fox-cannabis-co"},{"name":"The Epic Remedy Fillmore","type":"dispensary","phone":"(719) 434-6562","city":"Colorado Springs","state":"Colorado","zipcode":"80907","slug":"the-epic-remedy-3"},{"name":"The Farm","type":"dispensary","phone":"(303) 440-1323","city":"Boulder","state":"Colorado","zipcode":"80301","slug":"the-farm"},{"name":"Buddy Boy South Federal MED","type":"dispensary","phone":"(303) 936-0309","city":"Denver","state":"Colorado","zipcode":"80219","slug":"buddy-boy-brands-south-federal-2-7"},{"name":"Complete Releaf","type":"dispensary","phone":"(720) 510-2351","city":"Lafayette","state":"Colorado","zipcode":"80026","slug":"complete-releaf"},{"name":"The Other Place is Greener","type":"dispensary","phone":"(719) 422-8419","city":"Trinidad","state":"Colorado","zipcode":"81082","slug":"the-other-place-is-greener"},{"name":"AMCH RECREATIONAL","type":"dispensary","phone":"720-961-0560","city":"Denver","state":"Colorado","zipcode":"80218","slug":"amch-adult-use"},{"name":"Diego Pellicer - Broadway","type":"dispensary","phone":"(303) 862-5169","city":"Denver","state":"Colorado","zipcode":"80210","slug":"diego-pellicer-broadway"},{"name":"Golden Meds - Lakewood","type":"dispensary","phone":"720-519-1957","city":"Lakewood","state":"Colorado","zipcode":"80215","slug":"kind-pain-management"},{"name":"MMJ Exams of Colorado","type":"doctor","phone":"970-377-0500","city":"Westminster","state":"Colorado","zipcode":"80234","slug":"mmj-exams-of-colorado-2"},{"name":"Rocky Mountain Medical","type":"dispensary","phone":"719-337-6132","city":"Colorado Springs","state":"Colorado","zipcode":"80909","slug":"rocky-mountain-medical"},{"name":"Dr. Alan Shackelford","type":"doctor","phone":"(720) 532-4744","city":"Denver","state":"Colorado","zipcode":"80210","slug":"dr-alan-shackelford"},{"name":"Lucky Monkey Buds - Las Animas","type":"dispensary","phone":"719-454-1420","city":"Las Animas","state":"Colorado","zipcode":"81054","slug":"lucky-monkey-buds-ii-coming-soon"},{"name":"Sunrise Solutions, LLC","type":"dispensary","phone":"303-816-MEDS (6337)","city":"Bailey","state":"Colorado","zipcode":"80421","slug":"sunrise-solutions-llc"},{"name":"The Green Source lll","type":"dispensary","phone":"(719)-302-2032","city":"Colorado Springs","state":"Colorado","zipcode":"80909","slug":"todays-health-care-lll"},{"name":"Nature's Herbs & Wellness - Log Lane Village","type":"dispensary","phone":"970-867-0239","city":"Log Lane Village","state":"Colorado","zipcode":"80705","slug":"natures-herbs-and-wellness-ii"},{"name":"Fully Alive Medicine","type":"doctor","phone":"(303) 404-2232","city":"Boulder","state":"Colorado","zipcode":"80304","slug":"fully-alive-medicine-2"},{"name":"14'er Boulder","type":"dispensary","phone":"(303) 539-6525","city":"Boulder","state":"Colorado","zipcode":"80301","slug":"14er-boulder"},{"name":"High Hopes South","type":"dispensary","phone":"719-630-2137","city":"Colorado Springs","state":"Colorado","zipcode":"80910","slug":"high-hopes"},{"name":"JP Wellness West","type":"dispensary","phone":"719-424-7352","city":"Colorado Springs","state":"Colorado","zipcode":"80904","slug":"jp-wellness-west"},{"name":"Maggies Farm Pueblo East","type":"dispensary","phone":"(719) 582-1925","city":"Pueblo","state":"Colorado","zipcode":"81006","slug":"maggies-farm-pueblo-east"},{"name":"IgadI - Idaho Springs","type":"dispensary","phone":"(303) 567-2018","city":"Idaho Springs","state":"Colorado","zipcode":"80452","slug":"igadi-ltd-2"},{"name":"The Peaceful Choice - REC","type":"dispensary","phone":"720-366-6615","city":"Boulder","state":"Colorado","zipcode":"80303","slug":"the-peaceful-choice"},{"name":"Green and Healthy Wellness LLC","type":"dispensary","phone":"(719) 465-1331","city":"Colorado Springs","state":"Colorado","zipcode":"80905","slug":"green-and-healthy-wellness-llc-2"},{"name":"Golden Meds - Broadway St.","type":"dispensary","phone":"720-583-2119","city":"Denver","state":"Colorado","zipcode":"80210","slug":"back-to-the-garden-broadway"},{"name":"Good Chemistry - Adult Use","type":"dispensary","phone":"720-524-4657","city":"Denver","state":"Colorado","zipcode":"80203","slug":"good-chemistry-adult-use"},{"name":"The Green Solution Edgewater","type":"dispensary","phone":"(720) 689-2347","city":"Edgewater","state":"Colorado","zipcode":"80214","slug":"the-green-solution-edgewater"},{"name":"Standing Akimbo","type":"dispensary","phone":"(303) 997-4526","city":"Denver","state":"Colorado","zipcode":"80211","slug":"standing-akimbo"},{"name":"Bonfire Cannabis - Tabernash","type":"dispensary","phone":"970-726-1393","city":"Tabernash","state":"Colorado","zipcode":"80478","slug":"bonfire-cannabis-1"},{"name":"EmJ's","type":"dispensary","phone":"(719) 375-1907","city":"Colorado Springs","state":"Colorado","zipcode":"80907","slug":"a-wellness-centers"},{"name":"Maggies Farm Fillmore - MED","type":"dispensary","phone":"(719) 358-8849","city":"Colorado Springs","state":"Colorado","zipcode":"80907","slug":"maggie"},{"name":"Terrapin Care Station - Manhattan Circle - Medical","type":"dispensary","phone":"(303) 954-8402","city":"Boulder","state":"Colorado","zipcode":"80303","slug":"terrapincarestation"},{"name":"Trees Dispensary - Englewood","type":"dispensary","phone":"720-216-1602","city":"Englewood","state":"Colorado","zipcode":"80110","slug":"trees-dispensary-englewood"},{"name":"LivWell Enlightened Health - Berthoud","type":"dispensary","phone":"(970) 344-5060","city":"Berthoud","state":"Colorado","zipcode":"80513","slug":"livwell-berthoud"},{"name":"High Valley Retail Cannabis","type":"dispensary","phone":"7194807477","city":"Moffat","state":"Colorado","zipcode":"81143","slug":"high-valley-retail-cannabis"},{"name":"The Green Solution Grape St","type":"dispensary","phone":"(720) 399-6850","city":"Denver","state":"Colorado","zipcode":"80216","slug":"the-green-solution-grape-st"},{"name":"Pure Medical 2","type":"dispensary","phone":"719-264-0800","city":"Colorado Springs","state":"Colorado","zipcode":"80919","slug":"pure-medical-rockrimmon"},{"name":"Cannasseur Pueblo West","type":"dispensary","phone":"719-647-8924","city":"Pueblo West","state":"Colorado","zipcode":"81007","slug":"cannasseur"},{"name":"SANTE - Durango","type":"dispensary","phone":"970-375-2837","city":"Durango","state":"Colorado","zipcode":"81301","slug":"sante-alternative-wellness"},{"name":"Natural Alternatives Recreational","type":"dispensary","phone":"970-221-0339","city":"Fort Collins","state":"Colorado","zipcode":"80525","slug":"natural-alternative-for-health-recreational"},{"name":"Southern Colorado Medical Marijuana LLC.(SOCO)","type":"dispensary","phone":"719-344-5021","city":"Colorado Springs","state":"Colorado","zipcode":"80907","slug":"soco"},{"name":"The Green Solution Glenwood Springs","type":"dispensary","phone":"(303) 990-9723","city":"Glenwood Springs","state":"Colorado","zipcode":"81601","slug":"the-green-solution-glenwood-springs"},{"name":"Kind Meds","type":"dispensary","phone":"720-366-8888","city":"Denver","state":"Colorado","zipcode":"80223","slug":"kinds-meds"},{"name":"Tumbleweed - Frisco","type":"dispensary","phone":"(970) 668-3514","city":"Frisco","state":"Colorado","zipcode":"80443","slug":"tumbleweed-frisco"},{"name":"The Green Source IV","type":"dispensary","phone":"719 573-5665","city":"Colorado Springs","state":"Colorado","zipcode":"80909","slug":"the-green-source-4"},{"name":"Emerald Fields Denver","type":"dispensary","phone":"303-377-1501","city":"Glendale","state":"Colorado","zipcode":"80246","slug":"emerald-fields"},{"name":"High Valley Antonito Retail Cannabis","type":"dispensary","phone":"719-376-5251","city":"Antonito","state":"Colorado","zipcode":"81120","slug":"high-valley-retail-cannabis-2"},{"name":"Colorado Alternative Health Care","type":"dispensary","phone":"(970) 424-5844","city":"Palisade","state":"Colorado","zipcode":"81526","slug":"colorado-alternative-health-care"},{"name":"Vital Cannabis","type":"dispensary","phone":"719-375-5799","city":"Colorado Springs","state":"Colorado","zipcode":"80916","slug":"cys-center-2-80916"},{"name":"The Chronic Boutique - Palmer Park","type":"dispensary","phone":"719-375-0745","city":"Colorado Springs","state":"Colorado","zipcode":"80903","slug":"the-chronic-boutique"},{"name":"Canna Cabinet","type":"dispensary","phone":"(719) 564-2925","city":"Pueblo","state":"Colorado","zipcode":"81004","slug":"canna-cabinet"},{"name":"LaConte's Clone Bar & Dispensary on Washington","type":"dispensary","phone":"(303) 292-2252","city":"Denver","state":"Colorado","zipcode":"80216","slug":"lacontes-clone-bar-dispensary-adult-use"},{"name":"The Giving Tree of Denver","type":"dispensary","phone":"(303) 477-8888","city":"Denver","state":"Colorado","zipcode":"80211","slug":"the-giving-tree-of-denver"},{"name":"Choice Organics","type":"dispensary","phone":"970-472-6337","city":"Fort Collins","state":"Colorado","zipcode":"80524","slug":"choice-organics-recreational"},{"name":"Natures Kiss","type":"dispensary","phone":"(303) 484-9327","city":"Englewood","state":"Colorado","zipcode":"80113","slug":"natures-kiss-3"},{"name":"Native Roots - South Denver","type":"dispensary","phone":"720-428-8050","city":"Denver","state":"Colorado","zipcode":"80223","slug":"native-roots-denver-south-recreational-use"},{"name":"Everbloom Wheat Ridge","type":"dispensary","phone":"(720) 226-9308","city":"Wheat Ridge","state":"Colorado","zipcode":"80033","slug":"everbloom-on-49th"},{"name":"Medicine Man Denver - Rec 21+","type":"dispensary","phone":"(303) 373-0752","city":"Denver","state":"Colorado","zipcode":"80239","slug":"medicine-man-denver-adult-use"},{"name":"The Hemp Center","type":"dispensary","phone":"719-633-1611","city":"Colorado Springs","state":"Colorado","zipcode":"80904","slug":"the-hemp-center-3"},{"name":"Starbuds - Pueblo West","type":"dispensary","phone":"(719) 547-1009","city":"Pueblo West","state":"Colorado","zipcode":"81007","slug":"starbuds-pueblo-west-recreational"},{"name":"Fire Meds 2","type":"dispensary","phone":"(719) 434-8817","city":"Colorado Springs","state":"Colorado","zipcode":"80909","slug":"fire-meds-2-1"},{"name":"Provisions MED","type":"dispensary","phone":"(719) 738-2062","city":"Walsenburg","state":"Colorado","zipcode":"81089","slug":"provisions-med"},{"name":"Lightshade - Havana\/Aurora","type":"dispensary","phone":"720-899-3030","city":"Aurora","state":"Colorado","zipcode":"80010","slug":"lightshade-havana"},{"name":"Northern Standard","type":"dispensary","phone":"719-836-0420","city":"Alma","state":"Colorado","zipcode":"80420","slug":"northern-standard"},{"name":"Native Roots - Littleton","type":"dispensary","phone":"(303) 933-4372","city":"Denver","state":"Colorado","zipcode":"80123","slug":"native-roots-littleton-quincy"},{"name":"5280 Weedery","type":"dispensary","phone":"720-728-7975","city":"Denver","state":"Colorado","zipcode":"80216","slug":"5280-weedery"},{"name":"The Giving Tree - Adult Use","type":"dispensary","phone":"303-477-8888","city":"Denver","state":"Colorado","zipcode":"80211","slug":"giving-tree"},{"name":"Lucy Sky Federal","type":"dispensary","phone":"(303) 794-6742","city":"Englewood","state":"Colorado","zipcode":"80110","slug":"lucy-sky-cannabis-boutique"},{"name":"Four Corners Mental Health","type":"doctor","phone":"970-403-6753","city":"Durango","state":"Colorado","zipcode":"81301","slug":"four-corners-mental-health"},{"name":"Medical Alternatives Clinic, Bruce Reimers, MD","type":"doctor","phone":"719-246-0393","city":"Colorado Springs","state":"Colorado","zipcode":"80919","slug":"medical-alternatives-clinic"},{"name":"Rocky Mountain Cannabis - Gunnison","type":"dispensary","phone":"(970) 641-8782","city":"Gunnison","state":"Colorado","zipcode":"81230","slug":"rocky-mountain-cannabis-2-5-gunnison"},{"name":"Kaya Cannabis Santa Fe - Med","type":"dispensary","phone":"(303) 593-2931","city":"Denver","state":"Colorado","zipcode":"80223","slug":"kaya-santa-fe-med"},{"name":"The Green Solution - Kentucky","type":"dispensary","phone":"(720) 501-2373","city":"Glendale","state":"Colorado","zipcode":"80246","slug":"the-green-solution-kentucky"},{"name":"The Green Solution - Colfax","type":"dispensary","phone":"(303) 990-9723","city":"Aurora","state":"Colorado","zipcode":"80011","slug":"the-green-solution-colfax"},{"name":"Herbal Wellness","type":"dispensary","phone":"303-665-5599","city":"Lafayette","state":"Colorado","zipcode":"80026","slug":"herbal-wellness"},{"name":"Altitude Organic Medicine - Platte Ave","type":"dispensary","phone":"719-344-5121","city":"Colorado Springs","state":"Colorado","zipcode":"80909","slug":"altitude-organic-medicine-2-2"},{"name":"Terrapin Care Station - Mississippi Ave - Adult Use","type":"dispensary","phone":"(303) 954-8402","city":"Aurora","state":"Colorado","zipcode":"80012","slug":"terrapin-care-station-aurora"},{"name":"High Level Health - Lincoln","type":"dispensary","phone":"(303) 839-9333","city":"Denver","state":"Colorado","zipcode":"80203","slug":"high-level-health-adult-use"},{"name":"MMJ America Golden Triangle","type":"dispensary","phone":"303-999-0664","city":"Denver","state":"Colorado","zipcode":"80204","slug":"mmj-america-golden-triangle"},{"name":"The Station Rocky Ford","type":"dispensary","phone":"(719) 383-2080","city":"Rocky Ford","state":"Colorado","zipcode":"81067","slug":"the-station-medical"},{"name":"The Herbal Center - Peoria","type":"dispensary","phone":"(720) 549-4372","city":"Denver","state":"Colorado","zipcode":"80239","slug":"thc-the-herbal-center-recreational-21"},{"name":"The Green Solution - Peoria Ct","type":"dispensary","phone":"(303) 990-9723","city":"Aurora","state":"Colorado","zipcode":"80014","slug":"the-green-solution-7"},{"name":"Maggies Farm Manitou Springs","type":"dispensary","phone":"7196851655","city":"Manitou Springs","state":"Colorado","zipcode":"80829","slug":"maggie-s-farm-manitou-adult-use"},{"name":"Nature's Herbs & Wellness - Milliken","type":"dispensary","phone":"970-587-6657","city":"Milliken","state":"Colorado","zipcode":"80543","slug":"nature-s-herbs-wellness-milliken"},{"name":"Smokeys - Adult Use","type":"dispensary","phone":"(970) 515-5839","city":"Garden City","state":"Colorado","zipcode":"80631","slug":"smokeys"},{"name":"Faragosi Farms","type":"dispensary","phone":"(719) 846-2310","city":"Trinidad","state":"Colorado","zipcode":"81082","slug":"faragosi-farms"},{"name":"Bud Hut Inc","type":"dispensary","phone":"719-738-2837","city":"Walsenburg","state":"Colorado","zipcode":"81089","slug":"bud-hut-inc-81089-walsenburg-trinidad"},{"name":"Rocky Mountain Cannabis Naturita","type":"dispensary","phone":"(970) 865-2160","city":"Naturita","state":"Colorado","zipcode":"81422","slug":"rocky-mountain-cannabis-naturita"},{"name":"The Green Solution - Sheridan","type":"dispensary","phone":"(303) 990-9723","city":"Sheridan","state":"Colorado","zipcode":"80110","slug":"the-green-solution-sheridan"},{"name":"Sunrise Solutions, LLC - Adult Use","type":"dispensary","phone":"303-816-6337","city":"Bailey","state":"Colorado","zipcode":"80421","slug":"sunrise-solutions-llc-adult-use"},{"name":"Smokeys","type":"dispensary","phone":"(970) 797-2155","city":"Fort Collins","state":"Colorado","zipcode":"80526","slug":"smokeys-2"},{"name":"The Health Center Uptown MED","type":"dispensary","phone":"(303) 758-9997","city":"Denver","state":"Colorado","zipcode":"80218","slug":"thcuptown"},{"name":"Local Product of Colorado - Medical","type":"dispensary","phone":"(303) 736-8041","city":"Denver","state":"Colorado","zipcode":"80204","slug":"local-product-of-colorado"},{"name":"Emerald Fields - Manitou Springs","type":"dispensary","phone":"719-375-0554","city":"Manitou Springs","state":"Colorado","zipcode":"80829","slug":"emerald-fields-2"},{"name":"Green RiNo","type":"dispensary","phone":"(303) 433-3151","city":"Denver","state":"Colorado","zipcode":"80216","slug":"whole-meds"},{"name":"Rocky Road - Delivery (Coming Soon)","type":"delivery","phone":"(720) 277-0320","city":"Aurora","state":"Colorado","zipcode":"80014","slug":"rocky-road-delivery"},{"name":"Native Roots Dispensary Boulder","type":"dispensary","phone":"720-726-5126","city":"Boulder","state":"Colorado","zipcode":"80302","slug":"native-roots-dispensary-boulder"},{"name":"Affinity Dispensary MED","type":"dispensary","phone":"(720) 479-8458","city":"Denver","state":"Colorado","zipcode":"80220","slug":"affinity-dispensary-med"},{"name":"Solace Meds Broadway","type":"dispensary","phone":"(303) 282-0200","city":"Denver","state":"Colorado","zipcode":"80210","slug":"solace-meds-broadway"},{"name":"RiNo Supply Co. REC\/MED","type":"dispensary","phone":"(303) 296-2680","city":"Denver","state":"Colorado","zipcode":"80205","slug":"rino-supply-co-rec"},{"name":"MMJ Exams of Colorado","type":"doctor","phone":"970-377-0500","city":"Fort Collins","state":"Colorado","zipcode":"80524","slug":"mmj-exams-of-colorado"},{"name":"Medicine Man Aurora - Rec 21+","type":"dispensary","phone":"(303)-923-3825","city":"Aurora","state":"Colorado","zipcode":"80014","slug":"medicine-man-aurora"},{"name":"Affinity Dispensary","type":"dispensary","phone":"(720) 479-8458","city":"Denver","state":"Colorado","zipcode":"80220","slug":"affinity-dispensary"},{"name":"IgadI Ltd - Central City","type":"dispensary","phone":"(970) 536-0420","city":"Central City","state":"Colorado","zipcode":"80427","slug":"igadi-central-city"},{"name":"Tumbleweed Steamboat","type":"dispensary","phone":"970-761-2239","city":"Steamboat Springs","state":"Colorado","zipcode":"80487","slug":"tumbleweed-steamboat"},{"name":"Durango Organics Grandview","type":"dispensary","phone":"(970) 426-4831","city":"Durango","state":"Colorado","zipcode":"81303","slug":"durango-organics-grandview"},{"name":"Buds, Ltd.","type":"dispensary","phone":"970-285-9307","city":"Parachute","state":"Colorado","zipcode":"81635","slug":"buds-ltd"},{"name":"Karmaceuticals","type":"dispensary","phone":"(303) 765-2762","city":"Denver","state":"Colorado","zipcode":"80223","slug":"karmaceuticals-1"},{"name":"Green House Durango","type":"dispensary","phone":"970-247-2420","city":"Durango","state":"Colorado","zipcode":"81301","slug":"green-house-durango"},{"name":"The Greenery","type":"dispensary","phone":"970-403-3710","city":"Durango","state":"Colorado","zipcode":"81303","slug":"the-greenery-4"},{"name":"LivWell Enlightened Health - Tower Rd.","type":"dispensary","phone":"720-524-8273","city":"Denver","state":"Colorado","zipcode":"80249","slug":"livwell-tower-road"},{"name":"Best Day Ever 2","type":"dispensary","phone":"(860) 391-1156","city":"Glenwood Springs","state":"Colorado","zipcode":"81601","slug":"best-day-ever-2"},{"name":"Tweedleaf - Park","type":"dispensary","phone":"(303) 756-1414","city":"Denver","state":"Colorado","zipcode":"80205","slug":"tweedleaf-park"},{"name":"Golden Meds - Federal","type":"dispensary","phone":"720-583-0194","city":"Denver","state":"Colorado","zipcode":"80219","slug":"highstreetgrowers"},{"name":"Starbuds - Federal Heights","type":"dispensary","phone":"(303) 353-9993","city":"Federal Heights","state":"Colorado","zipcode":"80260","slug":"starbuds-federal-heights"},{"name":"Native Roots Dispensary Littleton - Med","type":"dispensary","phone":"303-933-4372","city":"Littleton","state":"Colorado","zipcode":"80123","slug":"native-roots-littleton"},{"name":"Kaya Cannabis Colfax - Med","type":"dispensary","phone":"720-287-3934","city":"Denver","state":"Colorado","zipcode":"80204","slug":"southwest-alternative-care-colfax-medical"},{"name":"Dispensary 7884","type":"dispensary","phone":"719-206-7884","city":"Antonito","state":"Colorado","zipcode":"81120","slug":"dispensary-7884-1"},{"name":"The Health Center UHills","type":"dispensary","phone":"(303) 758-9997","city":"Denver","state":"Colorado","zipcode":"80222","slug":"the-health-center-adult-use"},{"name":"Little Brown House","type":"dispensary","phone":"(303) 282-6206","city":"Denver","state":"Colorado","zipcode":"80210","slug":"little-brown-house"},{"name":"Terrapin Care Station - Longmont","type":"dispensary","phone":"303 954 8402 ext 3250","city":"Longmont","state":"Colorado","zipcode":"80501","slug":"terrapin-care-station-longmont"},{"name":"Doctors of Natural Medicine","type":"doctor","phone":"719-212-8899","city":"Denver","state":"Colorado","zipcode":"80223","slug":"doctors-of-natural-medicine-2"},{"name":"Better Green Dispensary","type":"dispensary","phone":"719-456-0404","city":"Las Animas","state":"Colorado","zipcode":"81054","slug":"better-green-dispensary"},{"name":"South Park Farma Dispensary","type":"dispensary","phone":"(719) 430-4284","city":"Grant","state":"Colorado","zipcode":"80448","slug":"south-park-farma-grant"},{"name":"MMJ Exams of Colorado","type":"doctor","phone":"970-377-0500","city":"Evans","state":"Colorado","zipcode":"80620","slug":"mmj-exams-of-colorado-4"},{"name":"High West Cannabis","type":"dispensary","phone":"720-287-0820","city":"Denver","state":"Colorado","zipcode":"80239","slug":"high-west-cannabis"},{"name":"Solace Meds - Medical","type":"dispensary","phone":"9702256337","city":"Fort Collins","state":"Colorado","zipcode":"80525","slug":"solace-meds"},{"name":"The Herb Shoppe","type":"dispensary","phone":"719-634-6337","city":"Colorado Springs","state":"Colorado","zipcode":"80904","slug":"the-herb-shoppe-2"},{"name":"A Cut Off The Top","type":"dispensary","phone":"(303) 825-9227","city":"Denver","state":"Colorado","zipcode":"80204","slug":"a-cut-off-the-top-2059-w-9th-ave-80204"},{"name":"Karing Kind - Adult Use","type":"dispensary","phone":"303-449-9333","city":"Boulder","state":"Colorado","zipcode":"80302","slug":"karing-kind"},{"name":"Mountain Medicals","type":"dispensary","phone":"(719) 357-9893","city":"Divide","state":"Colorado","zipcode":"80814","slug":"mountain-medicals-2"},{"name":"IgadI - Lafayette","type":"dispensary","phone":"303-862-7457","city":"Lafyette","state":"Colorado","zipcode":"80026","slug":"igadi-ltd-lafyette"},{"name":"The Dandelion Dispensary","type":"dispensary","phone":"(303) 459-4676","city":"Boulder","state":"Colorado","zipcode":"80302","slug":"the-dandelion-locally-owned-grown-best-of-boulder-county-2010-2011"},{"name":"Dr. Releaf Willamette","type":"dispensary","phone":"719-635-0929","city":"Colorado Springs","state":"Colorado","zipcode":"80909","slug":"dr-releaf-inc-2"},{"name":"The Medicine Man","type":"dispensary","phone":"970-564-5181","city":"Cortez","state":"Colorado","zipcode":"81321","slug":"medicine-man"},{"name":"Strawberry Fields Trinidad","type":"dispensary","phone":"719-422-8066","city":"Trinidad","state":"Colorado","zipcode":"81082","slug":"strawberry-fields-trinidad"},{"name":"Elevate 6010","type":"dispensary","phone":"719-422-8114","city":"Trinidad","state":"Colorado","zipcode":"81082","slug":"elevate-6010"},{"name":"Roots Rx Aspen","type":"dispensary","phone":"970-900-9333","city":"Aspen","state":"Colorado","zipcode":"81611","slug":"roots-rx-aspen"},{"name":"Rocky Mountain High - Montrose","type":"dispensary","phone":"970-252-8880","city":"Montrose","state":"Colorado","zipcode":"81401","slug":"rocky-mountain-high-montrose"},{"name":"Everbloom on Race","type":"dispensary","phone":"(720) 226-9295","city":"Denver","state":"Colorado","zipcode":"80216","slug":"everbloom-on-race"},{"name":"Silver Stem Fine Cannabis - Littleton","type":"dispensary","phone":"(720) 627-5091","city":"Littleton","state":"Colorado","zipcode":"80120","slug":"cannamart"},{"name":"Roll Up","type":"dispensary","phone":"720-572-4902","city":"Denver","state":"Colorado","zipcode":"80216","slug":"roll-up"},{"name":"Lodo Wellness Center","type":"dispensary","phone":"(303) 534-5020","city":"Denver","state":"Colorado","zipcode":"80202","slug":"lodo-wellness-center"},{"name":"Kinfolk Farms","type":"dispensary","phone":"(970) 759-8683","city":"Durango","state":"Colorado","zipcode":"81301","slug":"kinfolk-farms-2"},{"name":"The Farm Express","type":"dispensary","phone":"303-443-0240","city":"Boulder","state":"Colorado","zipcode":"80301","slug":"the-farm-express-1"},{"name":"Solace Meds - Recreational","type":"dispensary","phone":"9702256337","city":"Fort Collins","state":"Colorado","zipcode":"80525","slug":"solace-meds-2"},{"name":"Golden Meds - Zenobia St.","type":"dispensary","phone":"3034339333","city":"Denver","state":"Colorado","zipcode":"80212","slug":"firehouse-north"},{"name":"Starbuds - Arapahoe Rd.","type":"dispensary","phone":"(303) 699-1222","city":"Aurora","state":"Colorado","zipcode":"80016","slug":"starbuds-se-aurora"},{"name":"Highland Health","type":"dispensary","phone":"719-846-2449","city":"Trinidad","state":"Colorado","zipcode":"81082","slug":"highland-health"},{"name":"Good Chemistry","type":"dispensary","phone":"720-524-4657","city":"Denver","state":"Colorado","zipcode":"80203","slug":"good-chemistry"},{"name":"Rocky Road on Platte","type":"dispensary","phone":"(719) 574-4230","city":"Colorado Springs","state":"Colorado","zipcode":"80910","slug":"rocky-road-remedies"},{"name":"High Tops","type":"dispensary","phone":"(719) 473-0279","city":"Colorado Springs","state":"Colorado","zipcode":"80903","slug":"high-tops-colorado-springs"},{"name":"Fremont County Cannabis","type":"dispensary","phone":"719-275-1000","city":"Cañon City","state":"Colorado","zipcode":"81212","slug":"fremont-county-cannabis"},{"name":"Fresh Baked Dispensary Boulder - Adult Use","type":"dispensary","phone":"303.440.9393","city":"Boulder","state":"Colorado","zipcode":"80302","slug":"boulder-fresh-baked-dispensary"},{"name":"Kaya Cannabis Colfax","type":"dispensary","phone":"(720) 287-3934","city":"Denver","state":"Colorado","zipcode":"80204","slug":"kaya-cannabis-recreational"},{"name":"LOVA - Aurora","type":"dispensary","phone":"(720) 379-4554","city":"Aurora","state":"Colorado","zipcode":"80015","slug":"green-heart-2-3"},{"name":"Options Recreational","type":"dispensary","phone":"(303) 953-2852","city":"Boulder","state":"Colorado","zipcode":"80303","slug":"options-recreational"},{"name":"Livwell Enlightened Health - Central Park","type":"dispensary","phone":"(720) 573-4735","city":"Denver","state":"Colorado","zipcode":"80207","slug":"livwell-stapleton-recreational"},{"name":"Tweedleaf Wild West","type":"dispensary","phone":"(719) 422-8092","city":"Trinidad","state":"Colorado","zipcode":"81082","slug":"tweedleaf-recreational"},{"name":"Green Dragon - Capitol Hill","type":"dispensary","phone":"(720) 505-5887","city":"Denver","state":"Colorado","zipcode":"80203","slug":"green-dragon-7"},{"name":"The Clinic on Wadsworth - Medical","type":"dispensary","phone":"(303) 484-8853","city":"Lakewood","state":"Colorado","zipcode":"80235","slug":"the-clinic-on-wadsworth"},{"name":"Green Tree Medicinals Berthoud MED","type":"dispensary","phone":"(970) 670-9120","city":"Berthoud","state":"Colorado","zipcode":"80504","slug":"green-tree-medicinals-of-berthoud"},{"name":"Colorado Kush Company","type":"dispensary","phone":"(719) 299-4694","city":"Pueblo","state":"Colorado","zipcode":"81004","slug":"seven-one-nine-llc"},{"name":"Canna City","type":"dispensary","phone":"(719) 422-8261","city":"Trinidad","state":"Colorado","zipcode":"81082","slug":"canna-city-2"},{"name":"Terrapin Care Station - 33rd Ave - Adult Use","type":"dispensary","phone":"(303) 954-8402","city":"Aurora","state":"Colorado","zipcode":"80010","slug":"terrapin-care-station-aurora-33rd-ave-recreational-adult-use"},{"name":"Silver Stem Fine Cannabis Denver South - REC","type":"dispensary","phone":"(303) 734-0420","city":"Denver","state":"Colorado","zipcode":"80236","slug":"silver-stem-fine-cannabis-lakewood-recreational"},{"name":"Green Pharm 2","type":"dispensary","phone":"(719) 598-8245","city":"Colorado Springs","state":"Colorado","zipcode":"80918","slug":"green-pharm-2"},{"name":"The Health Center Uptown","type":"dispensary","phone":"(303) 758-9997","city":"Denver","state":"Colorado","zipcode":"80218","slug":"the-health-center-uptown"},{"name":"Native Roots Dispensary West Denver - Med","type":"dispensary","phone":"(720) 638-0802","city":"Denver","state":"Colorado","zipcode":"80219","slug":"native-roots-west-denver-2"},{"name":"Callie's Cannabis Shoppe Denver - COMING SOON","type":"dispensary","phone":"720-415-2976","city":"Denver","state":"Colorado","zipcode":"80204","slug":"callie-s-cannabis-shoppe-denver"},{"name":"Boulder Wellness Center","type":"dispensary","phone":"303-442-2565","city":"Boulder","state":"Colorado","zipcode":"80303","slug":"boulder-wellness-center-recreational"},{"name":"Dr. Releaf Wooten","type":"dispensary","phone":"719-635-0929","city":"Colorado Springs","state":"Colorado","zipcode":"80915","slug":"dr-releaf-inc-2-2"},{"name":"Trichome Health Consultants","type":"dispensary","phone":"(719) 635-6337","city":"Colorado Springs","state":"Colorado","zipcode":"80904","slug":"trichome-health-consultants"},{"name":"Lightshade - Holly","type":"dispensary","phone":"(303) 468-6100","city":"Denver","state":"Colorado","zipcode":"80207","slug":"lightshade-adult-use-2-holly-recreational"},{"name":"Apothecary Farms Denver MED","type":"dispensary","phone":"303-862-5016","city":"Denver","state":"Colorado","zipcode":"80210","slug":"apothecary-farms-denver"},{"name":"Native Roots Recreational Marijuana Dispensary Edgewater","type":"dispensary","phone":"(970) 368-6024","city":"Edgewater","state":"Colorado","zipcode":"80214","slug":"native-roots-edgewater"},{"name":"Natures Medicine Salida","type":"dispensary","phone":"719-539-3207","city":"Salida","state":"Colorado","zipcode":"81201","slug":"natures-medicine-salida"},{"name":"Green World","type":"dispensary","phone":"719-206-BUDS","city":"Fort Garland","state":"Colorado","zipcode":"81133","slug":"the-green-world"},{"name":"Rocky Mountain High - Stapleton","type":"dispensary","phone":"(303) 377-1020","city":"Stapleton","state":"Colorado","zipcode":"80216","slug":"rocky-mountain-high-dispensary-stapleton"},{"name":"Tumbleweed - Carbondale","type":"dispensary","phone":"(970) 510-3065","city":"Carbondale","state":"Colorado","zipcode":"81623","slug":"tumbleweed-carbondale"},{"name":"Terrapin Care Station - Manhattan Circle - Adult Use","type":"dispensary","phone":"(303) 954-8402","city":"Boulder","state":"Colorado","zipcode":"80303","slug":"terrapin-care-station-manhattan-circle"},{"name":"The Peaceful Choice - MED","type":"dispensary","phone":"720-366-6615","city":"Boulder","state":"Colorado","zipcode":"80303","slug":"peoples-choice-wellness-center"},{"name":"Adventure CBD & Hemp - Dispensary","type":"store","phone":"1-844-374-2223","city":"Colorado Springs","state":"Colorado","zipcode":"80904","slug":"adventure-cbd-hemp-dispensary"},{"name":"Trinidad's Higher CBD & Oxygen Bar","type":"store","phone":"(719) 422-8310","city":"Trinidad","state":"Colorado","zipcode":"81082","slug":"trinidad-s-higher-cbd-oxygen-bar"},{"name":"Rocky Mountain Cannabis","type":"dispensary","phone":"970-626-4009","city":"Ridgway","state":"Colorado","zipcode":"81432","slug":"rocky-mountain-cannabis-2"},{"name":"Buddy Boy 1st & Fed - MED","type":"dispensary","phone":"(720) 542-9434","city":"Denver","state":"Colorado","zipcode":"80219","slug":"buddy-boy-brands-north-federal-2-2"},{"name":"Green Dream - Rec","type":"dispensary","phone":"303-530-3031","city":"Boulder","state":"Colorado","zipcode":"80301","slug":"green-dream-rec"},{"name":"Starbuds - Louisville","type":"dispensary","phone":"720-389-6313","city":"Louisville","state":"Colorado","zipcode":"80027","slug":"starbuds-altermeds-louisville"},{"name":"The Epic Remedy Academy","type":"dispensary","phone":"(719) 434-2040","city":"Colorado Springs","state":"Colorado","zipcode":"80917","slug":"the-epic-remedy"},{"name":"Emerald City Wellness","type":"dispensary","phone":"719-358-6955","city":"Colorado Springs","state":"Colorado","zipcode":"80905","slug":"emerald-city-wellness"},{"name":"Honeybear Apothecary","type":"dispensary","phone":"970-620-4678","city":"Craig","state":"Colorado","zipcode":"81625","slug":"honeybear-apothecary"},{"name":"Silver Stem Fine Cannabis Denver East - REC","type":"dispensary","phone":"720-771-9866","city":"Denver","state":"Colorado","zipcode":"80220","slug":"silver-stem-fine-cannabis-recreational"},{"name":"Local Product of Colorado Recreational","type":"dispensary","phone":"(303) 736-8041","city":"Denver","state":"Colorado","zipcode":"80204","slug":"local-product-of-colorado-recreational-2"},{"name":"Cannabis Station","type":"dispensary","phone":"303-297-9333","city":"Denver","state":"Colorado","zipcode":"80202","slug":"cannabis-station"},{"name":"Rocky Mountain Cannabis Georgetown","type":"dispensary","phone":"303-569-0444","city":"Georgetown","state":"Colorado","zipcode":"80444","slug":"rocky-mountain-cannabis-georgetown"},{"name":"Green Farms","type":"dispensary","phone":"(719) 424-7028","city":"Colorado Springs","state":"Colorado","zipcode":"80909","slug":"green-farm"},{"name":"Tumbleweed - De Beque","type":"dispensary","phone":"(970) 609-9877","city":"DeBeque","state":"Colorado","zipcode":"81630","slug":"tumbleweed-dispensary-debeque"},{"name":"Altitude Organic Medicine - Academy Blvd","type":"dispensary","phone":"719-203-4918","city":"Colorado Springs","state":"Colorado","zipcode":"80918","slug":"altitude-organic-medicine-2"},{"name":"Native Roots Dispensary Aspen","type":"dispensary","phone":"970-429-4443","city":"Aspen","state":"Colorado","zipcode":"81611","slug":"native-roots-aspen"},{"name":"Twin Peaks Dispensary","type":"dispensary","phone":"(720) 892-5969","city":"Longmont","state":"Colorado","zipcode":"80501","slug":"twin-peaks-dispensary"},{"name":"Colorado Harvest Company - S. Broadway","type":"dispensary","phone":"(303) 722-1227","city":"Denver","state":"Colorado","zipcode":"80210","slug":"colorado-harvest-co"},{"name":"The Herbal Alternative","type":"dispensary","phone":"(970) 529-7007","city":"Cortez","state":"Colorado","zipcode":"81321","slug":"the-herbal-alternative"},{"name":"The Secret Stash","type":"dispensary","phone":"719-633-8499","city":"Colorado Springs","state":"Colorado","zipcode":"80904","slug":"the-secret-stash"},{"name":"Roots Rx - Basalt","type":"dispensary","phone":"970-539-9333 ","city":"Basalt","state":"Colorado","zipcode":"81621","slug":"roots-rx-basalt"},{"name":"The Happy Camper Cannabis Company","type":"dispensary","phone":"303-816-0420","city":"Bailey","state":"Colorado","zipcode":"80421","slug":"the-happy-camper-cannabis-company"},{"name":"The Green Solution - Commercial St.","type":"dispensary","phone":"(303) 990-9723","city":"Trinidad","state":"Colorado","zipcode":"81082","slug":"the-green-solution-5"},{"name":"ALLGREENS","type":"dispensary","phone":"(303) 658-0107","city":"Denver","state":"Colorado","zipcode":"80204","slug":"allgreens-denver"},{"name":"Sticky Fingerz MED","type":"dispensary","phone":"(303) 955-5531","city":"Denver","state":"Colorado","zipcode":"80205","slug":"sticky-fingerz-2"},{"name":"Rocky Mountain Remedies","type":"dispensary","phone":"970-871-2768","city":"Steamboat Springs","state":"Colorado","zipcode":"80487","slug":"rocky-mountain-remedies-adult-use"},{"name":"Caregivers for Life Medical Center","type":"dispensary","phone":"720-536-5462","city":"Denver","state":"Colorado","zipcode":"80206","slug":"caregivers-for-life-medical-center"},{"name":"Good Chemistry - Broadway","type":"dispensary","phone":"(303) 733-3113","city":"Denver","state":"Colorado","zipcode":"80210","slug":"good-chemistry-broadway"},{"name":"Denver Dispensary - RECREATIONAL","type":"dispensary","phone":"303-308-1111","city":"Denver","state":"Colorado","zipcode":"80216","slug":"denver-dispensary-recreational"},{"name":"MMJ Exams of Colorado","type":"doctor","phone":"970-377-0500","city":"Longmont","state":"Colorado","zipcode":"80501","slug":"mmj-exams-of-colorado-5"},{"name":"Silver Stem Fine Cannabis Nederland\/Boulder","type":"dispensary","phone":"303-258-3552","city":"Nederland","state":"Colorado","zipcode":"80466","slug":"silver-stem-fine-cannabis-nederland-boulder"},{"name":"LOVA Downtown","type":"dispensary","phone":"(720) 531-5492","city":"Denver","state":"Colorado","zipcode":"80205","slug":"mmj-america-downtown-recreational-1"},{"name":"Peak MJ Sedgwick","type":"dispensary","phone":"9705711327","city":"Sedgwick","state":"Colorado","zipcode":"80749","slug":"peak-mj-sedgwick"},{"name":"Urban Dispensary - Denver Recreational","type":"dispensary","phone":"720-389-9179","city":"Denver","state":"Colorado","zipcode":"80211","slug":"urban-dispensary-denver"},{"name":"Colorado Cannabis Connection","type":"dispensary","phone":"(720) 328-2355","city":"Denver","state":"Colorado","zipcode":"80127","slug":"colorado-cannabis-connection"},{"name":"Herbs 4 you","type":"dispensary","phone":"(303) 830-9999","city":"Denver","state":"Colorado","zipcode":"80203","slug":"herbs4you-adult-use"},{"name":"Magnolia Road Delivery - Boulder (Coming Soon)","type":"delivery","phone":"720-390-7689","city":"Boulder","state":"Colorado","zipcode":"80301","slug":"magnolia-road-delivery-boulder"},{"name":"Herbal Health Systems","type":"doctor","phone":"303-237-1223","city":"Denver","state":"Colorado","zipcode":"80222","slug":"herbal-healthsystems-2"},{"name":"Reefer Madness MED","type":"dispensary","phone":"(303) 322-3404","city":"Denver","state":"Colorado","zipcode":"80216","slug":"reefer-madness-2"},{"name":"DinoTreats","type":"dispensary","phone":"(970) 374-2350","city":"Dinosaur","state":"Colorado","zipcode":"81610","slug":"dinotreats-llc"},{"name":"Ascend Medical Cannabis Co.","type":"dispensary","phone":"303-988-5255","city":"Lakewood","state":"Colorado","zipcode":"80226","slug":"healing-house-lakewood"},{"name":"Diego Pellicer MED","type":"dispensary","phone":"303-862-5169","city":"Denver","state":"Colorado","zipcode":"80210","slug":"colorado-wellness-inc"},{"name":"PROHIBITION HERB - REC","type":"dispensary","phone":"970-385-8622","city":"Durango","state":"Colorado","zipcode":"81301","slug":"animas-herbal-wellness-center"},{"name":"Cohen Medical Centers (Denver)","type":"doctor","phone":"(303) 892-6436","city":"Denver","state":"Colorado","zipcode":"80223","slug":"cohen-medical-centers-denver"},{"name":"Lit","type":"dispensary","phone":"(303)455-9333  ","city":"Denver","state":"Colorado","zipcode":"80204","slug":"mile-high-medical-cannabis"},{"name":"Drift","type":"dispensary","phone":"(720) 612-4382","city":"Boulder","state":"Colorado","zipcode":"80301","slug":"drift"},{"name":"NaturaLeaf North","type":"dispensary","phone":"719-264-6337","city":"Colorado Springs","state":"Colorado","zipcode":"80918","slug":"mc-caregivers"},{"name":"Lucy Sky on Broadway","type":"dispensary","phone":"720-379-7295","city":"Denver","state":"Colorado","zipcode":"80210","slug":"lucy-sky-on-broadway-recreational"},{"name":"HeadMaster MMJ","type":"dispensary","phone":"(719) 694-8000","city":"Colorado Springs","state":"Colorado","zipcode":"80909","slug":"head-master-mmj"},{"name":"The Green Solution - Water St","type":"dispensary","phone":"(303) 990-9723","city":"Silver Plume","state":"Colorado","zipcode":"80476","slug":"the-green-solution-4"},{"name":"The Chronic Boutique","type":"dispensary","phone":"719-434-2401","city":"Colorado Springs","state":"Colorado","zipcode":"80904","slug":"adams-green-crossing-llc"},{"name":"Golden Meds - Quebec St.","type":"dispensary","phone":"7208076023","city":"Denver","state":"Colorado","zipcode":"80231","slug":"golden-meds-quebec-st-1"},{"name":"Tweedleaf Boulder","type":"dispensary","phone":"(303) 440-6700","city":"Boulder","state":"Colorado","zipcode":"80303","slug":"tweedleaf-boulder"},{"name":"Stained Glass, Inc.","type":"dispensary","phone":"(719) 247-8278","city":"Colorado Springs","state":"Colorado","zipcode":"80909","slug":"stained-glass-inc"},{"name":"PROHIBITION HERB - MED","type":"dispensary","phone":"970-385-8622","city":"Durango","state":"Colorado","zipcode":"81301","slug":"animas-herbal-wellness-center-2"},{"name":"Cookies Pueblo - NOW OPEN","type":"dispensary","phone":"719-582-1949","city":"Pueblo","state":"Colorado","zipcode":"81004","slug":"cookies-pueblo"},{"name":"Trenchtown Cannabis - Recreational","type":"dispensary","phone":"303-495-3531","city":"Denver","state":"Colorado","zipcode":"80214","slug":"trenchtown-marijuana-center-recreational-mmj-denver"},{"name":"Higher Elevation","type":"dispensary","phone":"(719) 256-4800","city":"Crestone","state":"Colorado","zipcode":"81131","slug":"higher-elevation-3"},{"name":"Good Earth Meds","type":"dispensary","phone":"970-731-3202           ","city":"Pagosa Springs","state":"Colorado","zipcode":"81147","slug":"good-earth-meds"},{"name":"Medical Alternatives Clinic Bruce Reimers, MD","type":"doctor","phone":"719-246-0393","city":"Pueblo","state":"Colorado","zipcode":"81008","slug":"medical-alternatives-clinic-2"},{"name":"Durango Organics Crested Butte","type":"dispensary","phone":"(970) 349-5993","city":"Crested Butte","state":"Colorado","zipcode":"81224","slug":"durango-organics-crested-butte"},{"name":"Green Tree Medicinals Longmont","type":"dispensary","phone":"303-772-3034","city":"Longmont","state":"Colorado","zipcode":"80504","slug":"green-tree-medicinals-formerly-nature-s-medicine-of-longmont"},{"name":"Primal","type":"dispensary","phone":"(719) 344-5399","city":"Colorado springs","state":"Colorado","zipcode":"80909","slug":"primal-cs"},{"name":"South Park Farma Dispensary - North Denver","type":"dispensary","phone":"3032893263","city":"Commerce City","state":"Colorado","zipcode":"80022","slug":"south-park-farma-dispensary-north-denver"},{"name":"Green Cross of Cherry Creek REC\/MED","type":"dispensary","phone":"7206394939","city":"Denver","state":"Colorado","zipcode":"80224","slug":"green-cross-of-cherry-creek-2"},{"name":"IgadI - Northglenn","type":"dispensary","phone":"(720) 534-2420","city":"Northglenn","state":"Colorado","zipcode":"80233","slug":"igadi-northglenn"},{"name":"Pure Marijuana Dispensary - Ivy","type":"dispensary","phone":"303-951-1480","city":"Denver","state":"Colorado","zipcode":"80216","slug":"denver-clone-store-north"},{"name":"Freedom Road on Main","type":"dispensary","phone":"719-422-8181","city":"Trinidad","state":"Colorado","zipcode":"81082","slug":"freedom-road-on-main"},{"name":"Aspen Roaring Fork Wellness","type":"dispensary","phone":"(970) 279-5072","city":"Basalt","state":"Colorado","zipcode":"81621","slug":"aspen-roaringfork-wellness"},{"name":"Euflora Buckley","type":"dispensary","phone":"(303) 680-1016","city":"Aurora","state":"Colorado","zipcode":"80013","slug":"euflora-buckley"},{"name":"Green World Express","type":"dispensary","phone":"7192063265","city":"Antonito","state":"Colorado","zipcode":"81120","slug":"green-world-express"},{"name":"The 404 Dispensary","type":"dispensary","phone":"(719) 696-9769","city":"Pueblo","state":"Colorado","zipcode":"81003","slug":"the-404-dispensary"},{"name":"Livwell Enlightened Health - Cortez","type":"dispensary","phone":"(970) 565-9577","city":"Cortez","state":"Colorado","zipcode":"81321","slug":"livwell-cortez"},{"name":"Solace Meds of Wheat Ridge","type":"dispensary","phone":"303-997-4082","city":"Wheat Ridge","state":"Colorado","zipcode":"80033","slug":"solace-meds-of-wheat-ridge"},{"name":"The Dab East Louisville","type":"dispensary","phone":"(303) 474-4059","city":"Louisville","state":"Colorado","zipcode":"80027","slug":"the-dab-east-louisville"},{"name":"AMCH - MEDICAL","type":"dispensary","phone":"720-961-0560","city":"Denver","state":"Colorado","zipcode":"80218","slug":"alternative-medicine-on-capitol-hill"},{"name":"Mountain Annie's - Ridgway","type":"dispensary","phone":"970-626-4099","city":"Ridgway","state":"Colorado","zipcode":"81432","slug":"mountain-annie-s-ridgway"},{"name":"Colorados Kindest","type":"dispensary","phone":"(719) 657-1123","city":"Del Norte","state":"Colorado","zipcode":"81132","slug":"colorados-kindest"},{"name":"Kanopya Springs","type":"dispensary","phone":"(719) 344-9198","city":"Colorado Springs","state":"Colorado","zipcode":"80909","slug":"kanopya-springs-1"},{"name":"Rocky Road Original","type":"dispensary","phone":"7194819420","city":"Colorado Springs","state":"Colorado","zipcode":"80916","slug":"rocky-road-original"},{"name":"Green Tree Medicinals Berthoud","type":"dispensary","phone":"(970) 670-9120","city":"Berthoud","state":"Colorado","zipcode":"80504","slug":"green-tree-berthoud"},{"name":"Medicine Man Longmont","type":"dispensary","phone":"(720) 204-7500","city":"Longmont","state":"Colorado","zipcode":"80501","slug":"medicine-man-longmont"},{"name":"Briargate Wellness Center","type":"dispensary","phone":"(719) 598-3510","city":"Colorado Springs","state":"Colorado","zipcode":"80918","slug":"briargate-wellness-center-llc"},{"name":"The Clinic Highlands Adult Use","type":"dispensary","phone":"(303) 997-7130","city":"Denver","state":"Colorado","zipcode":"80211","slug":"the-clinic-highlands-2"},{"name":"Chronic Therapy - Cortez","type":"dispensary","phone":"(970) 529-2045","city":"Cortez","state":"Colorado","zipcode":"81321","slug":"chronic-therapy-cortez"},{"name":"Denver Dispensary - Medical","type":"dispensary","phone":"303-308-1111","city":"Denver","state":"Colorado","zipcode":"80216","slug":"denver-dispensary"},{"name":"Native Roots - Highlands","type":"dispensary","phone":"720.287.1478","city":"Denver","state":"Colorado","zipcode":"80211","slug":"native-roots-apothecary-medical"},{"name":"The Green Solution - Potomac","type":"dispensary","phone":"(303) 990-9723","city":"Aurora","state":"Colorado","zipcode":"80012","slug":"the-green-solution-potomac"},{"name":"Mile High Green Cross Recreational","type":"dispensary","phone":"303-861-4252","city":"Denver","state":"Colorado","zipcode":"80203","slug":"mile-high-green-cross-recreational"},{"name":"Good Meds Lakewood - Medical","type":"dispensary","phone":"303-238-1253","city":"Lakewood","state":"Colorado","zipcode":"80214","slug":"good-meds-lakewood"},{"name":"Frosty Leaf","type":"dispensary","phone":"(970) 975-0278","city":"Gunnison","state":"Colorado","zipcode":"81230","slug":"frosty-leaf-3"},{"name":"The Underground Station","type":"dispensary","phone":"7194228365","city":"Trinidad","state":"Colorado","zipcode":"81082","slug":"the-underground-station"},{"name":"Green Cross Caregivers - MED","type":"dispensary","phone":"303-337-2229","city":"Denver","state":"Colorado","zipcode":"80231","slug":"green-cross-caregivers"},{"name":"ORGANIX - Medical Only","type":"dispensary","phone":"970-453-1340","city":"Breckenridge","state":"Colorado","zipcode":"80424","slug":"organix"},{"name":"The Pig 'N' Whistle","type":"dispensary","phone":"720-542-3437","city":"Denver","state":"Colorado","zipcode":"80204","slug":"the-pig-n-whistle"},{"name":"Healthy Choices Unlimited (Glenwood Springs)","type":"doctor","phone":"(720) 443-2420","city":"Glenwood Springs","state":"Colorado","zipcode":"81601","slug":"healthy-choices-unlimited-glenwood-springs"},{"name":"Tenderfoot Health Collective","type":"dispensary","phone":"719-539-8661","city":"Salida","state":"Colorado","zipcode":"81201","slug":"tenderfoot-health-collective"},{"name":"Silver Stem Fine Cannabis - Medical","type":"dispensary","phone":"720-771-9866","city":"Denver","state":"Colorado","zipcode":"80220","slug":"silver-stem-fine-cannabis-medical"},{"name":"Buddy Boy Umatilla - MED","type":"dispensary","phone":"(303) 893-9333","city":"Denver","state":"Colorado","zipcode":"80204","slug":"buddy-boy-2-4"},{"name":"Terps Dispensary","type":"dispensary","phone":"719-354-4434","city":"Colorado Springs","state":"Colorado","zipcode":"80907","slug":"terps-dispensary"},{"name":"Options Medical Center - Recreational","type":"dispensary","phone":"720-242-9452","city":"Wheatridge","state":"Colorado","zipcode":"80033","slug":"options-medical-center-2-3"},{"name":"Eclipse Cannabis Company","type":"dispensary","phone":"(720) 420-0782","city":"Boulder","state":"Colorado","zipcode":"80304","slug":"eclipse-cannabis-company"},{"name":"The Kind Castle - Nederland","type":"dispensary","phone":"3032587210","city":"Nederland","state":"Colorado","zipcode":"80466","slug":"the-kind-caste-nederland"},{"name":"The Dab by SilverPeak","type":"dispensary","phone":"303-936-5983","city":"Denver","state":"Colorado","zipcode":"80219","slug":"the-dab-by-silverpeak-1"},{"name":"Lightshade - 6th Ave","type":"dispensary","phone":"720-899-3040","city":"Denver","state":"Colorado","zipcode":"80203","slug":"lightshade-6th-ave"},{"name":"The Green House - MED Only","type":"dispensary","phone":"719-344-5996","city":"Colorado Springs","state":"Colorado","zipcode":"80905","slug":"the-green-house"},{"name":"Fire Meds","type":"dispensary","phone":"(719) 368-6168","city":"Colorado Springs","state":"Colorado","zipcode":"80909","slug":"fire-meds"},{"name":"Relaxed Clarity - Denver","type":"doctor","phone":"(303) 690-4882","city":"Denver","state":"Colorado","zipcode":"80224","slug":"relaxed-clarity-3"},{"name":"Green Pharm LLC","type":"dispensary","phone":"(719) 591-2070","city":"Colorado Springs","state":"Colorado","zipcode":"80909","slug":"green-pharm-llc"},{"name":"Rocky Farms - MED","type":"dispensary","phone":"(719) 254-3820","city":"Rocky Ford","state":"Colorado","zipcode":"81067","slug":"rocky-farms-med"},{"name":"The Bud Depot","type":"dispensary","phone":"303-823-6422","city":"Lyons","state":"Colorado","zipcode":"80540","slug":"the-bud-depot-3"},{"name":"Healthy Choices Unlimited (Avon)","type":"doctor","phone":"(720) 443-2420","city":"Avon","state":"Colorado","zipcode":"81620","slug":"healthy-choices-unlimited-avon"},{"name":"Colorado Harvest Company | Aurora Delivery Only","type":"delivery","phone":"(720) 535-9489","city":"Aurora","state":"Colorado","zipcode":"80014","slug":"colorado-harvest-company-delivery"},{"name":"The Spot 420 Pueblo","type":"dispensary","phone":"(719) 544-7768","city":"Pueblo","state":"Colorado","zipcode":"81008","slug":"the-spot-420-pueblo"},{"name":"Native Roots Dispensary South Denver - Med","type":"dispensary","phone":"720-428-8050","city":"Denver","state":"Colorado","zipcode":"80223","slug":"native-roots-south"},{"name":"Frosted Leaf Federal","type":"dispensary","phone":"(303) 355-4372","city":"Denver","state":"Colorado","zipcode":"80204","slug":"frosted-leaf-federal-2"},{"name":"Magnolia Road Cannabis Co. - Medical","type":"dispensary","phone":"720-502-4867","city":"Boulder","state":"Colorado","zipcode":"80301","slug":"magnolia-road-cannabis-co"},{"name":"High Level Health - Dumont","type":"dispensary","phone":"720-242-8692","city":"Downieville","state":"Colorado","zipcode":"80436","slug":"the-highway-adult-use"},{"name":"Cannabicare","type":"dispensary","phone":"719-573-2262","city":"Colorado Springs","state":"Colorado","zipcode":"80915","slug":"cannabicare"},{"name":"Platte Valley Dispensary","type":"dispensary","phone":"303-953-0295","city":"Denver","state":"Colorado","zipcode":"80211","slug":"platte-valley-dispensary-2"},{"name":"Cannabotica","type":"dispensary","phone":"(303) 777-1550","city":"Denver","state":"Colorado","zipcode":"80223","slug":"cannabotica"},{"name":"Kind Love","type":"dispensary","phone":"(720) 390-3600","city":"Denver","state":"Colorado","zipcode":"80246","slug":"kind-love-recreational"},{"name":"Maggies Farm Pueblo North - Piñon","type":"dispensary","phone":"719.544.2550","city":"Pueblo","state":"Colorado","zipcode":"81008","slug":"maggies-farm-pueblo-north"},{"name":"Pueblo West Organics - Adult Use","type":"dispensary","phone":"719-647-2043","city":"Pueblo West","state":"Colorado","zipcode":"81007","slug":"pueblo-west-organics-2"},{"name":"Helping Hands Herbals","type":"dispensary","phone":"720-476-6186","city":"Boulder","state":"Colorado","zipcode":"80302","slug":"helping-hands-herbals"},{"name":"Rocky Mountain Remedies","type":"dispensary","phone":"970-871-2768","city":"Steamboat Springs","state":"Colorado","zipcode":"80487","slug":"rocky-mountain-remedies"},{"name":"MMJ Exams of Colorado","type":"doctor","phone":"970-377-0500","city":"Boulder","state":"Colorado","zipcode":"80301","slug":"mmj-exams-of-colorado-3"},{"name":"Canna Meds Wellness Center - Academy","type":"dispensary","phone":"(719) 635-6336","city":"Colorado Springs","state":"Colorado","zipcode":"80909","slug":"canna-meds-wellness-center-2"},{"name":"Oasis Cannabis Superstore Denver - Medical","type":"dispensary","phone":"303-756-1494","city":"Denver","state":"Colorado","zipcode":"80222","slug":"medicinal-oasis"},{"name":"Dabarado","type":"dispensary","phone":"7193082175","city":"Colorado Springs","state":"Colorado","zipcode":"80919","slug":"dabarado"},{"name":"Den-Rec South MED","type":"dispensary","phone":"(720) 390-5070","city":"Denver","state":"Colorado","zipcode":"80223","slug":"den-rec-medical"},{"name":"POTCO","type":"dispensary","phone":"(720) 457-3060","city":"Denver","state":"Colorado","zipcode":"80239","slug":"potco-2"},{"name":"Terrapin Care Station - Broadway - Adult Use","type":"dispensary","phone":"(303) 954-8402","city":"Denver","state":"Colorado","zipcode":"80203","slug":"denver-terrapincarestation-recreational"},{"name":"Good Chemistry Highlands","type":"dispensary","phone":"(720) 328-2131","city":"Denver","state":"Colorado","zipcode":"80211","slug":"good-chemistry-15th-st"},{"name":"Higher Grade - Cherry Hills Medical","type":"dispensary","phone":"(720) 350-4071","city":"Denver","state":"Colorado","zipcode":"80231","slug":"higher-grade-65e975e6-82cb-4c6d-beec-1b3ced996bd1"},{"name":"The Hemp Shoppe","type":"store","phone":"719-634-6337","city":"Colorado Springs","state":"Colorado","zipcode":"80904","slug":"the-hemp-shoppe"},{"name":"DANK Colorado- Medical Use","type":"dispensary","phone":"303.394.3265","city":"Denver","state":"Colorado","zipcode":"80207","slug":"dank"},{"name":"Good Weed","type":"dispensary","phone":"(719) 344-5325","city":"Colorado Springs","state":"Colorado","zipcode":"80903","slug":"good-weed"},{"name":"ONE:ELEVEN","type":"dispensary","phone":"(719) 937-7716","city":"Moffat","state":"Colorado","zipcode":"81143","slug":"dispensary-1-11"},{"name":"Beleaf Wellness Center","type":"dispensary","phone":"(719) 206-3361","city":"San Luis","state":"Colorado","zipcode":"81152","slug":"beleaf-wellness-center"},{"name":"Clearance Cannabis Company","type":"dispensary","phone":"7205471718","city":"Englewood","state":"Colorado","zipcode":"80110","slug":"clearance-cannabis-company"},{"name":"Twin Peaks Dispensary MED","type":"dispensary","phone":"(720) 892-5969","city":"Longmont","state":"Colorado","zipcode":"80501","slug":"twin-peaks-dispensary-1"},{"name":"Colorado Best Budz","type":"dispensary","phone":"719-281-3963","city":"Pueblo","state":"Colorado","zipcode":"81006","slug":"colorado-best-budz-2-2"},{"name":"MMD Medical Doctors","type":"doctor","phone":"720-519-1236","city":"Denver","state":"Colorado","zipcode":"80203","slug":"mmd-medical-doctors"},{"name":"Buddy Boy Walnut – RiNo","type":"dispensary","phone":"(303) 308-0420","city":"Denver","state":"Colorado","zipcode":"80205","slug":"buddy-boy-brands-walnut-recreational"},{"name":"The Green Solution - Federal","type":"dispensary","phone":"(303) 990-9723","city":"Denver","state":"Colorado","zipcode":"80221","slug":"the-green-solution-federal"},{"name":"Lucy Sky Wash Park MED","type":"dispensary","phone":"303-733-5500","city":"Denver","state":"Colorado","zipcode":"80210","slug":"lucy-sky-medical"},{"name":"LOVA Downtown (Medical)","type":"dispensary","phone":"(720) 531-5492","city":"Denver","state":"Colorado","zipcode":"80205","slug":"mmj-america-downtown-medical"},{"name":"LaConte's Clone Bar & Dispensary on 7th","type":"dispensary","phone":"(303) 292-2252","city":"Denver","state":"Colorado","zipcode":"80203","slug":"lacontes-clone-bar-dispensary-central-recreational"},{"name":"Silver Stem Cannabis Englewood\/Sheridan","type":"dispensary","phone":"303-955-4883","city":"Englewood","state":"Colorado","zipcode":"80110","slug":"silver-stem-cannabis"},{"name":"Roots RX Gunnison","type":"dispensary","phone":"(970) 641-3044","city":"Gunnison","state":"Colorado","zipcode":"81230","slug":"roots-rx-gunnison"},{"name":"A Cut Above - Denver Med","type":"dispensary","phone":"720-536-8965","city":"Denver","state":"Colorado","zipcode":"80210","slug":"a-cut-above-denver"},{"name":"A Cut Off The Top","type":"dispensary","phone":"(303) 825-9227","city":"Denver","state":"Colorado","zipcode":"80204","slug":"a-cut-off-the-top"},{"name":"Krystaleaves","type":"dispensary","phone":"(303) 802-0026","city":"Commerce City","state":"Colorado","zipcode":"80022","slug":"krystaleaves"},{"name":"NuVue - Colorado Springs","type":"dispensary","phone":"(719) 418-3859","city":"Colorado Springs","state":"Colorado","zipcode":"80909","slug":"nuvue-colorado-springs"},{"name":"Caregivers For Life Recreational Center","type":"dispensary","phone":"720-536-5462","city":"Denver","state":"Colorado","zipcode":"80206","slug":"caregivers-for-life-2"},{"name":"Golden Meds - Peoria St.","type":"dispensary","phone":"(720) 502-6393","city":"Denver","state":"Colorado","zipcode":"80239","slug":"golden-meds-adult-use"},{"name":"The Green Solution Union Station","type":"dispensary","phone":"(720) 612-7835","city":"Denver","state":"Colorado","zipcode":"80202","slug":"the-green-solution-union-station"},{"name":"Rocky Road Aurora","type":"dispensary","phone":"(720) 277-0320","city":"Aurora","state":"Colorado","zipcode":"80017","slug":"rocky-road-aurora"},{"name":"Docs Apothecary","type":"dispensary","phone":"303-974-5966","city":"Northglenn","state":"Colorado","zipcode":"80223","slug":"physician-preferred-products-recreational"},{"name":"Livwell Enlightened Health - Fort Collins","type":"dispensary","phone":"970-484-8380","city":"Fort Collins","state":"Colorado","zipcode":"80524","slug":"livwell-fort-collins-2"},{"name":"Palmer Lake Wellness Center","type":"dispensary","phone":"(719) 488-9900","city":"Palmer Lake","state":"Colorado","zipcode":"80133","slug":"palmer-lake-wellness-center"},{"name":"Living Rose Wellness","type":"dispensary","phone":"(719) 473-9797","city":"Colorado Springs","state":"Colorado","zipcode":"80904","slug":"wp-nation"},{"name":"Livwell Enlightened Health - Murray","type":"dispensary","phone":"719-574-8443","city":"Colorado Springs","state":"Colorado","zipcode":"80915","slug":"livwell-on-murray"},{"name":"Jade Kola","type":"dispensary","phone":"7194341138","city":"Colorado Springs","state":"Colorado","zipcode":"80910","slug":"jade-kola-1"},{"name":"The Green Solution Quincy","type":"dispensary","phone":"(303) 990-9723","city":"Aurora","state":"Colorado","zipcode":"80015","slug":"the-green-solution-quincy"},{"name":"Terrapin Care Station - Folsom Street - Adult Use","type":"dispensary","phone":"(303) 954-8402 x4","city":"Boulder","state":"Colorado","zipcode":"80302","slug":"terrapin-care-station"},{"name":"Golden Meds - Bryant St.","type":"dispensary","phone":"(303) 996-9922","city":"Denver","state":"Colorado","zipcode":"80204","slug":"firehouse-organics"},{"name":"The Chronic Factory","type":"dispensary","phone":"(303)284-7015","city":"Denver","state":"Colorado","zipcode":"80223","slug":"new-amsterdam-downtown-denver"},{"name":"Rocky Mountain Cannabis","type":"dispensary","phone":"970-717-2420","city":"Dinosaur","state":"Colorado","zipcode":"81610","slug":"rocky-mountain-cannabis-2-6"},{"name":"Silver Stem Fine Cannabis Northfield","type":"dispensary","phone":"(720) 458-5820","city":"Commerce City","state":"Colorado","zipcode":"80022","slug":"silver-stem-fine-cannabis-northfield"},{"name":"IgadI - Louisville","type":"dispensary","phone":"720-242-7281","city":"Louisville","state":"Colorado","zipcode":"80027","slug":"igadi"},{"name":"Trinidads HIgher Calling U - Medical","type":"dispensary","phone":"719-846-0420","city":"Trinidad","state":"Colorado","zipcode":"81082","slug":"trinidad-s-higher-calling-u-medical"},{"name":"GOODPEOPLE","type":"dispensary","phone":"(970) 718-8102","city":"Basalt","state":"Colorado","zipcode":"81621","slug":"goodpeople"},{"name":"Green Man Cannabis - Santa Fe","type":"dispensary","phone":"720-842-4842","city":"Denver","state":"Colorado","zipcode":"80204","slug":"green-man-cannabis-recreational"},{"name":"Fox Cannabis Recreational","type":"dispensary","phone":"720-881-7460","city":"Denver","state":"Colorado","zipcode":"80216","slug":"fox-cannabis-co-adult-use"},{"name":"Alternative Medical Remedies","type":"dispensary","phone":"(719) 372-6011","city":"Penrose","state":"Colorado","zipcode":"81240","slug":"alternative-medical-remedies"},{"name":"ProMDs","type":"doctor","phone":"719-544-0009","city":"Pueblo","state":"Colorado","zipcode":"81005","slug":"promds"},{"name":"Pure Marijuana Dispensary - Edgewater","type":"dispensary","phone":"303-233-1322","city":"Edgewater","state":"Colorado","zipcode":"80214","slug":"prima-cannabis-co"},{"name":"Star Buds Rocky Ford Recreational Dispensary at Elm Ave","type":"dispensary","phone":"719-254-2467","city":"Rocky Ford","state":"Colorado","zipcode":"81067","slug":"mesa-organics-rocky-ford"},{"name":"LivWell Enlightened Health - Peoria","type":"dispensary","phone":"303-399-5766","city":"Aurora","state":"Colorado","zipcode":"80011","slug":"livwell-peoria"},{"name":"High Level Health - Lincoln MED","type":"dispensary","phone":"(303) 355-9333","city":"Denver","state":"Colorado","zipcode":"80206","slug":"high-level-health"},{"name":"The Joint Denver","type":"dispensary","phone":"(303) 455-0079","city":"Denver","state":"Colorado","zipcode":"80212","slug":"cannabis-recreational"},{"name":"LivWell Enlightened Health - RiNo","type":"dispensary","phone":"(303) 484-1662","city":"Denver","state":"Colorado","zipcode":"80205","slug":"livwell-rino"},{"name":"DENCO - Park Ave.","type":"dispensary","phone":"303-433-2266","city":"Denver","state":"Colorado","zipcode":"80216","slug":"denco-adult-use"},{"name":"Silver Stem Fine Cannabis - Lakewood Medical","type":"dispensary","phone":"(303) 734-0420","city":"Denver","state":"Colorado","zipcode":"80236","slug":"silver-stem-fine-cannabis-s-denver-medical-2"},{"name":"Flower Power Botanicals","type":"dispensary","phone":"970-672-8165","city":"Fort Collins","state":"Colorado","zipcode":"80524","slug":"flower-power-botanicals-4"},{"name":"Rocky Farms","type":"dispensary","phone":"(719) 254-3820","city":"Rocky Ford","state":"Colorado","zipcode":"81067","slug":"rocky-farms"},{"name":"Tweedleaf - Central City","type":"dispensary","phone":"303-582-5088","city":"Central City","state":"Colorado","zipcode":"80427","slug":"green-grass"},{"name":"Steel City Meds","type":"dispensary","phone":"(719)647-5408","city":"Pueblo West","state":"Colorado","zipcode":"81007","slug":"pueblo-west-steel-city-meds"},{"name":"DENCO - 46th Ave.","type":"dispensary","phone":"(303) 388-0434","city":"Denver","state":"Colorado","zipcode":"80216","slug":"denco-alternative-medicine-recreational"},{"name":"Original Cannabis Growers","type":"dispensary","phone":"719-475-WEED","city":"Colorado Springs","state":"Colorado","zipcode":"80909","slug":"original-cannabis-growers"},{"name":"Rocky Mountain High - Carbondale","type":"dispensary","phone":"970-963-4669","city":"Carbondale","state":"Colorado","zipcode":"81623","slug":"rocky-mountain-high-carbondale-colomed-center"},{"name":"Euflora 16th Street Mall","type":"dispensary","phone":"303-534-6255","city":"Denver","state":"Colorado","zipcode":"80202","slug":"euflora-16-st-mall-denver"},{"name":"Mary Jane's House - REC","type":"dispensary","phone":"3033074204","city":"Denver","state":"Colorado","zipcode":"80239","slug":"mary-jane-s-house-denver-north"},{"name":"High Q","type":"dispensary","phone":"(844) 420-DANK","city":"Silt","state":"Colorado","zipcode":"81652","slug":"high-q-rifle-silt"},{"name":"Rocky Mountain Cannabis - Craig","type":"dispensary","phone":"970 620-4444","city":"Craig","state":"Colorado","zipcode":"81625","slug":"rocky-mountain-cannabis-craig"},{"name":"D.O. IT Medical Evaluations, LLC.","type":"doctor","phone":"7205518332","city":"Westminster","state":"Colorado","zipcode":"80003","slug":"do-it-medical-evaluations-llc-1"},{"name":"Marisol Therapeutics Wellness Center MED","type":"dispensary","phone":"(719) 547-4000 ","city":"Pueblo West","state":"Colorado","zipcode":"81007","slug":"marisol-therapeutics-wellness-center"},{"name":"Lodo Wellness Center - Med","type":"dispensary","phone":"(303) 534-5020","city":"Denver","state":"Colorado","zipcode":"80202","slug":"lodo-wellness-center-2"},{"name":"Tokin County","type":"dispensary","phone":"720-692-1539","city":"Denver","state":"Colorado","zipcode":"80239","slug":"tokin-county"},{"name":"Three Rivers Dispensary - MED","type":"dispensary","phone":"719-924-8881","city":"Pueblo","state":"Colorado","zipcode":"81006","slug":"three-rivers-organics"},{"name":"Altitude The Dispensary West - Adult Use","type":"dispensary","phone":"720-708-5428","city":"Denver","state":"Colorado","zipcode":"80219","slug":"altitude-the-dispensary-west-adult-use"},{"name":"Livwell Enlightened Health - Nevada Ave.","type":"dispensary","phone":"719-622-6652","city":"Colorado Springs","state":"Colorado","zipcode":"80907","slug":"white-mountain"},{"name":"Naturita Green Room","type":"dispensary","phone":"(970) 865-4400","city":"Naturita","state":"Colorado","zipcode":"81422","slug":"naturita-green-room"},{"name":"Rocky Road - Delivery (Coming Soon)","type":"delivery","phone":"(720) 277-0320","city":"Denver","state":"Colorado","zipcode":"80249","slug":"rocky-road-delivery-2"},{"name":"Kind Therapeutics","type":"dispensary","phone":"719-637-4096","city":"Colorado Springs","state":"Colorado","zipcode":"80909","slug":"kind-therapeutics"},{"name":"Medicine Man Denver - Med 21+","type":"dispensary","phone":"(303) 373-0752","city":"Denver","state":"Colorado","zipcode":"80239","slug":"medicine-man-denver"},{"name":"Breckenridge Organic Therapy","type":"dispensary","phone":"970-453-0420","city":"Breckenridge","state":"Colorado","zipcode":"80424","slug":"breckenridge-organic-therapy"},{"name":"Tumbleweed Eagle","type":"dispensary","phone":"999-999-9999","city":"Eagle","state":"Colorado","zipcode":"81631","slug":"tumbleweed-eagle"},{"name":"Holos Health","type":"doctor","phone":"720-273-3568","city":"Boulder","state":"Colorado","zipcode":"80303","slug":"holos-health-2"},{"name":"Mile High Wellness- Green Street","type":"dispensary","phone":"303-386-4280","city":"Denver","state":"Colorado","zipcode":"80223","slug":"mile-high-wellness-green-street"},{"name":"Good Meds Englewood MED","type":"dispensary","phone":"(303) 761-9170","city":"Englewood","state":"Colorado","zipcode":"80110","slug":"good-meds-englewood"},{"name":"Rocky Mountain Organics","type":"dispensary","phone":"303-582-5032","city":"Black Hawk","state":"Colorado","zipcode":"80422","slug":"rocky-mountain-organics-2-2"},{"name":"Rocky Mountain Cannabis - Alameda","type":"dispensary","phone":"303-736-6999","city":"Denver","state":"Colorado","zipcode":"80223","slug":"alameda-wellness"},{"name":"Mana Supply Co - Denver","type":"dispensary","phone":"(720) 749-4642","city":"Denver","state":"Colorado","zipcode":"80204","slug":"mana-supply-co-denver"},{"name":"Starbuds - Brighton Blvd.","type":"dispensary","phone":"720-387-8952","city":"Denver","state":"Colorado","zipcode":"80216","slug":"starbuds-adult-use"},{"name":"Harvest","type":"dispensary","phone":"7195440363","city":"Pueblo","state":"Colorado","zipcode":"81008","slug":"harvest-2"},{"name":"MHSDGO, LLC","type":"dispensary","phone":"970-247-4372","city":"Durango","state":"Colorado","zipcode":"81301","slug":"mhsdgo-llc"},{"name":"MMJ America Pearl St. Mall - Recreational","type":"dispensary","phone":"303-862-4064","city":"Boulder","state":"Colorado","zipcode":"80302","slug":"mmj-america-boulder-recreational"},{"name":"Doctors Orders","type":"dispensary","phone":"719-634-8808","city":"Colorado Springs","state":"Colorado","zipcode":"80909","slug":"doctors-orders"},{"name":"The Green Solution - Havana","type":"dispensary","phone":"(303) 990-9723","city":"Aurora","state":"Colorado","zipcode":"80010","slug":"the-green-solution-havana"},{"name":"Lightshade - Sheridan","type":"dispensary","phone":"720-630-2810","city":"Denver","state":"Colorado","zipcode":"80232","slug":"lightshade-sheridan-recreational"},{"name":"Wild Wild Weed","type":"dispensary","phone":"(719) 404-3500","city":"Ordway","state":"Colorado","zipcode":"81063","slug":"wicked-weed"},{"name":"Laughing Grass","type":"dispensary","phone":"(720) 379-8567","city":"Denver","state":"Colorado","zipcode":"80223","slug":"laughing-grass-3"},{"name":"Canna Meds Wellness Center","type":"dispensary","phone":"(719) 638-6337","city":"Colorado Springs","state":"Colorado","zipcode":"80909","slug":"canna-meds-wellness-center"},{"name":"3D Cannabis Center Salida","type":"dispensary","phone":"719-539-5496","city":"Salida","state":"Colorado","zipcode":"81201","slug":"3d-cannabis-center-salida"},{"name":"Tumbleweed - Edwards","type":"dispensary","phone":"(970) 569-2366","city":"Edwards","state":"Colorado","zipcode":"81632","slug":"the-tumbleweed-dispensary-edwards"},{"name":"Vibrant Health Clinic","type":"doctor","phone":"719-216-8367","city":"Colorado Springs","state":"Colorado","zipcode":"80905","slug":"vibrant-health-clinic"},{"name":"Pure Marijuana Dispensary - Bannock St.","type":"dispensary","phone":"303-534-7873","city":"Denver","state":"Colorado","zipcode":"80204","slug":"pure-medical-dispensary"},{"name":"Livwell Enlightened Health - Evans","type":"dispensary","phone":"(720) 361-2981","city":"Denver","state":"Colorado","zipcode":"80223","slug":"livwell-evans-adult-use"},{"name":"NuVue - MED","type":"dispensary","phone":"(719) 470-7444","city":"Pueblo","state":"Colorado","zipcode":"81008","slug":"nu-vue"},{"name":"Boulder Wellness Center - Med Only","type":"dispensary","phone":"303-442-2565","city":"Boulder","state":"Colorado","zipcode":"80303","slug":"boulder-wellness-center"},{"name":"Frost Harvest Co","type":"dispensary","phone":"(719) 598-3860","city":"Colorado Springs","state":"Colorado","zipcode":"80907","slug":"frost-harvest-co-1"},{"name":"Ace's Place - Recreational","type":"dispensary","phone":"970-472-5107","city":"Fort Collins","state":"Colorado","zipcode":"80524","slug":"ace-s-place-recreational"},{"name":"Choice Organics MED","type":"dispensary","phone":"970-472-6337","city":"Fort Collins","state":"Colorado","zipcode":"80524","slug":"choice-organics-2"},{"name":"Colorado Weedery","type":"dispensary","phone":"(970) 464-2777","city":"Palisade","state":"Colorado","zipcode":"81526","slug":"colorado-weedery"},{"name":"The Herbal Center - Broadway","type":"dispensary","phone":"720-549-4372","city":"Denver","state":"Colorado","zipcode":"80210","slug":"thc-the-herbal-center-broadway"},{"name":"Best Budz Austin Bluffs","type":"dispensary","phone":"719-598-0168","city":"Colorado Springs","state":"Colorado","zipcode":"80918","slug":"best-budz"},{"name":"Buddy Boy 38th – Highlands MED","type":"dispensary","phone":"(720) 328-9971","city":"Denver","state":"Colorado","zipcode":"80212","slug":"buddy-boy"},{"name":"Trill Alternatives - MEDICAL","type":"dispensary","phone":"720-287-0645","city":"Boulder","state":"Colorado","zipcode":"80302","slug":"trillalternatives"},{"name":"Wild Wild Weed Las Animas","type":"dispensary","phone":"(719) 404-3500","city":"Las Animas","state":"Colorado","zipcode":"81054","slug":"wild-wild-weed-las-animas"},{"name":"Nature's Herbs & Wellness - Log Lane Village MED","type":"dispensary","phone":"970-867-0239","city":"Log Lane Village","state":"Colorado","zipcode":"80705","slug":"natures-herbs-and-wellness-ii-medical"},{"name":"Freedom Road","type":"dispensary","phone":"719-967-7001","city":"Trinidad","state":"Colorado","zipcode":"81082","slug":"freedom-road"},{"name":"Nature's Medicine - Northglenn MED","type":"dispensary","phone":"(720) 389-5062","city":"Northglenn","state":"Colorado","zipcode":"80234","slug":"green-tree-medicinals-of-northglenn-med"},{"name":"Rocky Mountain Cannabis - Trinidad","type":"dispensary","phone":"719-422-8141","city":"Trinidad","state":"Colorado","zipcode":"81082","slug":"rocky-mountain-cannabis-trinidad"},{"name":"Livwell Enlightened Health - Broadway","type":"dispensary","phone":"720-428-2550","city":"Denver","state":"Colorado","zipcode":"80209","slug":"livwell-broadway-adult-use"},{"name":"Dino Dispensary","type":"dispensary","phone":"(970) 216-2785","city":"Dinosaur","state":"Colorado","zipcode":"81610","slug":"dino-dispensary"},{"name":"House Of Dankness","type":"dispensary","phone":"(303) 373-7373","city":"Denver","state":"Colorado","zipcode":"80239","slug":"house-of-dankness-3"},{"name":"Chronic Therapy Recreational","type":"dispensary","phone":"(303) 233-3087","city":"Wheat Ridge","state":"Colorado","zipcode":"80215","slug":"chronic-therapy-recreational"},{"name":"Best Day Ever","type":"dispensary","phone":"970-429-8637","city":"Aspen","state":"Colorado","zipcode":"81611","slug":"best-day-ever"},{"name":"Doctors Garden MED","type":"dispensary","phone":"(970) 384-2034","city":"Glenwood Springs","state":"Colorado","zipcode":"81601","slug":"green-natural-solutions"},{"name":"Billo Premium Cannabis","type":"dispensary","phone":"(970) 879-4420","city":"Steamboat Springs","state":"Colorado","zipcode":"80487","slug":"billo"},{"name":"The Green Solution - Northglenn","type":"dispensary","phone":"(303) 990-9723","city":"Northglenn","state":"Colorado","zipcode":"80233","slug":"the-green-solution-northglenn"},{"name":"WTJ MMJ Supply","type":"dispensary","phone":"719-646-8208","city":"Colorado Springs","state":"Colorado","zipcode":"80909","slug":"wtj-mmj-supply"},{"name":"Golden Meds - Pikes Peak","type":"dispensary","phone":"(719) 630-5075","city":"Colorado Springs","state":"Colorado","zipcode":"80909","slug":"golden-meds-3"},{"name":"The Green Source Pueblo West","type":"dispensary","phone":"719-547-9022","city":"Pueblo West","state":"Colorado","zipcode":"81007","slug":"todays-health-care-pueblo-west"},{"name":"Euflora Longmont","type":"dispensary","phone":"(720) 204-6554","city":"Longmont","state":"Colorado","zipcode":"80501","slug":"euflora-longmont"},{"name":"High Tops - Powers","type":"dispensary","phone":"(719) 597-9333","city":"Colorado Springs","state":"Colorado","zipcode":"80915","slug":"high-tops-powers"},{"name":"Organic Alternatives","type":"dispensary","phone":"970-482-7100","city":"Fort Collins","state":"Colorado","zipcode":"80524","slug":"organic-alternatives-2-2"},{"name":"Native Roots - Academy","type":"dispensary","phone":"719-550-0327","city":"Colorado Springs","state":"Colorado","zipcode":"80909","slug":"native-roots-academy"},{"name":"Oasis Cannabis Superstore Denver - Adult Use","type":"dispensary","phone":"303-756-1494","city":"Denver","state":"Colorado","zipcode":"80222","slug":"medicinal-oasis-adult-use"},{"name":"Den-Rec South","type":"dispensary","phone":"(720) 390-5070","city":"Denver","state":"Colorado","zipcode":"80223","slug":"den-rec-south"},{"name":"LivWell Enlightened Health - Buckley","type":"dispensary","phone":"303-366-1077","city":"Aurora","state":"Colorado","zipcode":"80011","slug":"livwell-buckley"},{"name":"Maggies Farm Canon - MED","type":"dispensary","phone":"719-372-1014","city":"Canon City","state":"Colorado","zipcode":"81212","slug":"maggie-s-farm-2"},{"name":"DENCO - Pueblo West","type":"dispensary","phone":"719-431-8445","city":"Pueblo West","state":"Colorado","zipcode":"81007","slug":"denco-llc"},{"name":"Xclusive Cannabis - Federal Heights","type":"dispensary","phone":"(720) 738-4201","city":"Federal Heights","state":"Colorado","zipcode":"80260","slug":"xclusive-cannabis-federal-heights"},{"name":"Altitude The Dispensary East","type":"dispensary","phone":"303-756-8888","city":"Denver","state":"Colorado","zipcode":"80224","slug":"altitude-the-dispensary-adult-use"},{"name":"Bobby Brown Best Buds","type":"dispensary","phone":"(719) 645-8058","city":"Colorado Springs","state":"Colorado","zipcode":"80903","slug":"bobby-brown-best-buds"},{"name":"The Apotheke","type":"dispensary","phone":"(719) 392-1616","city":"Colorado Springs","state":"Colorado","zipcode":"80916","slug":"the-apotheke"},{"name":"Bud EZ","type":"dispensary","phone":"(719) 465-3699","city":"Colorado Springs","state":"Colorado","zipcode":"80903","slug":"bud-ez"},{"name":"CannaCo","type":"dispensary","phone":"719-846-8759","city":"Trinidad","state":"Colorado","zipcode":"81082","slug":"cannaco-2"},{"name":"The Healing Canna West","type":"dispensary","phone":"719-599-4180","city":"Colorado Springs","state":"Colorado","zipcode":"80905","slug":"the-healing-canna-west"},{"name":"Pure Medical","type":"dispensary","phone":"(719) 634-7390","city":"Colorado Springs","state":"Colorado","zipcode":"80920","slug":"pure-medical-downtown"},{"name":"Sweet Leaf Pioneer","type":"dispensary","phone":"970-328-9060","city":"Eagle","state":"Colorado","zipcode":"81631","slug":"sweetleaf-pioneer-eagle-vail"},{"name":"Canna Cabinet MED","type":"dispensary","phone":"(719) 564-2925","city":"Pueblo","state":"Colorado","zipcode":"81004","slug":"canna-cabinet-rec"},{"name":"The Kind Room","type":"dispensary","phone":"720-266-3136","city":"Denver","state":"Colorado","zipcode":"80210","slug":"the-kind-room"},{"name":"Golden Leaf","type":"dispensary","phone":"970-870-2941","city":"Steamboat Springs","state":"Colorado","zipcode":"80487","slug":"golden-leaf"},{"name":"Relaxed Clarity - Colorado Springs","type":"doctor","phone":"719-645-5955","city":"Colorado Springs","state":"Colorado","zipcode":"80907","slug":"relaxed-clarity-colorado-springs"},{"name":"Greenfields","type":"dispensary","phone":"(303) 455-1795","city":"Denver","state":"Colorado","zipcode":"80223","slug":"greenfields-3"},{"name":"Hashish Hut","type":"dispensary","phone":"(970) 641 0420","city":"Gunnison","state":"Colorado","zipcode":"81230","slug":"hashish-hut"},{"name":"1136 Yuma","type":"dispensary","phone":"(720) 900-1136 ","city":"Denver","state":"Colorado","zipcode":"80204","slug":"1136-yuma"},{"name":"Doobie Sisters - A Recreational Dispensary","type":"dispensary","phone":"(970) 565-2345","city":"Cortez","state":"Colorado","zipcode":"81321","slug":"doobie-sisters-2"},{"name":"The Green Solution Pueblo","type":"dispensary","phone":"(303) 990-9723","city":"Pueblo","state":"Colorado","zipcode":"81004","slug":"the-green-solution-pueblo"},{"name":"Best Colorado Cannabis","type":"dispensary","phone":"720-205-5314","city":"Wheat Ridge","state":"Colorado","zipcode":"80033","slug":"best-colorado-meds-adult-use"},{"name":"TweedLeaf Colorado","type":"dispensary","phone":"719-465-2522","city":"Colorado Springs","state":"Colorado","zipcode":"80904","slug":"tweedleaf"},{"name":"The Green Source II","type":"dispensary","phone":"(719) 635-9002","city":"Colorado Springs","state":"Colorado","zipcode":"80905","slug":"todays-health-care-ii"},{"name":"Marimeds","type":"dispensary","phone":"719-634-8285","city":"Colorado Springs","state":"Colorado","zipcode":"80909","slug":"marimeds-2-2"},{"name":"Colorado Cannabis Exchange","type":"dispensary","phone":"719-251-0342","city":"Pueblo","state":"Colorado","zipcode":"81004","slug":"colorado-cannabis-exchange"},{"name":"Cannabotica MED","type":"dispensary","phone":"(303) 777-1550","city":"Denver","state":"Colorado","zipcode":"80223","slug":"personalized-organic-treatments"},{"name":"bgood Northglenn - Recreational","type":"dispensary","phone":"(303) 254-4200","city":"Northglenn","state":"Colorado","zipcode":"80234","slug":"botanacare"},{"name":"Starbuds NW Denver","type":"dispensary","phone":"303-429-9196","city":"Denver","state":"Colorado","zipcode":"80221","slug":"starbuds-3-6-nw-denver"},{"name":"Golden Alternative Medicine - Medical Only","type":"dispensary","phone":"720-361-2144","city":"Golden","state":"Colorado","zipcode":"80401","slug":"golden-alternative-medicine"},{"name":"High Country Healing","type":"dispensary","phone":"970-468-7858","city":"Silverthorne","state":"Colorado","zipcode":"80498","slug":"high-country-healing"},{"name":"Euflora Aspen","type":"dispensary","phone":"(970) 925-6468","city":"Aspen","state":"Colorado","zipcode":"81611","slug":"euflora-aspen"},{"name":"The Stone","type":"dispensary","phone":"(303) 936-0111","city":"Denver","state":"Colorado","zipcode":"80219","slug":"the-stone"},{"name":"Levels","type":"dispensary","phone":"(303) 954-9488","city":"Lakewood","state":"Colorado","zipcode":"80226","slug":"levels-medical-dispensary"},{"name":"Colorado Comfort Medical, LLC","type":"doctor","phone":"(720) 292-9368","city":"Denver","state":"Colorado","zipcode":"80227","slug":"colorado-comfort-medical-llc"},{"name":"High Level Health Dumont","type":"dispensary","phone":"(720) 242-8692","city":"Downieville","state":"Colorado","zipcode":"80436","slug":"high-country-healing-iii-2"},{"name":"The Green Joint Aspen","type":"dispensary","phone":"(970) 710-2657","city":"Aspen","state":"Colorado","zipcode":"81611","slug":"the-green-joint-aspen"},{"name":"Denver Recreational Dispensary","type":"dispensary","phone":"303-296-2093","city":"Denver","state":"Colorado","zipcode":"80205","slug":"denver-recreational-dispensary-summit-wellness-2"},{"name":"Strawberry Fields - DTC","type":"dispensary","phone":"(303) 751-7888","city":"Denver","state":"Colorado","zipcode":"80231","slug":"strawberry-fields-denver"},{"name":"Native Roots Dispensary Trinidad","type":"dispensary","phone":"(719) 422-8130","city":"Trinidad","state":"Colorado","zipcode":"81082","slug":"native-roots-2-2"},{"name":"Callie's Cannabis Shoppe - RiNo","type":"dispensary","phone":"303-297-2273","city":"Denver","state":"Colorado","zipcode":"80205","slug":"botanico"},{"name":"Herbal Wellness","type":"dispensary","phone":"(303) 665-5599","city":"Lafayette","state":"Colorado","zipcode":"80026","slug":"herbal-wellness-2-2"},{"name":"Higher Grade - Downtown Recreational","type":"dispensary","phone":"(303) 993-4547","city":"Denver","state":"Colorado","zipcode":"80204","slug":"higher-grade-1"},{"name":"Mammoth Farms Federal","type":"dispensary","phone":"303-993-5653","city":"Denver","state":"Colorado","zipcode":"80219","slug":"mammoth-farms-federal"},{"name":"Mile High Dispensary","type":"dispensary","phone":"303-934-6337","city":"Lakewood","state":"Colorado","zipcode":"80232","slug":"mile-high-dispensary-recreational"},{"name":"Bonfire Cannabis Company","type":"dispensary","phone":"(720) 428-8097","city":"Denver","state":"Colorado","zipcode":"80216","slug":"bonfire-cannabis-company"},{"name":"Lightshade Peoria","type":"dispensary","phone":"720-974-7220","city":"Denver","state":"Colorado","zipcode":"80239","slug":"lightshade-labs"},{"name":"Lightshade - Iliff","type":"dispensary","phone":"720-575-6702","city":"Aurora","state":"Colorado","zipcode":"80013","slug":"lightshade-iliff"},{"name":"Serene Wellness LLC","type":"dispensary","phone":"(303) 569-5021","city":"Empire","state":"Colorado","zipcode":"80438","slug":"serene-wellness-llc"},{"name":"Native Roots Dispensary Tower - Med","type":"dispensary","phone":"(720) 428-8990","city":"Denver","state":"Colorado","zipcode":"80249","slug":"native-roots-denver-tower-rd"},{"name":"Green Tree Medicinals Longmont MED","type":"dispensary","phone":"(303) 772-3034","city":"Longmont","state":"Colorado","zipcode":"80504","slug":"green-tree-medicinals-of-longmont"},{"name":"Rocky Mountain Cannabis Fraser","type":"dispensary","phone":"(970)-363-7121","city":"Fraser","state":"Colorado","zipcode":"80442","slug":"rocky-mountain-cannabis-fraser"},{"name":"Mountain Medicinals Retail Center - Recreational","type":"dispensary","phone":"303-567-0420","city":"Idaho Springs","state":"Colorado","zipcode":"80452","slug":"mountain-medicinals-wellness-center-recreational"},{"name":"Native Roots Dispensary Longmont - Med","type":"dispensary","phone":"720-340-4870","city":"Longmont","state":"Colorado","zipcode":"80501","slug":"native-roots-longmont-medical"},{"name":"Ajoya Louisville - Medical","type":"dispensary","phone":"303-665-5596","city":"Louisville","state":"Colorado","zipcode":"80027","slug":"compassionate-pain-management-ajoya"},{"name":"Cure Colorado","type":"dispensary","phone":"720-296-2857","city":"Denver","state":"Colorado","zipcode":"80222","slug":"cure-colorado-3"},{"name":"La Casa Cannabis","type":"dispensary","phone":"719-672-4220","city":"San Luis","state":"Colorado","zipcode":"81152","slug":"la-casa-cannabis-2"},{"name":"Apothecary Farms Pueblo MED","type":"dispensary","phone":"(719) 544-5323","city":"Pueblo","state":"Colorado","zipcode":"81006","slug":"apothecary-farms-pueblo"},{"name":"LivWell Enlightened Health - Park Hill","type":"dispensary","phone":"(303) 573-6337","city":"Denver","state":"Colorado","zipcode":"80220","slug":"livwell-park-hill"},{"name":"Doctors of Natural Medicine","type":"doctor","phone":"719-212-8899","city":"Pueblo","state":"Colorado","zipcode":"81003","slug":"doctors-of-natural-medicine-3"},{"name":"The Epic Remedy Fountain","type":"dispensary","phone":"(719) 434-6565","city":"Colorado Springs","state":"Colorado","zipcode":"80909","slug":"the-epic-remedy-2"},{"name":"Treehouse","type":"dispensary","phone":"719-354-4983","city":"Colorado Springs","state":"Colorado","zipcode":"80907","slug":"the-treehouse-2"},{"name":"Zengolds Fort Collins - Medical Only","type":"dispensary","phone":"(970)568-8463","city":"Fort Collins","state":"Colorado","zipcode":"80525","slug":"zengold"},{"name":"Higher Grade - Highlands Medical","type":"dispensary","phone":"303-955-0186","city":"Denver","state":"Colorado","zipcode":"80211","slug":"higher-grade"},{"name":"Rocky Mountain Blaze Recreational","type":"dispensary","phone":"(719)-647-0058","city":"Pueblo West","state":"Colorado","zipcode":"81007","slug":"rocky-mountain-blaze"},{"name":"ACME Healing Center - Crested Butte","type":"dispensary","phone":"970-349-5550","city":"Crested Butte","state":"Colorado","zipcode":"81224","slug":"acme-dispensary"},{"name":"Wellness Center of the Rockies","type":"dispensary","phone":"720-941-8872","city":"Denver","state":"Colorado","zipcode":"80224","slug":"wellness-center-of-the-rockies"},{"name":"Sticky Fingerz","type":"dispensary","phone":"(303) 955-5531","city":"Denver","state":"Colorado","zipcode":"80205","slug":"sticky-fingerz"},{"name":"High Q Parachute","type":"dispensary","phone":"(970) 981-0040","city":"Parachute","state":"Colorado","zipcode":"81635","slug":"high-q-parachute"},{"name":"Lotus Medical","type":"dispensary","phone":"720-974-3109","city":"Denver","state":"Colorado","zipcode":"80202","slug":"denver-lotus-medical"},{"name":"Marisol Therapeutics Wellness Center","type":"dispensary","phone":"(719) 547-4000","city":"Pueblo","state":"Colorado","zipcode":"81007","slug":"marisol-therapeutics-llc"},{"name":"Lightshade - Federal Heights","type":"dispensary","phone":"(720) 699-2692","city":"Federal Heights","state":"Colorado","zipcode":"80260","slug":"lightshade-federal-heights-medical"},{"name":"High Country Healing - Colorado Springs","type":"dispensary","phone":"719-531-7079","city":"Colorado Springs","state":"Colorado","zipcode":"80907","slug":"high-country-healing-colorado-springs"},{"name":"Durango Organics and Wellness Center","type":"dispensary","phone":"970-259-3674","city":"Durango","state":"Colorado","zipcode":"81301","slug":"durango-organics-and-wellness-center"},{"name":"Euflora 3D","type":"dispensary","phone":"(303) 297-1657","city":"Denver","state":"Colorado","zipcode":"80216","slug":"euflora-3d"},{"name":"Three Rivers Dispensary Pueblo West","type":"dispensary","phone":"719-766-9102","city":"Pueblo West","state":"Colorado","zipcode":"81007","slug":"three-rivers-dispensary-pueblo-west"},{"name":"Wolfpac Cannabis - Pueblo West","type":"dispensary","phone":"(719) 717-0276","city":"Pueblo West","state":"Colorado","zipcode":"81007","slug":"doctors-orders-pueblo-west"},{"name":"Backcountry Cannabis Co.","type":"dispensary","phone":"(970) 349-7350","city":"Crested Butte","state":"Colorado","zipcode":"81224","slug":"backcountry-cannabis-co-2"},{"name":"The Herbal Cure - Medical","type":"dispensary","phone":"303-777-9333","city":"Denver","state":"Colorado","zipcode":"80209","slug":"theherbalcure"},{"name":"Doctors Orders Stem Beach","type":"dispensary","phone":"(719) 733-3434","city":"Pueblo","state":"Colorado","zipcode":"81004","slug":"stem-beach"},{"name":"Levels","type":"dispensary","phone":"(303) 993-6424","city":"Denver","state":"Colorado","zipcode":"80212","slug":"mmj-america-sheridan-2"},{"name":"Golden Nugget","type":"dispensary","phone":"(303) 582-2043","city":"Central City","state":"Colorado","zipcode":"80427","slug":"golden-nugget-2"},{"name":"Xclusive Cannabis - Aurora","type":"dispensary","phone":"(720) 738-4200","city":"Aurora","state":"Colorado","zipcode":"80011","slug":"exclusive-cannabis"},{"name":"Lucy Sky Wash Park","type":"dispensary","phone":"303-733-5500","city":"Denver","state":"Colorado","zipcode":"80210","slug":"lucy-sky"},{"name":"LIT Federal","type":"dispensary","phone":"(303) 455-9333","city":"Denver","state":"Colorado","zipcode":"80204","slug":"lit-2"},{"name":"Green Dragon - Cherry Creek","type":"dispensary","phone":"+14147196237","city":"Denver","state":"Colorado","zipcode":"80206","slug":"green-dragon-5"},{"name":"Grow Life","type":"dispensary","phone":"719-635-1700","city":"Colorado Springs","state":"Colorado","zipcode":"80907","slug":"growlife"},{"name":"The Chronic Boutique - Pikes Peak","type":"dispensary","phone":"719-375-8025","city":"Colorado Springs","state":"Colorado","zipcode":"80903","slug":"the-chronic-boutique-pikes-peak"},{"name":"LOVA Edgewater","type":"dispensary","phone":"303-274-6495","city":"Edgewater","state":"Colorado","zipcode":"80214","slug":"northern-lights-natural-rx"},{"name":"The Green Source","type":"dispensary","phone":"719-633-1300","city":"Colorado Springs","state":"Colorado","zipcode":"80907","slug":"todays-health-care"},{"name":"Three Rivers Dispensary - REC","type":"dispensary","phone":"719-696-8678","city":"Pueblo","state":"Colorado","zipcode":"81006","slug":"three-rivers-organics-rec"},{"name":"Buddy Boy Kalamath","type":"dispensary","phone":"(303) 777-5252","city":"Denver","state":"Colorado","zipcode":"80223","slug":"buddy-boy-2-3"},{"name":"The Dab Downtown by Silverpeak","type":"dispensary","phone":"(303) 996-6884","city":"Denver","state":"Colorado","zipcode":"80205","slug":"ballpark-holistic-dispensary"},{"name":"Kush Gardens","type":"dispensary","phone":"(970) 283-8927","city":"De Beque","state":"Colorado","zipcode":"81630","slug":"kush-gardens-3"},{"name":"Peak MJ","type":"dispensary","phone":"(720) 390-7804","city":"Denver","state":"Colorado","zipcode":"80203","slug":"peak-mj"},{"name":"Verde Natural Boulder - Recreational","type":"dispensary","phone":"303-993-3066","city":"Boulder","state":"Colorado","zipcode":"80302","slug":"verde-natural-boulder"},{"name":"Doctors Orders Denver","type":"dispensary","phone":"(303) 433-0276","city":"Denver","state":"Colorado","zipcode":"80211","slug":"doctors-orders-3"},{"name":"Zipz","type":"dispensary","phone":"719-375-5113","city":"Colorado Springs","state":"Colorado","zipcode":"80907","slug":"zipz-1"},{"name":"Native Roots Dispensary Tejon","type":"dispensary","phone":"(719) 434-7739 ","city":"Colorado Springs","state":"Colorado","zipcode":"80905","slug":"native-roots-tejon"},{"name":"Magnolia Road Cannabis Co","type":"dispensary","phone":"(719) 422-8165","city":"Trinidad","state":"Colorado","zipcode":"81082","slug":"magnolia-road-cannabis-co-2"},{"name":"Green Dragon - Telluride","type":"dispensary","phone":"(970)422-1422","city":"Telluride","state":"Colorado","zipcode":"81435","slug":"green-dragon-telluride"},{"name":"Ascend Cannabis Co.","type":"dispensary","phone":"720-482-3191","city":"Denver","state":"Colorado","zipcode":"80237","slug":"ascend-cannabis-co"},{"name":"Sticky Icky's","type":"dispensary","phone":"(719) 470-2839","city":"Pueblo","state":"Colorado","zipcode":"81005","slug":"sticky-icky-s-2"},{"name":"Purple Dragon Marijuana Center","type":"dispensary","phone":"(303) 501-2010","city":"Denver","state":"Colorado","zipcode":"80211","slug":"purple-dragon-2"},{"name":"Serene Wellness Winter Park","type":"dispensary","phone":"(970) 726-1000","city":"Winter Park","state":"Colorado","zipcode":"80482","slug":"serene-wellness-winter-park"},{"name":"Bonfire Cannabis - Central City","type":"dispensary","phone":"(303) 582-3072","city":"Central City","state":"Colorado","zipcode":"80427","slug":"bonfire-cannabis"},{"name":"Native Roots Dispensary Highlands - Med","type":"dispensary","phone":"720-287-1478","city":"Denver","state":"Colorado","zipcode":"80211","slug":"native-roots-denver-highlands-med"},{"name":"Colorado Harvest Company - Kalamath","type":"dispensary","phone":"(303) 777-1840","city":"Denver","state":"Colorado","zipcode":"80223","slug":"colorado-harvest-company-adult-use"},{"name":"Callie's Cannabis Shoppe - Northglenn","type":"dispensary","phone":"(303) 379-9526","city":"Northglenn","state":"Colorado","zipcode":"80234","slug":"natural-selections-recreational"},{"name":"Tumbleweed - Parachute","type":"dispensary","phone":"970-285-2166","city":"Parachute","state":"Colorado","zipcode":"81635","slug":"the-tumbleweed-dispensary"},{"name":"Diego Pellicer - Alameda","type":"dispensary","phone":"(720) 787-4909","city":"Denver","state":"Colorado","zipcode":"80219","slug":"diego-pellicer-alameda"},{"name":"Livwell Enlightened Health - Garden City","type":"dispensary","phone":"970-616-6007","city":"Garden City","state":"Colorado","zipcode":"80631","slug":"livwell-adult-use"},{"name":"Medusa Co Dispensary","type":"dispensary","phone":"(719) 738-9939","city":"Walsenburg","state":"Colorado","zipcode":"81089","slug":"medusa-co-dispensary"},{"name":"Lakeshore Cannabis","type":"dispensary","phone":"720-920-9617","city":"Edgewater","state":"Colorado","zipcode":"80214","slug":"lakeshore-cannabis"},{"name":"High Plainz Strains - Log Lane Village","type":"dispensary","phone":"(970) 867-1282","city":"Log Lane Village","state":"Colorado","zipcode":"80705","slug":"high-plainz-strains-dispensary"},{"name":"Kaya Cannabis on Jewell","type":"dispensary","phone":"(303) 474-4010","city":"Lakewood","state":"Colorado","zipcode":"80219","slug":"kaya-cannabis-on-jewell"},{"name":"Native Roots Dispensary Longmont","type":"dispensary","phone":"720-340-4870","city":"Longmont","state":"Colorado","zipcode":"80501","slug":"native-roots-longmont-recreational"},{"name":"Silver Stem Fine Cannabis - Fraser Winter Park Rec","type":"dispensary","phone":"(970) 726-2055","city":"Fraser","state":"Colorado","zipcode":"80442","slug":"silver-stem-fine-cannabis-fraser-winter-park-area-rec-21"},{"name":"Wolf Pac Cannabis - Medical Only","type":"dispensary","phone":"(720) 255-2834","city":"Denver","state":"Colorado","zipcode":"80222","slug":"wolf-pac-cannabis"},{"name":"Arrive Care Clinic","type":"doctor","phone":"720-476-5108","city":"Denver","state":"Colorado","zipcode":"80209","slug":"arrive-care-clinic"},{"name":"Golden Meds - Santa Fe","type":"dispensary","phone":"(720) 287-4081","city":"Denver","state":"Colorado","zipcode":"80223","slug":"redeye-releaf-2"},{"name":"Healing House","type":"dispensary","phone":"7203793816","city":"Denver","state":"Colorado","zipcode":"80210","slug":"healing-house-2-2"},{"name":"Maikoh Holistics","type":"dispensary","phone":"720-476-6805","city":"Boulder","state":"Colorado","zipcode":"80304","slug":"maikoh-holistics"},{"name":"NaturaLeaf South","type":"dispensary","phone":"719-630-7300","city":"Colorado Springs","state":"Colorado","zipcode":"80903","slug":"naturaleaf"},{"name":"TOTAL GREEN","type":"dispensary","phone":"(719) 358-8865","city":"Colorado Springs","state":"Colorado","zipcode":"80909","slug":"total-green"},{"name":"Solace Meds Colfax","type":"dispensary","phone":"(720) 398-8805","city":"Denver","state":"Colorado","zipcode":"80220","slug":"solace-meds-colfax"},{"name":"The Clinic Colorado - Recreational","type":"dispensary","phone":"7206452848","city":"Denver","state":"Colorado","zipcode":"80222","slug":"the-clinic-colorado-adult-use"},{"name":"Green Dragon - Aurora Delivery","type":"delivery","phone":"(303) 343-1132","city":"Aurora","state":"Colorado","zipcode":"80011","slug":"green-dragon-delivery-1"},{"name":"The Dab West Louisville","type":"dispensary","phone":"(303) 353-9033","city":"Louisville","state":"Colorado","zipcode":"80027","slug":"the-dab-west-louisville-1"},{"name":"Dabbington","type":"dispensary","phone":"(970) 867-1305","city":"Log Lane Village","state":"Colorado","zipcode":"80705","slug":"dabbington-dispensary"},{"name":"The Lodge Cannabis on High St. - REC","type":"dispensary","phone":"(720) 328-4539","city":"Denver","state":"Colorado","zipcode":"80205","slug":"the-lodge-recreational"},{"name":"Starbuds - DU","type":"dispensary","phone":"303-975-6485","city":"Denver","state":"Colorado","zipcode":"80210","slug":"citimed-1"},{"name":"Cares LLC","type":"doctor","phone":"970-217-3224","city":"Fort Collins","state":"Colorado","zipcode":"80521","slug":"cares"},{"name":"Frosted Leaf Harrison","type":"dispensary","phone":"(303) 593-0266","city":"Denver","state":"Colorado","zipcode":"80209","slug":"frosted-leaf-harrison-recreational"},{"name":"Silverpeak Apothecary","type":"dispensary","phone":"970-925-4372","city":"Aspen","state":"Colorado","zipcode":"81611","slug":"silverpeak-apothecary"},{"name":"Cannacity Walsenburg","type":"dispensary","phone":"(719) 738-2008","city":"Walsenburg","state":"Colorado","zipcode":"81089","slug":"cannacity"},{"name":"Relaxed Clarity - Broomfield","type":"doctor","phone":"(970) 412-5955","city":"Broomfield","state":"Colorado","zipcode":"80020","slug":"relaxed-clarity"},{"name":"Medicine Man Thornton - Rec 21+","type":"dispensary","phone":"(720) 627-5895","city":"Thornton","state":"Colorado","zipcode":"80260","slug":"medicine-man-5-4"},{"name":"Green Depot","type":"dispensary","phone":"(303) 728-9962","city":"Denver","state":"Colorado","zipcode":"80210","slug":"green-depot"},{"name":"Doctors of Natural Medicine","type":"doctor","phone":"719-212-8899","city":"Colorado Springs","state":"Colorado","zipcode":"80918","slug":"doctors-of-natural-medicine"},{"name":"Green Man Cannabis - Hampden","type":"dispensary","phone":"(720) 382-5950","city":"Denver","state":"Colorado","zipcode":"80224","slug":"green-man-cannabis-recreational-2"},{"name":"LivWell Enlightened Health - Federal Heights","type":"dispensary","phone":"(720) 612-4343","city":"Federal Heights","state":"Colorado","zipcode":"80260","slug":"livwell-federal-heights"},{"name":"The Clinic on Colfax - Recreational","type":"dispensary","phone":"303-333-3644","city":"Denver","state":"Colorado","zipcode":"80220","slug":"the-clinic-on-colfax-recreational"},{"name":"Doc Morrison","type":"doctor","phone":"720-630-8999","city":"Wheat Ridge","state":"Colorado","zipcode":"80214","slug":"doc-morrison"},{"name":"TweedLeaf Academy","type":"dispensary","phone":"(719) 599-4231","city":"Colorado Springs","state":"Colorado","zipcode":"80918","slug":"tweedleaf-n-academy"},{"name":"Roots Rx","type":"dispensary","phone":"(970) 446-6570","city":"Edwards","state":"Colorado","zipcode":"81632","slug":"roots-rx-2-3"},{"name":"bgood West Wash Park","type":"dispensary","phone":"303-777-5239","city":"Denver","state":"Colorado","zipcode":"80209","slug":"bgood"},{"name":"Natures Gift Shop","type":"dispensary","phone":"(719) 547-8095","city":"Pueblo West","state":"Colorado","zipcode":"81007","slug":"natures-gift-shop"},{"name":"Colorado Harvest Company - Aurora","type":"dispensary","phone":"(720) 535-9489","city":"Aurora","state":"Colorado","zipcode":"80014","slug":"colorado-harvest-company-yale"},{"name":"The Health Center Boulder","type":"dispensary","phone":"(720) 532-8664","city":"Boulder","state":"Colorado","zipcode":"80302","slug":"thc-the-health-center"},{"name":"Verts Neighborhood Dispensary","type":"dispensary","phone":"(970) 286-2318","city":"Fort Collins","state":"Colorado","zipcode":"80501","slug":"verts-medical-marijuana-dispensary"},{"name":"The Cannabis Depot","type":"dispensary","phone":"(719) 283-8017","city":"Pueblo","state":"Colorado","zipcode":"81008","slug":"cannabis-depot-2"},{"name":"Durango Organics Cortez","type":"dispensary","phone":"970-565-6500","city":"Cortez","state":"Colorado","zipcode":"81321","slug":"durango-organics-cortez"},{"name":"Denver Kush Club - Recreational","type":"dispensary","phone":"(303) 736-6550","city":"Denver","state":"Colorado","zipcode":"80205","slug":"denver-kush-club-more-than-a-club-adult-use"},{"name":"Ascend Cannabis Co MED","type":"dispensary","phone":"(719) 395-6226","city":"Buena Vista","state":"Colorado","zipcode":"81211","slug":"ascend-cannabis-co-5"},{"name":"Igadi - Nederland","type":"dispensary","phone":"303-258-7058","city":"Nederland","state":"Colorado","zipcode":"80466","slug":"growhouse-nederland"},{"name":"RiverRock North MED","type":"dispensary","phone":"303.474.4136","city":"Denver","state":"Colorado","zipcode":"80216","slug":"riverrock-2"},{"name":"San Juan Strains","type":"dispensary","phone":"970-264-5323","city":"Pagosa Springs","state":"Colorado","zipcode":"81147","slug":"san-juan-strains"},{"name":"CannaFarmer Farm Store","type":"dispensary","phone":"(970) 403-6233","city":"Silverton","state":"Colorado","zipcode":"81433","slug":"cannafarmer-farm-store"},{"name":"Trill Alternatives - RECREATIONAL","type":"dispensary","phone":"720-287-0645","city":"Boulder","state":"Colorado","zipcode":"80302","slug":"trill-alternatives-rec"},{"name":"Herban Underground - Recreational","type":"dispensary","phone":"720-343-4372","city":"Denver","state":"Colorado","zipcode":"80203","slug":"herban-medicinals-underground"},{"name":"A Cut Above - Denver Rec","type":"dispensary","phone":"(720) 536-8965","city":"Denver","state":"Colorado","zipcode":"80210","slug":"a-cut-above-denver-rec"},{"name":"LOVA - Sheridan","type":"dispensary","phone":"720-536-5471","city":"Denver","state":"Colorado","zipcode":"80226","slug":"lova-sheridan"},{"name":"Pikes Peak Cannabis Caregivers","type":"dispensary","phone":"(719) 216 5452","city":"Colorado Springs","state":"Colorado","zipcode":"80910","slug":"pikes-peak-cannabis-caregivers"},{"name":"Strawberry Fields - Downieville","type":"dispensary","phone":"720-379-3672","city":"Downieville","state":"Colorado","zipcode":"80436","slug":"strawberry-fields-dumont"},{"name":"Magnolia Road Cannabis Co. Recreational","type":"dispensary","phone":"720-390-7689","city":"Boulder","state":"Colorado","zipcode":"80301","slug":"magnolia-road-cannabis-co-recreational"},{"name":"Pure Intentions Wellness","type":"dispensary","phone":"(719) 247-8981","city":"Colorado Springs","state":"Colorado","zipcode":"80909","slug":"pure-intentions-wellness-center"},{"name":"Tweedleaf Federal","type":"dispensary","phone":"303-427-9466","city":"Denver","state":"Colorado","zipcode":"80221","slug":"tweedleaf-federal"},{"name":"Rocky Road Vail","type":"dispensary","phone":"(970) 688-5633","city":"Avon","state":"Colorado","zipcode":"81620","slug":"rocky-road-vail"},{"name":"Apothecary Farms Denver","type":"dispensary","phone":"303-862-5016","city":"Denver","state":"Colorado","zipcode":"80210","slug":"apothecary-farms-denver-1"},{"name":"IgadI - Tabernash","type":"dispensary","phone":"970-536-0420","city":"Tabernash","state":"Colorado","zipcode":"80478","slug":"igadi-ltd"},{"name":"The Canna Center","type":"dispensary","phone":"719.597.9333","city":"Colorado Springs","state":"Colorado","zipcode":"80915","slug":"the-canna-center"},{"name":"Apothecary Farms","type":"dispensary","phone":"719-822-0420","city":"Colorado Springs","state":"Colorado","zipcode":"80910","slug":"apothecary-farms-co"},{"name":"Native Roots - Uintah","type":"dispensary","phone":"719-375-5512","city":"Colorado Springs","state":"Colorado","zipcode":"80904","slug":"native-roots-uintah"},{"name":"BioMeds","type":"dispensary","phone":"719-344-8289","city":"Colorado Springs","state":"Colorado","zipcode":"80905","slug":"biomeds"},{"name":"The Green Solution Aspen","type":"dispensary","phone":"(970) 760-0284","city":"Aspen","state":"Colorado","zipcode":"81611","slug":"the-green-solution-aspen"},{"name":"Denver Kush Club - Medical","type":"dispensary","phone":"303-736-6550","city":"Denver","state":"Colorado","zipcode":"80205","slug":"denver-kush-club-more-than-a-club"},{"name":"Reefer Madness","type":"dispensary","phone":"(303) 322-3404","city":"Denver","state":"Colorado","zipcode":"80216","slug":"reefer-madness"},{"name":"The Healing Treee","type":"dispensary","phone":"303-916-2355","city":"Denver","state":"Colorado","zipcode":"80216","slug":"timberline-herbal-clinic-wellness-center-recreational"},{"name":"Native Roots Dispensary - Austin Bluffs","type":"dispensary","phone":"719-528-7143","city":"Colorado Springs","state":"Colorado","zipcode":"80918","slug":"native-roots-colorado-springs"},{"name":"Best Meds","type":"dispensary","phone":"7193755840","city":"Colorado Springs","state":"Colorado","zipcode":"80904","slug":"best-meds-colorado-springs"},{"name":"Zengolds Lyons\/Longmont","type":"dispensary","phone":"(303) 823-5226","city":"Longmont","state":"Colorado","zipcode":"80503","slug":"zengolds-longmont-recreational"},{"name":"Buddy Boy 38th – Highlands","type":"dispensary","phone":"(720) 328-9971","city":"Denver","state":"Colorado","zipcode":"80212","slug":"buddy-boy-brands-38th"},{"name":"Oasis Cannabis Superstore - 44th Ave.","type":"dispensary","phone":"303-333-3338","city":"Mountain View","state":"Colorado","zipcode":"80212","slug":"mwc"},{"name":"Starbuds - Pueblo","type":"dispensary","phone":"719-696-8279","city":"Pueblo","state":"Colorado","zipcode":"81005","slug":"starbuds-pueblo"},{"name":"Seed & Smith Cannabis - Med","type":"dispensary","phone":"(720) 506-2533","city":"Denver","state":"Colorado","zipcode":"80239","slug":"seed-amp-smith-cannabis-2"},{"name":"Fountain Organics","type":"dispensary","phone":"719-394-8883","city":"Colorado springs","state":"Colorado","zipcode":"80917","slug":"fountain-organics"}]}}