{"meta":{"total_listings":44},"data":{"listings":[{"name":"Fine Fettle Dispensary - Willimantic","type":"dispensary","phone":"(860) 717-9333","city":"Willimantic","state":"Connecticut","zipcode":"06226","slug":"fine-fettle-dispensary"},{"name":"Nature's Medicines Mansfield","type":"dispensary","phone":"(860) 430-8900","city":"Mansfield","state":"Connecticut","zipcode":"06268","slug":"nature-s-medicine-mansfield"},{"name":"The Sanctuary Wellness Institute","type":"doctor","phone":"(959) 245-1716","city":"Hartford","state":"Connecticut","zipcode":"06103","slug":"the-sanctuary-wellness-institute-14"},{"name":"CannaHealth - New Haven","type":"doctor","phone":"(203) 691-7081","city":"New Haven","state":"Connecticut","zipcode":"06510","slug":"cannahealth"},{"name":"Park Avenue Medical, LLC","type":"doctor","phone":"(203) 309-0070","city":"Wallingford","state":"Connecticut","zipcode":"06492","slug":"park-avenue-medical-llc"},{"name":"CannaHealth- Stamford","type":"doctor","phone":"203-883-8400","city":"Stamford","state":"Connecticut","zipcode":"06905","slug":"cannahealth-stamford"},{"name":"The Healing Corner - Connecticut","type":"dispensary","phone":"(860) 583-4325","city":"Bristol","state":"Connecticut","zipcode":"06010","slug":"the-healing-corner"},{"name":"Relief Medical Center","type":"doctor","phone":"(203) 433-7377","city":"Branford","state":"Connecticut","zipcode":"06405","slug":"relief-medical-center-3"},{"name":"Still River Wellness","type":"dispensary","phone":"(203) 815-1101","city":"Torrington","state":"Connecticut","zipcode":"06790","slug":"c3-ventures"},{"name":"Mystic Medical Associates","type":"doctor","phone":"(860) 245-4126","city":"Mystic","state":"Connecticut","zipcode":"06355","slug":"mystic-medical-associates"},{"name":"GR Vending (Coming Soon)","type":"dispensary","phone":"Coming Soon","city":"Groton","state":"Connecticut","zipcode":"06340","slug":"gr-vending"},{"name":"Relief Medical Center","type":"doctor","phone":"(203) 433-7377","city":"New Haven","state":"Connecticut","zipcode":"06513","slug":"relief-medical-center"},{"name":"West Hartford Medical Center","type":"doctor","phone":"(860) 218-1725","city":"West Hartford","state":"Connecticut","zipcode":"06119","slug":"west-hartford-medical-center"},{"name":"Holistic Healing","type":"doctor","phone":"(203) 343-8727","city":"Fairfield","state":"Connecticut","zipcode":"06824","slug":"holistic-healing"},{"name":"American Telemed Evaluations LLC","type":"doctor","phone":"732-893-7838","city":"Stamford","state":"Connecticut","zipcode":"06905","slug":"american-telemed-evaluations-llc"},{"name":"CannaHealth- Middletown","type":"doctor","phone":"860-740-4913","city":"Middletown","state":"Connecticut","zipcode":"06457","slug":"cannahealth-middletown"},{"name":"Curaleaf Stamford","type":"dispensary","phone":"2033244673","city":"Stamford","state":"Connecticut","zipcode":"06902","slug":"arrow-alternative-care-stamford"},{"name":"Relief Medical Center","type":"doctor","phone":"(203) 433-7377","city":"Old Lyme","state":"Connecticut","zipcode":"06371","slug":"relief-medical-center-4"},{"name":"Caring Nature, LLC","type":"dispensary","phone":"(203) 437-8477","city":"Waterbury","state":"Connecticut","zipcode":"06708","slug":"caring-nature-llc"},{"name":"Curaleaf Groton","type":"dispensary","phone":"860-381-4240","city":"Groton","state":"Connecticut","zipcode":"06340","slug":"herbology-groton"},{"name":"Fine Fettle Dispensary Newington","type":"dispensary","phone":"(860) 333-9032","city":"Newington","state":"Connecticut","zipcode":"06111","slug":"bhadra-seva"},{"name":"iMed Chiropractic","type":"doctor","phone":"(203) 333-7788","city":"Fairfield","state":"Connecticut","zipcode":"06825","slug":"imed-chiropractic"},{"name":"Bluepoint Wellness of Connecticut","type":"dispensary","phone":"(203) 292-8611","city":"Westport","state":"Connecticut","zipcode":"06880","slug":"bluepoint-wellness-westport"},{"name":"Curaleaf - Milford","type":"dispensary","phone":"(203) 874-4673","city":"Milford","state":"Connecticut","zipcode":"06461","slug":"arrow-alternative-care-milford"},{"name":"Thames Valley Alternative Relief, LLC - Connecticut","type":"dispensary","phone":"(860) 848-0865","city":"Uncasville","state":"Connecticut","zipcode":"06382","slug":"thames-valley-alternative-relief-llc"},{"name":"D & B Wellness (Compassionate Care Center) - Connecticut","type":"dispensary","phone":"(203) 909-6869","city":"Bethel","state":"Connecticut","zipcode":"06801","slug":"compassionate-care-center-of-connecticut"},{"name":"Relief Medical Center","type":"doctor","phone":"(203) 433-7377","city":"Waterbury","state":"Connecticut","zipcode":"06702","slug":"relief-medical-center-5"},{"name":"CannaHealth- Danbury","type":"doctor","phone":"475-313-0215","city":"Danbury","state":"Connecticut","zipcode":"06810","slug":"cannahealth-danbury"},{"name":"FNP Alternative Medicine","type":"doctor","phone":"(860) 848-1181","city":"Montville","state":"Connecticut","zipcode":"06382","slug":"fnp-alternative-medicine"},{"name":"Dr. Bruce Burnham","type":"doctor","phone":"(860) 659-1318","city":"Glastonbury","state":"Connecticut","zipcode":"06033","slug":"dr-burnham"},{"name":"Pain Management Associates of CT, PC","type":"doctor","phone":"(203) 325-5700","city":"Stamford","state":"Connecticut","zipcode":"06901","slug":"pain-management-associates-of-ct-pc"},{"name":"Affinity Health Wellness","type":"dispensary","phone":"(203) 745-3823","city":"New Haven","state":"Connecticut","zipcode":"06515","slug":"affinity-health-wellness-new-haven"},{"name":"REN Health","type":"doctor","phone":"(203) 951-5700","city":"Milford","state":"Connecticut","zipcode":"06461","slug":"ren-health"},{"name":"Dr. Stephen A. Brown","type":"doctor","phone":"(860) 249-0083","city":"West Hartford","state":"Connecticut","zipcode":"06107","slug":"dr-s-a-brown"},{"name":"Advanced Holistic Group (Morris)","type":"doctor","phone":"(212) 253-5501","city":"Morris","state":"Connecticut","zipcode":"06763","slug":"advanced-holistic-group-morris"},{"name":"Willow Brook Wellness","type":"dispensary","phone":"(203) 889-9600","city":"Meriden","state":"Connecticut","zipcode":"06450","slug":"willow-brook-wellness"},{"name":"Monroe Alternative Care","type":"doctor","phone":"(203) 261-1727","city":"Monroe","state":"Connecticut","zipcode":"06468","slug":"monroe-alternative-care"},{"name":"Bluepoint Wellness of Connecticut","type":"dispensary","phone":"(203) 488-1388","city":"Branford","state":"Connecticut","zipcode":"06405","slug":"bluepoint-wellness-of-connecticut"},{"name":"Southern CT Wellness & Healing","type":"dispensary","phone":"(203) 496-5200","city":"Milford","state":"Connecticut","zipcode":"06460","slug":"southern-ct-wellness-and-healing"},{"name":"Curaleaf Hartford","type":"dispensary","phone":"(860) 231-7050","city":"Hartford","state":"Connecticut","zipcode":"06120","slug":"arrow-alternative-care"},{"name":"Doctor Bonanno","type":"doctor","phone":"(860) 222-2633","city":"Willington","state":"Connecticut","zipcode":"06279","slug":"doctor-bonanno-2"},{"name":"CannaHealth- Hartford","type":"doctor","phone":"860-246-1363","city":"Hartford","state":"Connecticut","zipcode":"06103","slug":"cannahealth-hartford"},{"name":"CannaHealth- Milford","type":"doctor","phone":"203-301-4006","city":"Milford","state":"Connecticut","zipcode":"06460","slug":"cannahealth-milford"},{"name":"Prime Wellness of Connecticut","type":"dispensary","phone":"(800) 263-8557","city":"South Windsor","state":"Connecticut","zipcode":"06074","slug":"prime-wellness-of-connecticut-2"}]}}