{"meta":{"total_listings":12},"data":{"listings":[{"name":"First State Compassion Center - Lewes","type":"dispensary","phone":"(302) 281-4888","city":"Lewes","state":"Delaware","zipcode":"19958","slug":"first-state-compassion-center-lewes"},{"name":"North American Spine & Pain - Newark","type":"doctor","phone":"3024393063","city":"Newark","state":"Delaware","zipcode":"19702","slug":"naspac-newark-de"},{"name":"First State Compassion Center - Wilmington","type":"dispensary","phone":"(302) 543-2100","city":"Wilmington","state":"Delaware","zipcode":"19804","slug":"first-state-compassion-center-delaware"},{"name":"Living Great Medical Assoc, LLC","type":"doctor","phone":"(302) 734-9200","city":"Dover","state":"Delaware","zipcode":"19904","slug":"living-great-medical-assoc-llc"},{"name":"Canna Care Docs - Lewes","type":"doctor","phone":"(302) 414-0871","city":"Lewes","state":"Delaware","zipcode":"19958","slug":"canna-care-docs-21"},{"name":"Fresh Delaware","type":"dispensary","phone":"(302) 608-9595","city":"Newark","state":"Delaware","zipcode":"19711","slug":"compassionate-care-research-institute-delaware"},{"name":"Columbia Care Rehoboth Beach","type":"dispensary","phone":"(302) 212-0033","city":"Rehoboth Beach","state":"Delaware","zipcode":"19971","slug":"columbia-care-rehoboth-beach"},{"name":"Columbia Care Wilmington","type":"dispensary","phone":"(302) 416-4402","city":"Wilmington","state":"Delaware","zipcode":"19803","slug":"columbia-care-wilmington"},{"name":"Natural Wellness Center LLC","type":"doctor","phone":"(302) 858-4266","city":"Georgetown","state":"Delaware","zipcode":"19947","slug":"natural-wellness-center-llc-1"},{"name":"Nature's Way Medicine","type":"doctor","phone":"(855) 420-3627","city":"Wilmington","state":"Delaware","zipcode":"19801","slug":"nature-s-way-medicine-2"},{"name":"Canna Care Docs - Delaware","type":"doctor","phone":"866-846-2420","city":"Laurel","state":"Delaware","zipcode":"19956","slug":"canna-care-docs-delaware"},{"name":"Columbia Care Smyrna","type":"dispensary","phone":"(302) 297-8614","city":"Smyrna","state":"Delaware","zipcode":"19977","slug":"columbia-care-delaware"}]}}