{"meta":{"total_listings":14},"data":{"listings":[{"name":"Capital City Care","type":"dispensary","phone":"(202) 292-5071","city":"Washington","state":"District of Columbia","zipcode":"20009","slug":"capital-city-care"},{"name":"DC Holistic Wellness","type":"dispensary","phone":"(202) 388 - 3000","city":"Washington","state":"District of Columbia","zipcode":"20019","slug":"dc-holistic-wellness"},{"name":"House Calls of DC","type":"doctor","phone":"(301) 326-5867","city":"Washington","state":"District of Columbia","zipcode":"20002","slug":"house-calls-of-dc"},{"name":"Premier Surgery Center - Dr. Patrick Fasusi, MD","type":"doctor","phone":"(202) 291-0126","city":"Washington","state":"District of Columbia","zipcode":"20011","slug":"dr-patrick-fasusi-md"},{"name":"Takoma Wellness Center","type":"dispensary","phone":"(202) 465-4260","city":"Washington","state":"District of Columbia","zipcode":"20012","slug":"takoma-wellness-center-2-2"},{"name":"Confident Care Medical","type":"doctor","phone":"(202) 794-5186","city":"Washington","state":"District of Columbia","zipcode":"20002","slug":"confident-care-medical"},{"name":"MyCannX","type":"doctor","phone":"(800) 462-0715","city":"Washington","state":"District of Columbia","zipcode":"20001","slug":"dc-medical-marijuana-consultants"},{"name":"Columbia Eye Associates","type":"doctor","phone":"(202) 659-0066","city":"Washington","state":"District of Columbia","zipcode":"20037","slug":"columbia-eye-associates"},{"name":"KINFOLK Dispensary","type":"dispensary","phone":"(202) 817-3920","city":"Washington","state":"District of Columbia","zipcode":"20001","slug":"metropolitan-wellness-center-2"},{"name":"National Holistic Healing Center - Washington DC","type":"dispensary","phone":"(202) 234-0780","city":"Washington","state":"District of Columbia","zipcode":"20009","slug":"national-holistic-healing-center"},{"name":"Anacostia Organics","type":"dispensary","phone":"(202) 845-8574","city":"Washington","state":"District of Columbia","zipcode":"20020","slug":"anacostia-organics"},{"name":"The Institute of Multidimensional Medicine PLLC","type":"doctor","phone":"(202) 429-3783","city":"Washington","state":"District of Columbia","zipcode":"20037","slug":"the-institute-of-multidimensional-medicine-pllc"},{"name":"Herbal Alternatives II - Washington DC","type":"dispensary","phone":"(202) 618-5635","city":"Washington","state":"District of Columbia","zipcode":"20036","slug":"herbal-alternatives-ii"},{"name":"Metro Best Clinic","type":"doctor","phone":"202-864-6605","city":"Washington","state":"District of Columbia","zipcode":"20012","slug":"metro-best-clinic"}]}}