{"meta":{"total_listings":584},"data":{"listings":[{"name":"Trulieve - Miami Gardens","type":"dispensary","phone":"(850) 512-1968","city":"Miami Gardens","state":"Florida","zipcode":"33055","slug":"trulieve-miami-gardens"},{"name":"Curaleaf - Palm Bay","type":"dispensary","phone":"(321) 373-0033","city":"Palm Bay","state":"Florida","zipcode":"32905","slug":"curaleaf-palm-bay"},{"name":"Trulieve","type":"dispensary","phone":"(844) 878-5438","city":"North Fort Myers","state":"Florida","zipcode":"33903","slug":"trulieve-north-fort-myers"},{"name":"Certified Marijuana Doctors","type":"doctor","phone":"(352) 414-4545","city":"Ocala","state":"Florida","zipcode":"34470","slug":"certified-marijuana-doctors-a8837637-c429-48f7-91ad-df5d48c2bc9b"},{"name":"Dr. Green Relief","type":"doctor","phone":"(305) 998-0003","city":"Miami","state":"Florida","zipcode":"33173","slug":"dr-green-relief-miami"},{"name":"Dr Bob’s Compassion Clinic","type":"doctor","phone":"(352) 601-4200","city":"Summerfield","state":"Florida","zipcode":"34491","slug":"dr-bob-s-compassion-clinic"},{"name":"Trulieve - Gainesville","type":"dispensary","phone":"(352) 519-0732","city":"Gainesville","state":"Florida","zipcode":"32601","slug":"trulieve-gainesville"},{"name":"Miracle Leaf Lake Worth","type":"doctor","phone":"5612238687","city":"Lake Worth","state":"Florida","zipcode":"33460","slug":"miracle-leaf-lake-worth"},{"name":"Liberty Health Sciences - Hollywood (Coming Soon)","type":"dispensary","phone":"(833) 254-4877","city":"Hollywood","state":"Florida","zipcode":"33020","slug":"liberty-health-sciences-hollywood"},{"name":"Marijuana Doctor - Ocala","type":"doctor","phone":"844-442-0362","city":"Ocala","state":"Florida","zipcode":"34471","slug":"marijuana-doctor-31"},{"name":"Fluent - Gainesville","type":"dispensary","phone":"(833) 735-8368","city":"Gainesville","state":"Florida","zipcode":"32608","slug":"fluent-gainesville"},{"name":"MÜV - Apollo Beach","type":"dispensary","phone":"(813) 489-5032","city":"Apollo Beach","state":"Florida","zipcode":"33572","slug":"muv-apollo-beach"},{"name":"Trulieve - St. Petersburg","type":"dispensary","phone":"(727) 498-5115","city":"St. Petersburg","state":"Florida","zipcode":"33702","slug":"trulieve-st-petersburg"},{"name":"Dynamic Health and Wellness Center","type":"doctor","phone":"(813) 605-0191","city":"Tampa","state":"Florida","zipcode":"33612","slug":"dynamics-health-and-wellness-center"},{"name":"The Boca Center For Healthy Living","type":"doctor","phone":"(561) 994-2007","city":"Boca Raton","state":"Florida","zipcode":"33431","slug":"the-boca-center-for-healthy-living"},{"name":"MMJ Health","type":"doctor","phone":"561-631-7994","city":"Melbourne","state":"Florida","zipcode":"32904","slug":"mmj-health-3"},{"name":"Surterra Wellness Center – Pensacola","type":"dispensary","phone":"(850) 249-5793","city":"Pensacola","state":"Florida","zipcode":"32503","slug":"surterra-wellness-center-pensacola"},{"name":"Trulieve - Largo","type":"dispensary","phone":"844-878-5438","city":"Largo","state":"Florida","zipcode":"33763","slug":"trulieve-largo"},{"name":"Florida Medical Marijuana Doctors","type":"doctor","phone":"(305) 915-0020","city":"West Palm Beach","state":"Florida","zipcode":"33401","slug":"florida-420-doctor-4"},{"name":"Iona Cannabis Clinic of the Florida Keys","type":"doctor","phone":"(305) 390-2759","city":"Key Largo","state":"Florida","zipcode":"33037","slug":"iona-cannabis-clinic-2"},{"name":"Curaleeaf Panama City","type":"dispensary","phone":"+1 813-337-0390","city":"Tampa","state":"Florida","zipcode":"33611","slug":"curaleeaf-panama-city"},{"name":"Trulieve - Lake City","type":"dispensary","phone":"(386) 518-7431","city":"Lake City","state":"Florida","zipcode":"32055","slug":"trulieve-lake-city"},{"name":"Gulf States Pharmaceutical","type":"doctor","phone":"8447538443","city":"Tallahassee","state":"Florida","zipcode":"32308","slug":"gulf-states-pharmaceutical-2"},{"name":"Liberty Health Sciences - Miami Beach (Coming Soon)","type":"dispensary","phone":"(833) 254-4877","city":"Miami Beach","state":"Florida","zipcode":"33139","slug":"liberty-health-sciences-cannabis-education-center-miami-beach"},{"name":"Marijuana Doctor - Clearwater Palm Harbor","type":"doctor","phone":"844 442-0362","city":"Clearwater","state":"Florida","zipcode":"33761","slug":"marijuana-doctor-8"},{"name":"Mobile Marijuana Doctor Boca Raton","type":"doctor","phone":"(305) 504-9669","city":"Boca Raton","state":"Florida","zipcode":"33427","slug":"mobile-marijuana-doctor-boca-raton"},{"name":"CannaMD","type":"doctor","phone":"855-420-9170","city":"Port St. Lucie","state":"Florida","zipcode":"34986","slug":"cannamd-10"},{"name":"Dr. Marissa Magsino","type":"doctor","phone":"(407) 292-6778","city":"Orlando","state":"Florida","zipcode":"32819","slug":"dr-marissa-magsino"},{"name":"Recharge Clinic","type":"doctor","phone":"(352) 512-9996","city":"Ocala","state":"Florida","zipcode":"34471","slug":"recharge-clinic"},{"name":"Surterra Wellness Center - Lakeland","type":"dispensary","phone":"(863) 225-8600","city":"Lakeland","state":"Florida","zipcode":"33803","slug":"surterra-wellness-lakeland"},{"name":"VidaCann - Panama City (Coming Soon)","type":"dispensary","phone":"(386) 281-3296","city":"Panama City","state":"Florida","zipcode":"32405","slug":"vidacann-panama-city"},{"name":"Curaleaf Jensen Beach (Now Open!)","type":"dispensary","phone":"(772) 934-9575","city":"Jensen Beach","state":"Florida","zipcode":"34957","slug":"curaleaf-jensen-beach"},{"name":"Curaleaf - South Orlando","type":"dispensary","phone":"(877) 303-0741","city":"Orlando","state":"Florida","zipcode":"32837","slug":"curaleaf-orlando"},{"name":"CannaMD - Marijuana Doctor","type":"doctor","phone":"(855) 420-9170","city":"Naples","state":"Florida","zipcode":"34110","slug":"cannamd-4"},{"name":"Trichom Health Center","type":"doctor","phone":"(844) 482-6263","city":"Pinellas Park","state":"Florida","zipcode":"33781","slug":"trichom-health-center-pinellas-park"},{"name":"MÜV - Wellington (Newly Opened)","type":"dispensary","phone":"(561) 899-4628","city":"Wellington","state":"Florida","zipcode":"33414","slug":"muv-wellington"},{"name":"Miracle Leaf Pembroke Pines","type":"doctor","phone":"(954) 613-8112","city":"Pembroke Pines","state":"Florida","zipcode":"33027","slug":"miracle-leaf-pembroke-pines"},{"name":"Curaleaf Port Charlotte - Now OPEN!","type":"dispensary","phone":" 941-628-7031 ","city":"Port Charlotte","state":"Florida","zipcode":"33980","slug":"curaleaf-port-charlotte"},{"name":"Surterra Wellness Center – Tampa","type":"dispensary","phone":"(813) 327-7918","city":"Tampa","state":"Florida","zipcode":"33612","slug":"surterra-wellness-center-tampa"},{"name":"DocMJ","type":"doctor","phone":"(888) 908-0143","city":"Fort Myers","state":"Florida","zipcode":"33903","slug":"docmj-6"},{"name":"MÜV - Sarasota","type":"dispensary","phone":"(941) 312-2699","city":"Sarasota","state":"Florida","zipcode":"34232","slug":"muv-sarasota"},{"name":"Miracle Leaf West Palm Beach - Clematis","type":"doctor","phone":"5614080606","city":"West Palm Beach","state":"Florida","zipcode":"33401","slug":"miracle-leaf-clematis-1"},{"name":"Trulieve - Edgewater","type":"dispensary","phone":"(386) 478-4081","city":"Edgewater","state":"Florida","zipcode":"32141","slug":"trulieve-edgewater"},{"name":"Miracle Leaf - Jacksonville Beach","type":"doctor","phone":"(904) 746-7699","city":"Jacksonville Beach","state":"Florida","zipcode":"32250","slug":"miracle-leaf-jacksonville-beach"},{"name":"Dr. Karen Monroe","type":"doctor","phone":"(727) 323-1090","city":"St. Petersburg","state":"Florida","zipcode":"33707","slug":"dr-karen-monroe"},{"name":"Fluent - Coral Springs","type":"dispensary","phone":"(833) 735-8368","city":"Coral Gables","state":"Florida","zipcode":"33071","slug":"fluent-cannabis-coral-springs"},{"name":"Miracle Leaf West Miami - FIU","type":"doctor","phone":"(305) 747-7694","city":"Miami","state":"Florida","zipcode":"33165","slug":"miracle-leaf-west-miami"},{"name":"Cannabis Certification Clinic","type":"doctor","phone":"(904) 615-1181","city":"St. Augustine","state":"Florida","zipcode":"32086","slug":"cannabis-certification-clinic"},{"name":"Curaleaf - Lakeland","type":"dispensary","phone":"(863) 213-1037","city":"Lakeland","state":"Florida","zipcode":"33805","slug":"curaleaf-lakeland"},{"name":"Medical Marijuana Treatment Centers of Florida","type":"doctor","phone":"(850) 906-5000","city":"Gainesville","state":"Florida","zipcode":"32605","slug":"medical-marijuana-treatment-centers-of-florida-183c3c8f-ba07-45a5-b8dd-dd78589de03d"},{"name":"The Flowery - Port St. Lucie [Delivery on Mon + Thurs]","type":"delivery","phone":"305-912-2929","city":"Port. St. Lucie","state":"Florida","zipcode":"34945","slug":"the-flowery-9"},{"name":"VidaCann - Orlando","type":"dispensary","phone":"(407) 730-4087","city":"Orlando","state":"Florida","zipcode":"32807","slug":"vidacann-orlando"},{"name":"Florida Medical Marijuana Doctors Inc.","type":"doctor","phone":"941-328-8127","city":"Bradenton","state":"Florida","zipcode":"34203","slug":"florida-medical-marijuana-doctors-inc"},{"name":"DocMJ","type":"doctor","phone":"(888) 908-0143","city":"Jacksonville","state":"Florida","zipcode":"32257","slug":"docmj-jacksonville"},{"name":"Cannabis Doc","type":"doctor","phone":"813-501-4777","city":"New Port Richey","state":"Florida","zipcode":"34652","slug":"cannabis-doc"},{"name":"Miracle Leaf - Northeast Tampa","type":"doctor","phone":"(813) 899-0009","city":"Tampa","state":"Florida","zipcode":"33617","slug":"miracle-leaf-northeast-tampa"},{"name":"Surterra Wellness Center - Orlando","type":"dispensary","phone":"(407) 523-3721","city":"Orlando","state":"Florida","zipcode":"32806","slug":"surterra-wellness-center-orlando"},{"name":"Medical Marijuana Treatment Clinics of Florida","type":"doctor","phone":"(850) 906-5000","city":"Sun City Center","state":"Florida","zipcode":"33573","slug":"medical-marijuana-treatment-clinics-of-florida-dff7af64-4850-44df-ad2a-eb6edf74f4c4"},{"name":"Joseph Haas","type":"doctor","phone":"(727) 723-2442","city":"Clearwater","state":"Florida","zipcode":"33761","slug":"joseph-haas"},{"name":"Surterra Wellness Center - New Port Richey","type":"dispensary","phone":"(727) 513-0493","city":"New Port Richey","state":"Florida","zipcode":"34652","slug":"surterra-wellness-new-port-richey"},{"name":"Iona Cannabis Clinic Port Charlotte","type":"doctor","phone":"(941) 375-6775","city":"Port Charlotte","state":"Florida","zipcode":"33952","slug":"iona-cannabis-clinic-port-charlotte"},{"name":"Compassionate Care of Florida","type":"doctor","phone":"(813) 491-4006","city":"Oldsmar","state":"Florida","zipcode":"34677","slug":"compassionate-care-of-florida"},{"name":"Canna Therapeutics","type":"doctor","phone":"386-238-9872","city":"Ormond Beach","state":"Florida","zipcode":"32174-3835","slug":"canna-therapeutics"},{"name":"Miracle Leaf Winter Springs","type":"doctor","phone":"4075886877","city":"Winter Springs","state":"Florida","zipcode":"32708","slug":"miracle-leaf-winter-springs"},{"name":"The Flowery - Orlando [Delivery on Mon + Wed]","type":"delivery","phone":"305-912-2929","city":"Orlando","state":"Florida","zipcode":"32789","slug":"the-flowery-10"},{"name":"Trulieve - Tampa","type":"dispensary","phone":"(813) 333-2602","city":"Tampa","state":"Florida","zipcode":"33614","slug":"trulieve-tampa"},{"name":"Orlando Psychiatric Associates","type":"doctor","phone":"(407) 375-0480","city":"Ocoee","state":"Florida","zipcode":"34761","slug":"orlando-psychiatric-associates-2"},{"name":"My Florida Green","type":"doctor","phone":"(833) 665-3279","city":"Sarasota","state":"Florida","zipcode":"34232","slug":"my-florida-green-2"},{"name":"Medical Marijuana Treatment Clinics of Florida - Jacksonville Beach","type":"doctor","phone":"(850) 906-5000","city":"Jacksonville Beach","state":"Florida","zipcode":"32082","slug":"dr-joseph-c-dorn"},{"name":"Columbia Care Bonita Springs","type":"dispensary","phone":"(239) 345-4024","city":"Bonita Springs","state":"Florida","zipcode":"34135","slug":"columbia-care-bonita-springs"},{"name":"Medical Marijuana Treatment Clinics of Florida","type":"doctor","phone":"(850) 906-5000","city":"Boca Raton","state":"Florida","zipcode":"33434","slug":"medical-marijuana-treatment-clinics-of-florida-7e4a18c2-2271-415b-bcb1-b7f785d9a4d9"},{"name":"CannaMD - Marijuana Doctor","type":"doctor","phone":"(855) 420-9170","city":"Orlando","state":"Florida","zipcode":"32819","slug":"cannamd-marijuana-doctor"},{"name":"Trulieve Tampa Busch Gardens","type":"dispensary","phone":"(813)536-3235","city":"Tampa","state":"Florida","zipcode":"33614","slug":"trulieve-tampa-busch-gardens"},{"name":"Marijuana Doctor - Sanford","type":"doctor","phone":"844 442-0362","city":"Sanford","state":"Florida","zipcode":"32773","slug":"marijuana-doctor-25"},{"name":"Surterra Wellness Center - Brandon","type":"dispensary","phone":"(813) 467-7100","city":"Brandon","state":"Florida","zipcode":"33511","slug":"surterra-wellness-center-brandon"},{"name":"Dr. Green Relief","type":"doctor","phone":"813-381-5658","city":"Brandon","state":"Florida","zipcode":"33511","slug":"dr-green-relief-8"},{"name":"Pointe Medical Services","type":"doctor","phone":"(904) 276-5700","city":"Orange Park","state":"Florida","zipcode":"32073","slug":"pointe-medical-services"},{"name":"Trulieve - Cape Coral","type":"dispensary","phone":"(844) 878-5438","city":"Cape Coral","state":"Florida","zipcode":"33914","slug":"trulieve-cape-coral"},{"name":"Liberty Health Sciences - Bonita Springs","type":"dispensary","phone":"(239) 221-6180","city":"Bonita Springs","state":"Florida","zipcode":"34135","slug":"liberty-health-sciences-bonita-springs"},{"name":"DocMJ","type":"doctor","phone":"(888) 908-0143","city":"Bradenton","state":"Florida","zipcode":"34205","slug":"docmj-28"},{"name":"Curaleaf - SW Miami","type":"dispensary","phone":" (786) 577-3976","city":"Miami","state":"Florida","zipcode":"33187","slug":"curaleaf-south-miami"},{"name":"Curaleaf - Daytona","type":"dispensary","phone":"(386) 271-4732","city":"Daytona Beach","state":"Florida","zipcode":"32114","slug":"curaleaf-daytona"},{"name":"MedWell Health & Wellness","type":"doctor","phone":"7274404808","city":"St. Petersburg","state":"Florida","zipcode":"33709","slug":"medwell-health-wellness-14"},{"name":"Liberty Health Sciences - Tampa","type":"dispensary","phone":"(813) 425-4744","city":"Tampa","state":"Florida","zipcode":"33609","slug":"liberty-health-sciences-cannabis-education-center-tampa"},{"name":"Iona Cannabis Clinic Key West","type":"doctor","phone":"(305) 330-4701","city":"Key West","state":"Florida","zipcode":"33040","slug":"iona-cannabis-clinic-key-west"},{"name":"MedMen - Miami South Beach","type":"dispensary","phone":"(786) 373-4060","city":"Miami Beach","state":"Florida","zipcode":"33139","slug":"medmen-miami-beach"},{"name":"The Flowery - Sarasota [Delivery on Tues + Thurs]","type":"delivery","phone":"305-912-2929","city":"Sarasota","state":"Florida","zipcode":"34230","slug":"the-flowery-5"},{"name":"Medical Marijuana Treatment Clinics of Florida","type":"doctor","phone":"(850) 906-5000","city":"Fort Walton Beach","state":"Florida","zipcode":"32547","slug":"medical-marijuana-treatment-clinics-of-florida-9"},{"name":"Fluent - Clearwater","type":"dispensary","phone":"(833) 735-8368","city":"Clearwater","state":"Florida","zipcode":"33756","slug":"fluent-clearwater"},{"name":"One Plant Avon Park","type":"dispensary","phone":"877-308-3344","city":"Avon Park","state":"Florida","zipcode":"33825","slug":"one-plant-avon-park-1"},{"name":"MedMen Fort Lauderdale - Coral Shores","type":"dispensary","phone":"(754) 300-1230","city":"Fort Lauderdale","state":"Florida","zipcode":"33306","slug":"medmen-coral-shores"},{"name":"Liberty Health Sciences - Boca Raton","type":"dispensary","phone":"(833) 254-4877","city":"Boca Raton","state":"Florida","zipcode":"33434","slug":"liberty-health-sciences-cannabis-education-center-boca-raton"},{"name":"MMJ Health","type":"doctor","phone":"5616317994","city":"Jupiter","state":"Florida","zipcode":"33458","slug":"mmj-health-9"},{"name":"Canna MD","type":"doctor","phone":"855-420-9170","city":"Coral Gables","state":"Florida","zipcode":"33134","slug":"canna-md-2"},{"name":"Trulieve Ocala","type":"dispensary","phone":"352-581-6636","city":"Ocala","state":"Florida","zipcode":"34474","slug":"trulieve-ocala"},{"name":"Medical Marijuana Treatment Clinics of Florida","type":"doctor","phone":"(844) 682-8261","city":"St. Petersburg","state":"Florida","zipcode":"33713","slug":"medical-marijuana-treatment-clinics-of-florida"},{"name":"One Plant Boynton Beach","type":"dispensary","phone":"877-308-3344","city":"Boynton Beach","state":"Florida","zipcode":"33435","slug":"one-plant-4-1"},{"name":"MÜV Dispensary Deerfield Beach","type":"dispensary","phone":"833-880-5420","city":"Deerfield Beach","state":"Florida","zipcode":"33441","slug":"muv-dispensary-deerfield-beach"},{"name":"One Plant Port St Lucie","type":"dispensary","phone":"877-308-3344","city":"Port St. Lucie","state":"Florida","zipcode":"34952","slug":"one-plant-port-st-lucie-1"},{"name":"RXPO.COM","type":"doctor","phone":"(954) 326-0114","city":"Ocala","state":"Florida","zipcode":"34470","slug":"rxpo-com-f841fd19-e8d7-4335-ae04-30bcbb17f68d"},{"name":"Marijuana Doctor - Sanford","type":"doctor","phone":"844-442-0362","city":"Sanford","state":"Florida","zipcode":"32773","slug":"marijuanadoctor-com-sanford"},{"name":"Canna MD","type":"doctor","phone":"855-420-9170","city":"Tampa","state":"Florida","zipcode":"33610","slug":"canna-md-5"},{"name":"Fluent - North Miami Beach","type":"dispensary","phone":"(833) 735-8368","city":"Miami","state":"Florida","zipcode":"33169","slug":"fluent-north-miami-beach"},{"name":"Medical Marijuana Treatment Clinics - Orange Park","type":"doctor","phone":"8509065000","city":"Orange Park","state":"Florida","zipcode":"32065","slug":"medical-marijuana-treatment-clinics-of-florida-24"},{"name":"Compassionate Healthcare of Florida","type":"doctor","phone":"239-431-6739","city":"Naples","state":"Florida","zipcode":"34108","slug":"compassionate-healthcare-of-florida-1"},{"name":"Trulieve - Bradenton","type":"dispensary","phone":"(941) 216-0165","city":"Bradenton","state":"Florida","zipcode":"32405","slug":"trulieve-bradenton"},{"name":"Miracle Leaf Lauderhill","type":"doctor","phone":"3059124432","city":"Lauderhill","state":"Florida","zipcode":"33351","slug":"miracle-leaf-lauderhill"},{"name":"Trulieve - Jacksonville Beach","type":"dispensary","phone":"844-878-5438","city":"Jacksonville Beach","state":"Florida","zipcode":"32250","slug":"trulieve-jacksonville-beach"},{"name":"Curaleaf - Deerfield Beach","type":"dispensary","phone":" (754) 212-0060","city":"Deerfield Beach","state":"Florida","zipcode":"33441","slug":"curaleaf-deerfield-beach"},{"name":"Marijuana Doctor - Sunset","type":"doctor","phone":"844 442-0362","city":"South Miami","state":"Florida","zipcode":"33143","slug":"marijuana-doctor-18"},{"name":"DocMJ","type":"doctor","phone":"(888) 908-0143","city":"Kissimmee","state":"Florida","zipcode":"34746","slug":"docmj-5"},{"name":"Progressive Physicians Group","type":"doctor","phone":"9546866400","city":"Coral Springs","state":"Florida","zipcode":"33065","slug":"progressive-physicians-group"},{"name":"Trulieve Port St. Lucie","type":"dispensary","phone":" 772-230-5370","city":"Port St. Lucie","state":"Florida","zipcode":"34953","slug":"trulieve-port-st-lucie-1"},{"name":"Dr. Jairo Libreros Cupido","type":"doctor","phone":"(727) 773-8886","city":"Palm Harbor","state":"Florida","zipcode":"34684","slug":"dr-jairo-libreros-cupido"},{"name":"Aventura Spine & Wellness Center","type":"doctor","phone":"(305) 974-5533","city":"Aventura","state":"Florida","zipcode":"33180","slug":"aventura-spine-wellness-center"},{"name":"Broward Medical Center","type":"doctor","phone":"(954) 507-0591","city":"Tamarac","state":"Florida","zipcode":"33309","slug":"broward-medical-center"},{"name":"Orlando Psychiatric Associates","type":"doctor","phone":"(407) 375-0480","city":"Kissimmee","state":"Florida","zipcode":"34741","slug":"orlando-psychiatric-associates"},{"name":"Trulieve - Lakeland","type":"dispensary","phone":"(844) 878-5438","city":"Lakeland","state":"Florida","zipcode":"33805","slug":"trulieve-lakeland"},{"name":"DocMJ","type":"doctor","phone":"(888) 908-0143","city":"Ocala","state":"Florida","zipcode":"34481","slug":"docmj-da7d8f81-58db-4b97-97a1-81379490443b"},{"name":"Stephen Duncan MD","type":"doctor","phone":"(850) 877-9355","city":"Tallahassee","state":"Florida","zipcode":"32308","slug":"duncan-stephen-md"},{"name":"Trulieve","type":"dispensary","phone":"(844) 878-5438","city":"Dunedin","state":"Florida","zipcode":"33755","slug":"trulieve-dunedin"},{"name":"Truman Medical Center","type":"doctor","phone":"(305) 296-4399","city":"Key West","state":"Florida","zipcode":"33040","slug":"truman-medical-center"},{"name":"Columbia Care Dispensary Stuart","type":"dispensary","phone":"(772) 678-3958","city":"Stuart","state":"Florida","zipcode":"34997","slug":"columbia-care-dispensary-stuart"},{"name":"The Flowery - Daytona Beach [Delivery on Mon + Wed]","type":"delivery","phone":"305-912-2929","city":"Daytona Beach","state":"Florida","zipcode":"32114","slug":"the-flowery-11"},{"name":"Trulieve Orlando South","type":"dispensary","phone":"4078459037","city":"Orlando","state":"Florida","zipcode":"32837","slug":"trulieve-orlando-south"},{"name":"Medical Marijuana Treatment Clinics of Florida","type":"doctor","phone":"(850) 906-5000","city":"Bradenton","state":"Florida","zipcode":"34210","slug":"medical-marijuana-treatment-clinics-of-florida-8ab2c0fa-d606-4558-aad3-d1d600e12bcd"},{"name":"Surterra Wellness Center - St. Petersburg","type":"dispensary","phone":"(727) 295-0001","city":"St. Petersburg","state":"Florida","zipcode":"33704","slug":"surterra-wellness-center-st-petersburg"},{"name":"Marijuana Doctor - Fort Lauderdale","type":"doctor","phone":"844 442-0362","city":"Fort Lauderdale","state":"Florida","zipcode":"33317","slug":"marijuana-doctor-4"},{"name":"The Neurology Group in Miami","type":"doctor","phone":"(305) 596-2080","city":"Miami","state":"Florida","zipcode":"33176","slug":"the-neurology-group-in-miami"},{"name":"Elite Evaluations","type":"doctor","phone":"(877) 811-7873","city":"Plantation","state":"Florida","zipcode":"33322","slug":"elite-evaluations"},{"name":"VidaCann - Fort Lauderdale (Coming Soon)","type":"dispensary","phone":"(386) 281-3296","city":"Fort Lauderdale","state":"Florida","zipcode":"33308","slug":"vidacann-fort-lauderdale"},{"name":"Trulieve","type":"dispensary","phone":"(844) 878-5438","city":"Lazy Lake","state":"Florida","zipcode":"33305","slug":"trulieve-lazy-lake"},{"name":"MMJ Health","type":"doctor","phone":"(561) 631-7994","city":"Palm Beach Gardens","state":"Florida","zipcode":"33403","slug":"mmj-health"},{"name":"MMJ Doctor of Florida","type":"doctor","phone":"(954) 322-1110","city":"Pembroke Pines","state":"Florida","zipcode":"33029","slug":"mmj-doctor-of-america"},{"name":"West Coast Musculoskeletal Institute","type":"doctor","phone":"(352) 556-4823","city":"Brooksville","state":"Florida","zipcode":"34613","slug":"west-coast-musculoskeletal-institute"},{"name":"RISE Dispensaries Hallandale Beach","type":"dispensary","phone":"561-440-2360","city":"Hallandale Beach","state":"Florida","zipcode":"33009","slug":"rise-hallandale-beach"},{"name":"Miracle Leaf - Kendall","type":"doctor","phone":"(305) 456-6289","city":"Miami","state":"Florida","zipcode":"33180","slug":"miracle-leaf-3"},{"name":"Columbia Care Brandon","type":"dispensary","phone":"(813) 502-1122","city":"Brandon","state":"Florida","zipcode":"33511","slug":"columbia-care-brandon"},{"name":"Curaleaf North St. Petersburg","type":"dispensary","phone":"+1 727-228-3650","city":"St. Petersburg","state":"Florida","zipcode":"33703","slug":"curaleaf-north-st-petersburg"},{"name":"Miracle Leaf Doral","type":"doctor","phone":"(305) 640-5433","city":"Doral","state":"Florida","zipcode":"33178","slug":"miracle-leaf-2d58f2f5-8ddc-4e6f-a5ee-9980fd79b4bc"},{"name":"Surterra Wellness Center - Port St. Lucie","type":"dispensary","phone":"(772) 236-6036","city":"Port St. Lucie","state":"Florida","zipcode":"34952","slug":"surterra-wellness-port-st-lucie"},{"name":"Liberty Health Sciences - Gainesville (Newly Opened)","type":"dispensary","phone":"(833) 254-4877","city":"Gainesville","state":"Florida","zipcode":"32601","slug":"liberty-health-sciences-cannabis-education-center-gainesville"},{"name":"Trulieve - Orlando","type":"dispensary","phone":"(407) 286-1862","city":"Orlando","state":"Florida","zipcode":"32804","slug":"trulieve-orlando"},{"name":"Fluent - Orlando","type":"dispensary","phone":"(833) 735-8368","city":"Orlando","state":"Florida","zipcode":"32804","slug":"fluent-orlando"},{"name":"Liberty Health Sciences - Winter Haven","type":"dispensary","phone":"(863) 656-5777","city":"Winter Haven","state":"Florida","zipcode":"33880","slug":"liberty-health-sciences-cannabis-education-center-winter-haven"},{"name":"Trulieve Brandon","type":"dispensary","phone":"(813)680-3405","city":"Brandon","state":"Florida","zipcode":"33511","slug":"trulieve-brandon"},{"name":"DocMJ","type":"doctor","phone":"(888) 908-0143","city":"Vero Beach","state":"Florida","zipcode":"32960","slug":"docmj-8"},{"name":"Trulieve - Melbourne","type":"dispensary","phone":"(850) 512-1968","city":"Melbourne","state":"Florida","zipcode":"32904","slug":"trulieve-melbourne"},{"name":"Medical Marijuana Treatment Clinics of Florida","type":"doctor","phone":"8509065000","city":"Tampa","state":"Florida","zipcode":"32303","slug":"medical-marijuana-treatment-clinics-of-florida-77617999"},{"name":"Canna MD","type":"doctor","phone":"855-420-9170","city":"West Palm Beach","state":"Florida","zipcode":"33401","slug":"canna-md-4"},{"name":"Cannabis Card Orlando","type":"doctor","phone":"(321) 392-6420","city":"Orlando","state":"Florida","zipcode":"32807","slug":"cannabis-card-orlando"},{"name":"Miracle Leaf - Central Tampa","type":"doctor","phone":"(813) 605-0191","city":"Tampa","state":"Florida","zipcode":"33612","slug":"miracle-leaf-health-centers"},{"name":"Curaleaf - Jacksonville","type":"dispensary","phone":" (904) 438-3290","city":"Jacksonville","state":"Florida","zipcode":"32210","slug":"curaleaf-jacksonville"},{"name":"Trulieve","type":"dispensary","phone":"(844) 878-5438","city":"Madeira Beach","state":"Florida","zipcode":"33708","slug":"trulieve-madeira-beach"},{"name":"The Flowery - The Florida Keys [Delivery on Fridays]","type":"delivery","phone":"305-912-2929","city":"Key West","state":"Florida","zipcode":"33040","slug":"the-flowery-2"},{"name":"CertifiedMarijuanaDoctors.com","type":"doctor","phone":"(786) 900-0068","city":"North Miami Beach","state":"Florida","zipcode":"33169","slug":"certified-marijuana-doctors"},{"name":"Access Marijuana RX","type":"doctor","phone":"(727) 209-5470","city":"St Petersburg","state":"Florida","zipcode":"33701","slug":"access-marijuana-rx"},{"name":"DocMJ","type":"doctor","phone":"(888) 908-0143","city":"St. Petersburg","state":"Florida","zipcode":"33702","slug":"docmj-781a29b8-19e0-43f1-80d6-c65a97cd4861"},{"name":"CannaMD - Marijuana Doctor","type":"doctor","phone":"855-420-9170","city":"Sarasota","state":"Florida","zipcode":"34240","slug":"cannamd-marijuana-doctor-5"},{"name":"Trulieve - Miami","type":"dispensary","phone":"(786) 600-3887","city":"Miami","state":"Florida","zipcode":"33142","slug":"trulieve-miami"},{"name":"Boca Raton Marijuana 420 Doctor","type":"doctor","phone":"800-714-4852","city":"Boca Raton","state":"Florida","zipcode":"33433","slug":"boca-raton-420-doctor"},{"name":"RXPO.COM","type":"doctor","phone":"(954) 326-0114","city":"North Miami Beach","state":"Florida","zipcode":"33169","slug":"rxpo-com-1"},{"name":"DocMJ","type":"doctor","phone":"(888) 908-0143","city":"Orlando","state":"Florida","zipcode":"32804","slug":"docmj-b43e5390-9c20-4156-a2d7-f6938227c3fe"},{"name":"Marijuana Doctor - Orange Park","type":"doctor","phone":"844-442-0362","city":"Orange Park","state":"Florida","zipcode":"33511","slug":"marijuanadoctor-com-orange-park"},{"name":"Tetra Health Centers","type":"doctor","phone":"(813) 898-8009","city":"St Petersburgh","state":"Florida","zipcode":"33701","slug":"tetra-health-centers-6"},{"name":"Surterra Wellness Center - Largo","type":"dispensary","phone":"(727) 205-4002","city":"Largo","state":"Florida","zipcode":"33778","slug":"surterra-wellness-center-largo"},{"name":"Fluent - Casselberry","type":"dispensary","phone":"(833) 735-8368","city":"Casselberry","state":"Florida","zipcode":"32707","slug":"fluent-casselberry"},{"name":"Rxpo.com","type":"doctor","phone":"(954) 326-0114","city":"Gainesville","state":"Florida","zipcode":"32609","slug":"rxpo-com-2"},{"name":"CannaMD","type":"doctor","phone":"855-420-9170","city":"Cape Coral","state":"Florida","zipcode":"33904","slug":"cannamd-8bae1e82-97cb-4908-af01-fc76202e4213"},{"name":"The Harvey Center for Integrative Medicine","type":"doctor","phone":"(941) 929-9355","city":"Sarasota","state":"Florida","zipcode":"34233","slug":"the-harvey-center-for-integrative-medicine"},{"name":"CalmEffect","type":"doctor","phone":"954-789-0482","city":"Coral Springs","state":"Florida","zipcode":"33067","slug":"calmeffect"},{"name":"Atlantic Coast Cannabis MD","type":"doctor","phone":"(386) 444-6464","city":"Edgewater","state":"Florida","zipcode":"32132","slug":"atlantic-coast-cannabis-md"},{"name":"Marijuana Doctor - Orange Park","type":"doctor","phone":"844 442-0362","city":"Orange Park","state":"Florida","zipcode":"32073","slug":"marijuana-doctor-26"},{"name":"MÜV - Jax Beach (Now Open!)","type":"dispensary","phone":"833-880-5420","city":"Jacksonville Beach","state":"Florida","zipcode":"32250","slug":"muv-jax-beach-now-open"},{"name":"Fluent - Tampa","type":"dispensary","phone":"(833) 735-8368","city":"Tampa","state":"Florida","zipcode":"33609","slug":"fluent-tampa"},{"name":"Medical Cannabis Clinics of Florida","type":"doctor","phone":"(561) 246-4020","city":"Delray Beach","state":"Florida","zipcode":"33484","slug":"medical-cannabis-clinics-of-florida"},{"name":"KindHealth","type":"doctor","phone":"(786) 953-6838","city":"Miami","state":"Florida","zipcode":"33138","slug":"kindhealth"},{"name":"Cannabis Theory's","type":"doctor","phone":"(941) 600-9055","city":"Sarasota","state":"Florida","zipcode":"34237","slug":"cannabis-theory-s"},{"name":"RISE Dispensaries Pinellas Park","type":"dispensary","phone":"(727) 275-1933","city":"Pinellas Park","state":"Florida","zipcode":"33781","slug":"rise-pinellas-park"},{"name":"Trulieve - Key West","type":"dispensary","phone":"844-878-5438","city":"Key West","state":"Florida","zipcode":"33040","slug":"trulieve-key-west"},{"name":"DocMJ","type":"doctor","phone":"(888) 908-0143","city":"New Port Richey","state":"Florida","zipcode":"34652","slug":"docmj-new-port-richey"},{"name":"Columbia Care Orlando","type":"dispensary","phone":"(407) 843-3445","city":"Orlando","state":"Florida","zipcode":"32817","slug":"columbia-care-orlando"},{"name":"Florida Medical Marijuana Doctors","type":"doctor","phone":"800-620-2027","city":"Gainesville","state":"Florida","zipcode":"32601","slug":"florida-420-doctor-11"},{"name":"Imperium Ally Medical Services","type":"doctor","phone":"(904) 565-1271","city":"Jacksonville","state":"Florida","zipcode":"32225","slug":"imperium-ally-medical-services"},{"name":"Columbia Care Cape Coral","type":"dispensary","phone":"239-347-4574","city":"Cape Coral","state":"Florida","zipcode":"33990","slug":"columbia-care-cape-coral"},{"name":"MÜV - Orlando","type":"dispensary","phone":"833-880-5420","city":"Orlando","state":"Florida","zipcode":"32801","slug":"muv-orlando"},{"name":"Alternative Medical Centers of America","type":"doctor","phone":"(877) 603-4420 ","city":"Orange Park","state":"Florida","zipcode":"32073","slug":"alternative-medical-centers-of-america"},{"name":"Trulieve - Dadeland","type":"dispensary","phone":"(305) 768-1535","city":"Miami","state":"Florida","zipcode":"33156","slug":"trulieve-miami-dadeland"},{"name":"LAKE CONWAY PRIMARY CARE CLINIC","type":"doctor","phone":"(407) 851-2790","city":"Orlando","state":"Florida","zipcode":"32812","slug":"lake-conway-primary-care-clinic"},{"name":"Medical Marijuana Treatment Clinics of Florida","type":"doctor","phone":"(850) 906-5000","city":"Kissimmee","state":"Florida","zipcode":"34491","slug":"medical-marijuana-treatment-clinics-of-florida-22"},{"name":"MÜV - Longwood (Now Open)","type":"dispensary","phone":"(407) 502-4059","city":"Longwood","state":"Florida","zipcode":"32750","slug":"muv-longwood"},{"name":"Affordable Marijuana License Clinic","type":"doctor","phone":"(904) 586-0041","city":"Jacksonville","state":"Florida","zipcode":"32207","slug":"affordable-marijuana-license-clinic"},{"name":"Surterra Wellness Center - Bonita Springs","type":"dispensary","phone":"(239) 908-4818","city":"Bonita Springs","state":"Florida","zipcode":"34135","slug":"surterra-wellness-center-bonita-springs"},{"name":"Marijuana Doctor - Sarasota","type":"doctor","phone":"844-442-0362","city":"Sarasota","state":"Florida","zipcode":"34232","slug":"marijuana-doctor-30"},{"name":"Miracle Leaf - Davie","type":"doctor","phone":"(954) 241-3400","city":"Davie","state":"Florida","zipcode":"33314","slug":"miracle-leaf-1"},{"name":"Jupiter Medical Marijuana 420 Doctor","type":"doctor","phone":"800-714-4852","city":"Jupiter","state":"Florida","zipcode":"33458","slug":"jupiter-medical-marijuana-420-doctor"},{"name":"Marijuana Doctor-Lehigh Acres","type":"doctor","phone":"844 442 0362","city":"Lehigh Acres","state":"Florida","zipcode":"33936","slug":"marijuana-doctor-lehigh-acres"},{"name":"My Florida Green","type":"doctor","phone":"(833) 665-3279","city":"Naples","state":"Florida","zipcode":"34104","slug":"my-florida-green"},{"name":"Surterra Wellness Center - North Palm Beach","type":"dispensary","phone":"(561) 781-5570","city":"North Palm Beach","state":"Florida","zipcode":"33408","slug":"surterra-wellness-center-north-palm-beach"},{"name":"Miracle Leaf Miami Shores","type":"doctor","phone":"3059124432","city":"Miami","state":"Florida","zipcode":"33161","slug":"miracle-leaf-miami-shores"},{"name":"MÜV Dispensary Lakeland","type":"dispensary","phone":"833-880-5420","city":"Lakeland","state":"Florida","zipcode":"33801","slug":"muv-dispensary-lakeland"},{"name":"Trulieve","type":"dispensary","phone":"(844) 878-5438","city":"Clearwater","state":"Florida","zipcode":"33765","slug":"trulieve-clearwater-west"},{"name":"DocMJ","type":"doctor","phone":"(888) 908-0143","city":"Clearwater","state":"Florida","zipcode":"33763","slug":"docmj-4"},{"name":"DocMJ","type":"doctor","phone":"(888) 908-0143","city":"West Palm Beach","state":"Florida","zipcode":"33409","slug":"docmj-11"},{"name":"Medical Marijuana Treatment Clinics of Florida","type":"doctor","phone":"8509065000","city":"Fernandina Beach","state":"Florida","zipcode":"32034","slug":"medical-marijuana-treatment-clinics-of-florida-77618000"},{"name":"Tetra Health Centers","type":"doctor","phone":"(813) 898-8009","city":"Tampa","state":"Florida","zipcode":"33607","slug":"tetra-health-centers-5"},{"name":"MÜV - Clearwater (Now Open)","type":"dispensary","phone":"(833) 880-5420","city":"Clearwater","state":"Florida","zipcode":"33761","slug":"muv-clearwater"},{"name":"Trulieve - The Villages","type":"dispensary","phone":"(352) 240-3805","city":"The Villages","state":"Florida","zipcode":"32159","slug":"trulieve-the-villages"},{"name":"Center for Addiction and Pain Management","type":"doctor","phone":"(352) 404-8160","city":"Clermont","state":"Florida","zipcode":"34711","slug":"center-for-addiction-and-pain-management"},{"name":"Cannabis Doc","type":"doctor","phone":"813-501-4777","city":"Zephyrhills","state":"Florida","zipcode":"33542","slug":"cannabis-doc-1"},{"name":"DocMJ","type":"doctor","phone":"(888) 908-0143","city":"Fort Lauderdale","state":"Florida","zipcode":"33308","slug":"docmj-7"},{"name":"DocMJ","type":"doctor","phone":"(888) 908-0143","city":"Miami Gardens","state":"Florida","zipcode":"33055","slug":"docmj-26"},{"name":"DocMJ","type":"doctor","phone":"(888) 908-0143","city":"Panama City","state":"Florida","zipcode":"32405","slug":"docmj-27"},{"name":"Curaleaf - Palm Harbor","type":"dispensary","phone":"(727) 288-9922","city":"Palm Harbor","state":"Florida","zipcode":"34683","slug":"curaleaf-palm-harbor"},{"name":"High Life Medical Center","type":"doctor","phone":"954-362-4143","city":"Tamarac","state":"Florida","zipcode":"33321","slug":"high-life-medical-center-2"},{"name":"Canna Plus Health","type":"doctor","phone":"(561) 675-9400","city":"West Palm Beach","state":"Florida","zipcode":"33401","slug":"canna-plus-health"},{"name":"Columbia Care Miami Pinelake","type":"dispensary","phone":"(305) 692-0317","city":"Miami","state":"Florida","zipcode":"33186","slug":"columbia-care-miami-pinelake"},{"name":"Marijuana Doctor - Tampa","type":"doctor","phone":"(844) 442-0362","city":"Tampa","state":"Florida","zipcode":"33629","slug":"marijuana-doctor-24"},{"name":"MÜV - Tampa","type":"dispensary","phone":"(813) 437-6550","city":"Tampa","state":"Florida","zipcode":"33614","slug":"muv-tampa"},{"name":"Marijuana Doctor - Margate","type":"doctor","phone":"844 442-0362","city":"Margate","state":"Florida","zipcode":"33073","slug":"marijuana-doctor-19"},{"name":"Marijuana Doctor-Orlando","type":"doctor","phone":"844 442 0362","city":"Orlando","state":"Florida","zipcode":"32837","slug":"marijuana-doctor-orlando"},{"name":"Miracle Leaf Hollywood","type":"doctor","phone":"9549060181","city":"Hollywood","state":"Florida","zipcode":"33314","slug":"miracle-leaf-hollywood"},{"name":"Liberty Health Sciences - Summerfield","type":"dispensary","phone":"(352) 307-2177","city":"Summerfield","state":"Florida","zipcode":"34491","slug":"liberty-health-sciences-cannabis-education-centers-the-villages"},{"name":"Miracle Leaf - Homestead","type":"doctor","phone":"(305) 514-0092","city":"Homestead","state":"Florida","zipcode":"33033","slug":"miracle-leaf-homestead"},{"name":"Trulieve - Pensacola","type":"dispensary","phone":"(850) 777-3360","city":"Pensacola","state":"Florida","zipcode":"32503","slug":"trulieve-pensacola"},{"name":"Palm Beach Family Associates Inc","type":"doctor","phone":"(561) 649-7532","city":"Greenacres","state":"Florida","zipcode":"33463","slug":"palm-beach-family-associates-inc"},{"name":"VidaCann - Jacksonville","type":"dispensary","phone":"(904) 337-0554","city":"Jacksonville","state":"Florida","zipcode":"32257","slug":"vidacann-jacksonville"},{"name":"Liberty Health Sciences - North Miami","type":"dispensary","phone":"(786) 598-2223","city":"Miami","state":"Florida","zipcode":"33161","slug":"liberty-health-sciences-biscayne"},{"name":"Curaleaf Sanford","type":"dispensary","phone":"407-531-8588","city":"Sanford","state":"Florida","zipcode":"32773","slug":"curaleaf-sanford"},{"name":"MMJ Health","type":"doctor","phone":"(561) 631-7994","city":"Stuart","state":"Florida","zipcode":"34994","slug":"mmj-health-2"},{"name":"CannaMD - Marijuana Doctor","type":"doctor","phone":"(855) 420-9170","city":"Orlando","state":"Florida","zipcode":"32835","slug":"cannamd-marijuana-doctor-4"},{"name":"Trulieve - Jacksonville Orange Park","type":"dispensary","phone":"904-204-0140","city":"Orange Park","state":"Florida","zipcode":"32073","slug":"trulieve-jacksonville-orange-park"},{"name":"Dr. Green Relief","type":"doctor","phone":"(239) 349-2999","city":"Fort Myers","state":"Florida","zipcode":"33901","slug":"dr-green-relief-2"},{"name":"Orlando Psychiatric Associates","type":"doctor","phone":"(407) 375-0480","city":"Orlando","state":"Florida","zipcode":"32809","slug":"orlando-psychiatric-associates-4"},{"name":"Miracle Leaf Health Centers","type":"doctor","phone":"(786) 953-8026","city":"Miami","state":"Florida","zipcode":"33127","slug":"miracle-leaf"},{"name":"Fluent - East Orlando","type":"dispensary","phone":"(833) 735-8368","city":"Orlando","state":"Florida","zipcode":"32817","slug":"fluent-east-orlando"},{"name":"Miracle Leaf - Key Largo","type":"doctor","phone":"(305) 854-9909","city":"Key Largo","state":"Florida","zipcode":"33037","slug":"miracle-leaf-key-largo"},{"name":"Medical Marijuana Treatment Clinics of Florida","type":"doctor","phone":"(850) 906-5000","city":"Winter Haven","state":"Florida","zipcode":"33880","slug":"medical-marijuana-treatment-clinics-of-florida-21"},{"name":"Trulieve - Venice","type":"dispensary","phone":"(941) 800-2003","city":"Venice","state":"Florida","zipcode":"34292","slug":"trulieve-venice"},{"name":"Rxpo.com","type":"doctor","phone":"(954) 326-0114","city":"Tampa","state":"Florida","zipcode":"33604","slug":"rxpo-com"},{"name":"VidaCann - West Palm Beach (Coming Soon)","type":"dispensary","phone":"(800) 977-1686","city":"West Palm Beach","state":"Florida","zipcode":"33415","slug":"vidacann-west-palm-beach"},{"name":"VidaCann - Miami (Coming Soon)","type":"dispensary","phone":"(800) 977-1686","city":"Miami","state":"Florida","zipcode":"33161","slug":"vidacann-miami"},{"name":"VidaCann - St Petersburg","type":"dispensary","phone":"(727) 289-1172","city":"St. Petersburg","state":"Florida","zipcode":"33702","slug":"vidacann-st-petersburg"},{"name":"Fluent - St. Petersburg","type":"dispensary","phone":"(833) 735-8368","city":"St. Petersburg","state":"Florida","zipcode":"33713","slug":"fluent-st-petersburg"},{"name":"DocMJ","type":"doctor","phone":"(888) 908-0143","city":"Gainesville","state":"Florida","zipcode":"32608","slug":"docmj-25"},{"name":"MedWell Health & Wellness","type":"doctor","phone":"7274404808","city":"Sarasota","state":"Florida","zipcode":"34232","slug":"medwell-health-wellness-15"},{"name":"Omni Medical Services","type":"doctor","phone":"(866) 417-2002","city":"Brandon","state":"Florida","zipcode":"33511","slug":"omni-medical-services-11"},{"name":"The Flowery - Palm Bay [Delivery on Mon + Thurs]","type":"delivery","phone":"305-912-2929","city":"Palm Bay","state":"Florida","zipcode":"32907","slug":"the-flowery-8"},{"name":"Curaleaf - Bonita Springs","type":"dispensary","phone":"(239) 256-3671","city":"Bonita Springs","state":"Florida","zipcode":"34135","slug":"curaleaf-bonita-springs"},{"name":"Curaleaf Sarasota","type":"dispensary","phone":"941-957-9122","city":"Sarasota","state":"Florida","zipcode":"34239","slug":"curaleaf-sarasota"},{"name":"Coral Gables Medical Marijuana Doctors","type":"doctor","phone":"(305) 915-0020","city":"Coral Gables","state":"Florida","zipcode":"33134","slug":"florida-medical-marijuana-doctors"},{"name":"Trulieve - Vero Beach","type":"dispensary","phone":"(844) 878-5438","city":"Vero Beach","state":"Florida","zipcode":"32960","slug":"trulieve-vero-beach"},{"name":"CalmEffect","type":"doctor","phone":"954-789-0482","city":"Orlando","state":"Florida","zipcode":"32826","slug":"calmeffect-1"},{"name":"Miracle Leaf Davie West","type":"doctor","phone":"9542565233","city":"Davie","state":"Florida","zipcode":"33324","slug":"miracle-leaf-davie-west"},{"name":"Marijuana Doctor - Lake Worth","type":"doctor","phone":"844 442-0362","city":"Lake Worth","state":"Florida","zipcode":"33460","slug":"marijuana-doctor-10"},{"name":"CannaMD","type":"doctor","phone":"855-420-9170","city":"Lake Mary","state":"Florida","zipcode":"32746","slug":"cannamd-9"},{"name":"Curaleaf - Titusville","type":"dispensary","phone":"(321) 567-1212","city":"Titusville","state":"Florida","zipcode":"32796","slug":"curaleaf-titusville"},{"name":"Trulieve - Clearwater Beach","type":"dispensary","phone":"844-878-5438","city":"Clearwater Beach","state":"Florida","zipcode":"33767","slug":"trulieve-clearwater"},{"name":"DocMJ","type":"doctor","phone":"(888) 908-0143","city":"Tallahassee","state":"Florida","zipcode":"32301","slug":"docmj-2"},{"name":"Bud Doc","type":"doctor","phone":"(787) 238-7736","city":"Miramar","state":"Florida","zipcode":"33029","slug":"bud-doc"},{"name":"New Medicine Foundation","type":"doctor","phone":"(772) 237-9443","city":"Hobe Sound","state":"Florida","zipcode":"33455","slug":"new-medicine-foundation"},{"name":"Miracle Leaf - Fruitland Park","type":"doctor","phone":"(352) 435 - 7078","city":"Fruitland Park","state":"Florida","zipcode":"34731","slug":"miracle-leaf-fruitland-park"},{"name":"John Bailey","type":"doctor","phone":"(352) 224-2370","city":"Gainesville","state":"Florida","zipcode":"32605","slug":"john-bailey"},{"name":"Tetra Health Centers","type":"doctor","phone":"(727) 351-5117","city":"Clearwater","state":"Florida","zipcode":"33759","slug":"tetra-health-centers-3"},{"name":"Trulieve - Dania Beach","type":"dispensary","phone":"(844) 878-5438","city":"Dania Beach","state":"Florida","zipcode":"33004","slug":"trulieve-dania-beach"},{"name":"Surterra Wellness Center - Orange Park","type":"dispensary","phone":"(904) 385-8388","city":"Orange Park","state":"Florida","zipcode":"32073","slug":"surterra-wellness-center-orange-park"},{"name":"MMJ Health","type":"doctor","phone":"5616317994","city":"Boca Raton","state":"Florida","zipcode":"33498","slug":"mmj-health-7"},{"name":"Trulieve - Stuart","type":"dispensary","phone":"844-878-5438","city":"Stuart","state":"Florida","zipcode":"34994","slug":"trulieve-stuart"},{"name":"Marijuana Care Clinic","type":"doctor","phone":"(407) 751-5005","city":"Orlando","state":"Florida","zipcode":"32806","slug":"marijuana-care-clinic"},{"name":"Columbia Care St. Augustine","type":"dispensary","phone":"(904) 830-0011","city":"St Augustine","state":"Florida","zipcode":"32084","slug":"columbia-care-st-augustine"},{"name":"New Age Medical Centers","type":"doctor","phone":"(352) 596-9095","city":"Brooksville","state":"Florida","zipcode":"34613","slug":"new-age-medical-centers"},{"name":"Triverde Health","type":"doctor","phone":"(727) 322-4588","city":"St. Petersburg","state":"Florida","zipcode":"33706","slug":"triverde-health"},{"name":"Medical Marijuana Card Doctors Hollywood Easy Clinic","type":"doctor","phone":"(754) 465-5607","city":"Hollywood","state":"Florida","zipcode":"33020","slug":"medical-marijuana-card-doctors-hollywood-easy-clinic-3"},{"name":"High Life Medical Centers","type":"doctor","phone":"(754) 210-5873","city":"Pembroke Pines","state":"Florida","zipcode":"33026","slug":"high-life-medical-centers-3"},{"name":"Florida Medical Marijuana Doctors","type":"doctor","phone":"(786) 708-5950","city":"Miami Beach","state":"Florida","zipcode":"33109","slug":"florida-420-doctor-2"},{"name":"DocMJ","type":"doctor","phone":"(888) 908-0143","city":"Brandon","state":"Florida","zipcode":"33511","slug":"docmj-22"},{"name":"DocMJ","type":"doctor","phone":"(888) 908-0143","city":"Jacksonville","state":"Florida","zipcode":"32207","slug":"doc-mj-3"},{"name":"Gulf States Pharmaceutical","type":"doctor","phone":"8447538443","city":"Panama City","state":"Florida","zipcode":"32401","slug":"gulf-states-pharmaceutical"},{"name":"Trulieve Fort Lauderdale","type":"dispensary","phone":"(844) 878-5438","city":"Fort Lauderdale","state":"Florida","zipcode":"33301","slug":"trulieve-fort-lauderdale"},{"name":"PBG Medical","type":"doctor","phone":"(561) 444-8471","city":"Palm Beach Gardens","state":"Florida","zipcode":"33410","slug":"palm-beach-gardens-medical"},{"name":"Fluent- Jacksonville","type":"dispensary","phone":"(833) 735-8368","city":"Jacksonville","state":"Florida","zipcode":"32257","slug":"knox-medical-jacksonville"},{"name":"Curaleaf - Fort Myers","type":"dispensary","phone":" (239) 244-9629","city":"Fort Myers","state":"Florida","zipcode":"33901","slug":"curaleaf-fort-myers"},{"name":"Omni Medical Services","type":"doctor","phone":"866-417-2002","city":"Fort Myers","state":"Florida","zipcode":"34135","slug":"omni-medical-services-8"},{"name":"Surterra Wellness Center – North Port","type":"dispensary","phone":"(850) 391-5455","city":"North Port","state":"Florida","zipcode":"34287","slug":"surterra-wellness-center-north-port"},{"name":"Liberty Health Sciences - Merritt Island","type":"dispensary","phone":"(833) 254-4877","city":"Merritt Island","state":"Florida","zipcode":"32953","slug":"liberty-health-sciences-cannabis-education-center-merritt-island"},{"name":"High Life Medical Center","type":"doctor","phone":"954-362-4143","city":"Hollywood","state":"Florida","zipcode":"33024","slug":"high-life-medical-center"},{"name":"Liberty Health Sciences - Cape Coral","type":"dispensary","phone":"(239) 230-2377","city":"Cape Coral","state":"Florida","zipcode":"33904","slug":"liberty-health-sciences-cape-coral"},{"name":"East County Internal Medicine","type":"doctor","phone":"(941) 727-7771","city":"Bradenton","state":"Florida","zipcode":"34203","slug":"east-county-internal-medicine"},{"name":"Omni Medical Services","type":"doctor","phone":"(561) 703-0353","city":"Gainesville","state":"Florida","zipcode":"32601","slug":"omni-medical-services-6"},{"name":"Curaleaf - Tallahassee","type":"dispensary","phone":"(850) 848-4768","city":"Tallahassee","state":"Florida","zipcode":"32303","slug":"curaleaf-tallahassee"},{"name":"Medical Marijuana Treatment Clinics of Florida","type":"doctor","phone":"(850) 906-5000","city":"Lakeland","state":"Florida","zipcode":"33803","slug":"medical-marijuana-treatment-clinics-of-florida-3"},{"name":"Miami Aid Wellness","type":"doctor","phone":"(305) 928-5541","city":"Miami","state":"Florida","zipcode":"33174","slug":"miami-aid-wellness-4"},{"name":"Allan Zubkin MD","type":"doctor","phone":"(407) 405-1055","city":"Tavares","state":"Florida","zipcode":"32778","slug":"allan-zubkin-md"},{"name":"Omni Medical Services","type":"doctor","phone":"(866) 417-2002","city":"Tallahassee","state":"Florida","zipcode":"32308","slug":"omni-medical-services-16"},{"name":"Medmar Releaf Clinic","type":"doctor","phone":"(386) 487-4204","city":"Mount Dora","state":"Florida","zipcode":"32757","slug":"medmar-releaf-clinic"},{"name":"Liberty Health Sciences - Orange Park","type":"dispensary","phone":"(904) 449-7765","city":"Orange Park","state":"Florida","zipcode":"32073","slug":"liberty-health-sciences-orange-park"},{"name":"MedWell Health & Wellness","type":"doctor","phone":"7274404808","city":"Bradenton","state":"Florida","zipcode":"34210","slug":"medwell-health-wellness-16"},{"name":"Liberty Health Sciences - St Petersburg","type":"dispensary","phone":"(727) 256-2367","city":"St Petersburg","state":"Florida","zipcode":"33701","slug":"liberty-health-sciences-cannabis-education-center-st-petersburg"},{"name":"Compassionate Medical Cannabis Care","type":"doctor","phone":"(813) 641-0007","city":"Apollo Beach","state":"Florida","zipcode":"33572","slug":"compassionate-medical-cannabis-care"},{"name":"Curaleaf Brandon","type":"dispensary","phone":"+1 813-330-2770","city":"Brandon","state":"Florida","zipcode":"33511","slug":"curaleaf-brandon"},{"name":"Canna Wellness Clinics","type":"doctor","phone":"(561) 877-6130","city":"Boynton Beach","state":"Florida","zipcode":"33435","slug":"canna-wellness-clinics-2"},{"name":"MedMen St. Petersburg - 5th Ave N.","type":"dispensary","phone":"727-914-9393","city":"St. Petersburg","state":"Florida","zipcode":"33701","slug":"medmen-st-petersburg-5th-ave-n"},{"name":"Trulieve - Destin","type":"dispensary","phone":"(844) 878-5438","city":"Destin","state":"Florida","zipcode":"32541","slug":"trulieve-destin"},{"name":"One Plant Jacksonville Beach","type":"dispensary","phone":"877-308-3344","city":"Jacksonville Beach","state":"Florida","zipcode":"32250","slug":"one-plant-jacksonville"},{"name":"Trulieve - Sarasota","type":"dispensary","phone":"(941) 444-6845","city":"Sarasota","state":"Florida","zipcode":"34232","slug":"trulieve-sarasota"},{"name":"Vincenzo Perrone","type":"doctor","phone":"(941) 705-0011","city":"Bradenton","state":"Florida","zipcode":"34209","slug":"vincenzo-perrone"},{"name":"Marijuana Doctor - Brandon","type":"doctor","phone":"(844) 442-0362","city":"Brandon","state":"Florida","zipcode":"33511","slug":"marijuana-doctor-23"},{"name":"CannaCare Wellness","type":"doctor","phone":"(407) 993-1420","city":"Winter Garden","state":"Florida","zipcode":"34787","slug":"cannacare-wellness"},{"name":"Dr. Todd Jaffe","type":"doctor","phone":"(321) 757-0577","city":"Melbourne","state":"Florida","zipcode":"32940","slug":"dr-todd-jaffe"},{"name":"Curaleaf Jacksonville San Jose","type":"dispensary","phone":"+1 904-431-7535","city":"Jacksonville","state":"Florida","zipcode":"32257","slug":"curaleaf-jacksonville-san-jose"},{"name":"Columbia Care Bradenton","type":"dispensary","phone":"(941) 216-7838","city":"Bradenton","state":"Florida","zipcode":"34207","slug":"columbia-care-bradenton"},{"name":"Florida Medical Marijuana Doctors","type":"doctor","phone":"800-620-2027","city":"Tallahassee","state":"Florida","zipcode":"32301","slug":"florida-420-doctor-7"},{"name":"Emerald Medical Center - Fort Myers","type":"doctor","phone":"(239) 202-0606","city":"Ft Myers","state":"Florida","zipcode":"33908","slug":"emerald-medical-center-fort-myers"},{"name":"MedMen Pensacola - Bayou Blvd.","type":"dispensary","phone":"850-361-3920","city":"Pensacola","state":"Florida","zipcode":"32503","slug":"medmen-pensacola-bayou-blvd"},{"name":"Pensacola Marijuana 420 Doctor","type":"doctor","phone":"(850) 454-4362","city":"Pensacola","state":"Florida","zipcode":"32504","slug":"florida-420-doctor-6"},{"name":"Curaleaf - Gainesville","type":"dispensary","phone":"(352) 900-3955","city":"Gainesville","state":"Florida","zipcode":"32608","slug":"curaleaf-gainesville"},{"name":"My Florida Green","type":"doctor","phone":"(833) 665-3279","city":"St. Petersburg","state":"Florida","zipcode":"33705","slug":"my-florida-green-3"},{"name":"Trulieve","type":"dispensary","phone":"(844) 878-5438","city":"North Miami","state":"Florida","zipcode":"33154","slug":"trulieve-north-miami"},{"name":"GreenMedMD","type":"doctor","phone":"(561) 254-8130","city":"Boca Raton","state":"Florida","zipcode":"33487","slug":"greenmedmd"},{"name":"Surterra Wellness Center - South Miami","type":"dispensary","phone":"(786) 724-0054","city":"Miami","state":"Florida","zipcode":"33143","slug":"surterra-wellness-south-miami"},{"name":"Healthy Partners","type":"doctor","phone":"(800) 644-5019","city":"Fort Myers","state":"Florida","zipcode":"33901","slug":"healthy-partners-6"},{"name":"Medical Marijuana Treatment Clinics of Florida","type":"doctor","phone":"(850) 906-5000","city":"Naples","state":"Florida","zipcode":"34102","slug":"medical-marijuana-treatment-clinics-of-florida-6658e563-da92-4c55-adef-acb286966200"},{"name":"Liberty Health Sciences - Miami","type":"dispensary","phone":"(786) 598-2022","city":"Miami","state":"Florida","zipcode":"33155","slug":"liberty-health-sciences-cannabis-miami"},{"name":"Curaleaf","type":"dispensary","phone":"(786) 605-0844","city":"Miami","state":"Florida","zipcode":"33166","slug":"curaleaf-nw-miami"},{"name":"Miracle Leaf Las Olas","type":"doctor","phone":"9542129660","city":"Fort Lauderdale","state":"Florida","zipcode":"33301","slug":"miracle-leaf-las-olas"},{"name":"MD4Cannabis","type":"doctor","phone":"(305) 760-9142","city":"Aventura","state":"Florida","zipcode":"33180","slug":"md4cannabis"},{"name":"Surterra Wellness Center - Miami Beach","type":"dispensary","phone":"(786) 353-0636","city":"Miami Beach","state":"Florida","zipcode":"33139","slug":"surterra-wellness-center-miami-beach"},{"name":"Frank Alario MD & Associates","type":"doctor","phone":"(772) 888-2545","city":"Stuart","state":"Florida","zipcode":"34994","slug":"frank-alario-md-associates"},{"name":"MMJ Health","type":"doctor","phone":"5616317994","city":"Boynton Beach","state":"Florida","zipcode":"33426","slug":"mmj-health-6"},{"name":"Surterra Wellness Center - Ocala","type":"dispensary","phone":"(352) 484-0094","city":"Ocala","state":"Florida","zipcode":"34481","slug":"surterra-wellness-ocala"},{"name":"DocMJ","type":"doctor","phone":"(888) 908-0143","city":"New Port Richey","state":"Florida","zipcode":"34655","slug":"docmj"},{"name":"Bud Doc","type":"doctor","phone":"(800) 652-0592","city":"Lake Mary","state":"Florida","zipcode":"32746","slug":"bud-doc-2"},{"name":"Kissimmee 420 Marijuana Doctor","type":"doctor","phone":"(407) 222-4381","city":"Kissimmee","state":"Florida","zipcode":"34744","slug":"kissimmee-420-marijuana-doctor"},{"name":"Fluent - Tallahassee","type":"dispensary","phone":"(833) 735-8368","city":"Tallahassee","state":"Florida","zipcode":"32303","slug":"fluent-tallahassee"},{"name":"Miracle Leaf West Palm Beach - Southern Blvd","type":"doctor","phone":"5612344460","city":"West Palm Beach","state":"Florida","zipcode":"33411","slug":"miracle-leaf-west-palm-beach"},{"name":"Hill Orthopedic Center","type":"doctor","phone":"(407) 930-1673","city":"Orlando","state":"Florida","zipcode":"32837","slug":"hill-orthopedic-center"},{"name":"Curaleaf","type":"dispensary","phone":" (786) 605-0830","city":"Miami","state":"Florida","zipcode":"33169","slug":"curaleaf-north-miami"},{"name":"Rxpo.com","type":"doctor","phone":"(954) 326-0114","city":"Casselberry","state":"Florida","zipcode":"32707","slug":"rxpo-com-3"},{"name":"Surterra Wellness Center - Palm Bay","type":"dispensary","phone":"(321) 419-1001","city":"Palm Bay","state":"Florida","zipcode":"32907","slug":"surterra-wellness-center-palm-bay"},{"name":"VidaCann - Port Charlotte","type":"dispensary","phone":"(941) 883-2107","city":"Port Charlotte","state":"Florida","zipcode":"33948","slug":"vidacann-port-charlotte"},{"name":"Medical Marijuana Treatment Clinics of Florida","type":"doctor","phone":"(850) 906-5000","city":"Panama City Beach","state":"Florida","zipcode":"32407","slug":"medical-marijuana-treatment-clinics-of-florida-19"},{"name":"Omni Medical Services","type":"doctor","phone":"(866) 417-2002","city":"Clearwater","state":"Florida","zipcode":"33759","slug":"omni-medical-services-15"},{"name":"Curaleaf - Lake Worth","type":"dispensary","phone":"(561) 612-4455","city":"Lake Worth","state":"Florida","zipcode":"33460","slug":"curaleaf-lake-worth"},{"name":"Advance Preventive Medicine Urgent Care Orlando","type":"doctor","phone":"(407) 845-8623","city":"Orlando","state":"Florida","zipcode":"32801","slug":"advance-preventive-medicine-urgent-care-orlando"},{"name":"Miracle Leaf Downtown Orlando","type":"doctor","phone":"3214302060","city":"Orlando","state":"Florida","zipcode":"32806","slug":"miracle-leaf-downtown-orlando"},{"name":"Columbia Care Melbourne","type":"dispensary","phone":"(321) 294-4465","city":"Melbourne","state":"Florida","zipcode":"32940","slug":"columbia-care-melbourne"},{"name":"Fluent - Jacksonville Atlantic","type":"dispensary","phone":"(833) 735-8368","city":"Jacksonville","state":"Florida","zipcode":"32225","slug":"fluent-jacksonville-atlantic"},{"name":"DocMJ","type":"doctor","phone":"(888) 908-0143","city":"The Villages","state":"Florida","zipcode":"32159","slug":"docmj-dd7c8d58-1a60-44b7-9367-b5c31fdc62ba"},{"name":"Omni Medical Services","type":"doctor","phone":"866-417-2002","city":"Pensacola","state":"Florida","zipcode":"32505","slug":"omni-medical-services-7"},{"name":"Florida Medical Specialty Group","type":"doctor","phone":"(561) 331-5858","city":"Boca Raton","state":"Florida","zipcode":"33432","slug":"florida-medical-specialty-group"},{"name":"Rejuvaline Medspa","type":"doctor","phone":"(305) 266-0006","city":"Miami","state":"Florida","zipcode":"33155","slug":"rejuvaline-medspa-2"},{"name":"The Flowery - Tampa [Delivery on Tues + Thurs]","type":"delivery","phone":"305-912-2929","city":"Tampa","state":"Florida","zipcode":"33601","slug":"the-flowery-6"},{"name":"Southern Comfort Marijuana Clinic","type":"doctor","phone":"(772) 218-7262","city":"Port St Lucie","state":"Florida","zipcode":"34983","slug":"southern-comfort-marijuana-clinic"},{"name":"Miracle Leaf - South Miami","type":"doctor","phone":"(786) 703-4729","city":"South Miami","state":"Florida","zipcode":"33143","slug":"miracle-leaf-south-miami"},{"name":"Dr. Nomen Azeem","type":"doctor","phone":"(813) 333-1353","city":"Sebring","state":"Florida","zipcode":"33870","slug":"dr-nomen-azeem"},{"name":"Trulieve Tampa Hills (Now Open)","type":"dispensary","phone":"(813) 774-4961","city":"Tampa","state":"Florida","zipcode":"33614","slug":"trulieve-tampa-hills"},{"name":"Ask Doctor Lyn","type":"doctor","phone":"(305) 487-0902","city":"Davie","state":"Florida","zipcode":"33328","slug":"ask-doctor-lyn-www-askdoctorlyn-com"},{"name":"Neurology Relief - Get My Cannabis Card","type":"doctor","phone":"(239) 264-3072","city":"Ft. Myers","state":"Florida","zipcode":"33916","slug":"neurology-relief"},{"name":"Miracle Leaf - Dania Beach","type":"doctor","phone":"(954) 404-9524","city":"Dania Beach","state":"Florida","zipcode":"33004","slug":"miracle-leaf-dania-beach"},{"name":"Tetra Health Centers","type":"doctor","phone":"(813) 304-0283","city":"Tampa","state":"Florida","zipcode":"33613","slug":"tetra-health-centers-4"},{"name":"Medical Marijuana Treatment Clinics of Florida","type":"doctor","phone":"8509065000","city":"Tampa","state":"Florida","zipcode":"33629","slug":"medical-marijuana-treatment-clinics-of-florida-77448cc5-e02e-4892-926f-ede00ba162c3"},{"name":"Columbia Care Gainesville","type":"dispensary","phone":"3524151824","city":"Gainesville","state":"Florida","zipcode":"32601","slug":"columbia-care-gainesville"},{"name":"My Florida Green","type":"doctor","phone":"(833) 665-3279","city":"Palm Bay","state":"Florida","zipcode":"32904","slug":"my-florida-green-4"},{"name":"Trulieve - Bonita Springs","type":"dispensary","phone":"(844) 878-5438","city":"Bonita Springs","state":"Florida","zipcode":"34135","slug":"trulieve-bonita-springs"},{"name":"Trulieve Fernandina Beach","type":"dispensary","phone":"844-878-5438","city":"Fernandina Beach","state":"Florida","zipcode":"32034","slug":"trulieve-fernandina-beach"},{"name":"CannaMD","type":"doctor","phone":"(855) 420-9170","city":"Clearwater","state":"Florida","zipcode":"33760","slug":"cannamd-4b3d936c-7323-4df5-92a3-c7e1c850701b"},{"name":"Curaleaf West Palm Beach","type":"dispensary","phone":"+1 561-234-4425","city":"West Palm Beach","state":"Florida","zipcode":"33411","slug":"curaleaf-west-palm-beach"},{"name":"Miracle Leaf - Aventura","type":"doctor","phone":"(305) 414-1419","city":"North Miami Beach","state":"Florida","zipcode":"33160","slug":"miracle-leaf-3-1"},{"name":"Compassionate Health and Managed Pain","type":"doctor","phone":"(386) 944-9813","city":"Ormond Beach","state":"Florida","zipcode":"32174","slug":"compassionate-health-and-managed-pain"},{"name":"Trulieve Titusville","type":"dispensary","phone":"321-385-8001","city":"Titusville","state":"Florida","zipcode":"32780","slug":"trulieve-titusville"},{"name":"Tetra Health Centers","type":"doctor","phone":"(813) 278-8459","city":"Brandon","state":"Florida","zipcode":"33511","slug":"tetra-health-centers-2"},{"name":"Surterra Wellness Center – Deltona","type":"dispensary","phone":"(850) 391-5455","city":"Deltona","state":"Florida","zipcode":"32725","slug":"surterra-wellness-center-deltona"},{"name":"Orlando Marijuana Cannabis 420 Doctor","type":"doctor","phone":"(407) 600-6299","city":"Orlando","state":"Florida","zipcode":"32803","slug":"florida-420-doctor-9"},{"name":"Medmar Releaf Clinic","type":"doctor","phone":"386-487-4204","city":"Rockledge","state":"Florida","zipcode":"32955","slug":"medmar-releaf-clinic-3"},{"name":"Marijuana420Doctor.com","type":"doctor","phone":"800-620-2027","city":"Sunrise","state":"Florida","zipcode":"33323","slug":"marijuana-420-doctors"},{"name":"Neurology of Cannabis","type":"doctor","phone":"(941) 400-1211","city":"Sarasota","state":"Florida","zipcode":"34233","slug":"neurology-of-cannabis"},{"name":"Dr. Angel Carrasco","type":"doctor","phone":"(305) 266-0222","city":"Homestead","state":"Florida","zipcode":"33030","slug":"angel-carrasco-2"},{"name":"GreenStar Medical","type":"doctor","phone":"(407) 484-2261","city":"Lake Mary","state":"Florida","zipcode":"32746","slug":"greenstar-medical"},{"name":"MÜV - Jacksonville","type":"dispensary","phone":"(833) 880-5420","city":"Jacksonville","state":"Florida","zipcode":"32207","slug":"muv-jacksonville"},{"name":"The Wellness Institute of Downtown","type":"doctor","phone":"(239) 308-8217","city":"Fort Myers","state":"Florida","zipcode":"33901","slug":"the-wellness-institute-of-downtown"},{"name":"The Flowery - Port Charlotte [Delivery on Tues + Thurs]","type":"delivery","phone":"305-912-2929","city":"Port Charlotte","state":"Florida","zipcode":"33948","slug":"the-flowery-4"},{"name":"Miracle Leaf - Brandon","type":"doctor","phone":"(813) 856-5003","city":"Brandon","state":"Florida","zipcode":"33510","slug":"miracle-leaf-brandon"},{"name":"VidaCann - Pensacola","type":"dispensary","phone":"(850) 741-2895","city":"Pensacola","state":"Florida","zipcode":"32504","slug":"vidacann-pensacola"},{"name":"DocMJ","type":"doctor","phone":"(888) 908-0143","city":"Hialeah","state":"Florida","zipcode":"33012","slug":"docmj-3"},{"name":"Omni Medical Services","type":"doctor","phone":"(866) 417-2002","city":"Orlando","state":"Florida","zipcode":"32819","slug":"omni-medical-services-14"},{"name":"Miracle Leaf Margate","type":"doctor","phone":"9549069585","city":"Margate","state":"Florida","zipcode":"33068","slug":"miracle-leaf-margate"},{"name":"The Sanctuary Wellness Institute","type":"doctor","phone":"(863) 588-3186","city":"Lakeland","state":"Florida","zipcode":"33801","slug":"the-sanctuary-wellness-institute-16"},{"name":"Trulieve Brooksville","type":"dispensary","phone":"352-631-6575","city":"Brooksville","state":"Florida","zipcode":"34613","slug":"trulieve-brooksville"},{"name":"Florida Medical Marijuana Doctors","type":"doctor","phone":"800-714-4852","city":"Tampa Bay","state":"Florida","zipcode":"33602","slug":"florida-420-doctor-10"},{"name":"Trulieve - Pensacola","type":"dispensary","phone":"(850) 378-4468","city":"Pensacola","state":"Florida","zipcode":"32514","slug":"trulieve-pensacola-nine-mile"},{"name":"MMJ Health","type":"doctor","phone":"(561) 631-7994","city":"Port St Lucie","state":"Florida","zipcode":"34952","slug":"mmj-health-4"},{"name":"Dr Jay's Urgent Care","type":"doctor","phone":"(352) 512-9301","city":"Ocala","state":"Florida","zipcode":"34470","slug":"dr-jay-s-urgent-care"},{"name":"Trulieve - Clearwater","type":"dispensary","phone":"(727) 288-2540","city":"Clearwater","state":"Florida","zipcode":"33763","slug":"trulieve-2"},{"name":"Rene Perez DO","type":"doctor","phone":"(786) 373-7975","city":"Coral Gables","state":"Florida","zipcode":"33134","slug":"rene-perez-do"},{"name":"Miami Marijuana 420 Medical Doctor","type":"doctor","phone":"(305) 915-0020","city":"Miami","state":"Florida","zipcode":"33144","slug":"florida-420-doctor"},{"name":"Miracle Leaf San Marco","type":"doctor","phone":"9043858550","city":"Jacksonville","state":"Florida","zipcode":"32207","slug":"miracle-leaf-san-marco"},{"name":"Mobile Marijuana Doctor - Wellington","type":"doctor","phone":"(561) 779-0730","city":"Wellington","state":"Florida","zipcode":"33414","slug":"mobile-marijuana-doctor"},{"name":"Center for Health and Wellness","type":"doctor","phone":"(904) 476-1816","city":"Jacksonville","state":"Florida","zipcode":"32207","slug":"center-for-health-and-wellness"},{"name":"CertifiedMarijuanaDoctors.com","type":"doctor","phone":"(954) 909-0234","city":"Sunrise","state":"Florida","zipcode":"33323","slug":"certifiedmarijuanadoctors-com"},{"name":"RISE Dispensaries West Palm Beach","type":"dispensary","phone":"561-448-0020","city":"West Palm Beach","state":"Florida","zipcode":"33401","slug":"rise-west-palm-beach"},{"name":"Liberty Health Sciences - Ft. Lauderdale (Coming Soon)","type":"dispensary","phone":"(833) 254-4877","city":"Ft. Lauderdale","state":"Florida","zipcode":"33308","slug":"liberty-health-sciences-cannabis-education-center-ft-lauderdale"},{"name":"MMJ Health","type":"doctor","phone":"5616317994","city":"West Palm Beach","state":"Florida","zipcode":"33411","slug":"mmj-health-8"},{"name":"Tru-Relief MD","type":"doctor","phone":"407-965-6159","city":"Kissimmee","state":"Florida","zipcode":"34744","slug":"tru-relief-md-a3ee9c6d-2348-4861-8c5e-aefeecebacfc"},{"name":"The Flowery - Miami [FL Medical Patients Only]","type":"delivery","phone":"305-912-2929","city":"Homestead","state":"Florida","zipcode":"33030","slug":"the-flowery-1"},{"name":"Florida Medical Marijuana Doctors","type":"doctor","phone":"(800) 714-4852","city":"Plantation","state":"Florida","zipcode":"33317","slug":"florida-420-doctor-3"},{"name":"Alternative Medical Centers of America","type":"doctor","phone":"(877) 603-4420","city":"Davie","state":"Florida","zipcode":"33328","slug":"alternative-medical-centers-of-america-3"},{"name":"Village Medical Cannabis","type":"doctor","phone":"813-968-3344","city":"Tampa","state":"Florida","zipcode":"33618","slug":"village-medical-cannabis"},{"name":"Liberty Health Sciences - Ft. Myers (Coming Soon)","type":"dispensary","phone":"(833) 254-4877","city":"Ft. Myers","state":"Florida","zipcode":"33907","slug":"liberty-health-sciences-cannabis-education-center-ft-myers"},{"name":"Vero Beach 420 Medical Marijuana Doctor","type":"doctor","phone":"800-714-4852","city":"Vero Beach","state":"Florida","zipcode":"32960","slug":"vero-beach-420-medical-marijuana-doctor"},{"name":"RISE Dispensaries Oviedo","type":"dispensary","phone":"(407) 449-2230","city":"Oviedo","state":"Florida","zipcode":"32765","slug":"rise-oviedo"},{"name":"Canna MD","type":"doctor","phone":"855-420-9170","city":"Jacksonville","state":"Florida","zipcode":"32246","slug":"canna-md-6"},{"name":"Comfort Care Clinic","type":"doctor","phone":"(941) 225-2075","city":"Sarasota","state":"Florida","zipcode":"34233","slug":"comfort-care-clinic-3"},{"name":"Miami Aid Wellness","type":"doctor","phone":"(305) 928 5541","city":"Miami","state":"Florida","zipcode":"33133","slug":"miami-aid-wellness-2"},{"name":"Marijuana Doctor - Aventura","type":"doctor","phone":"844 442-0362","city":"Aventura","state":"Florida","zipcode":"33160","slug":"marijuana-doctor-6"},{"name":"Medical Cannabis Clinics of Florida","type":"doctor","phone":"(407) 603-8300","city":"Orlando","state":"Florida","zipcode":"32819","slug":"medical-cannabis-clinics-of-florida-3"},{"name":"THC - Total Holistic Center","type":"doctor","phone":"(561) 323-4994","city":"Lake Worth","state":"Florida","zipcode":"33467","slug":"dr-anya-temer-thc-total-holistic-center"},{"name":"The Flowery - Lakeland [Delivery on Tues + Thurs]","type":"delivery","phone":"305-912-2929","city":"Lakeland","state":"Florida","zipcode":"33801","slug":"the-flowery-7"},{"name":"4Health Medical Use Certifications","type":"doctor","phone":"(754) 529-4372","city":"Plantation","state":"Florida","zipcode":"33322","slug":"4health-2"},{"name":"Trulieve - West Palm Beach","type":"dispensary","phone":"(561) 366-2618","city":"West Palm Beach","state":"Florida","zipcode":"33409","slug":"trulieve-west-palm-beach"},{"name":"Curaleaf - Ft. Pierce","type":"dispensary","phone":"(772) 577-7762","city":"Ft. Pierce","state":"Florida","zipcode":"34982","slug":"curaleaf-ft-pierce"},{"name":"Comfort Care Clinic","type":"doctor","phone":"(386) 478-4877","city":"DeLand","state":"Florida","zipcode":"32720","slug":"comfort-care-clinic-2"},{"name":"The Flowery - St. Augustine [Delivery on Mon + Wed]","type":"delivery","phone":"305-912-2929","city":"St. Augustine","state":"Florida","zipcode":"32080","slug":"the-flowery-12"},{"name":"Comfort Care Clinic","type":"doctor","phone":"386-478-4877","city":"Daytona Beach","state":"Florida","zipcode":"32114","slug":"comfort-care-clinic-4"},{"name":"Curaleaf - Lutz","type":"dispensary","phone":"(813) 803-8188","city":"Lutz","state":"Florida","zipcode":"33548","slug":"curaleaf-lutz"},{"name":"DocMJ","type":"doctor","phone":"(888) 908-0143","city":"Tallahassee","state":"Florida","zipcode":"32303","slug":"doc-mj-2"},{"name":"Dr. Jose A. Cobiella, MD","type":"doctor","phone":"(786) 243-8000","city":"Homestead","state":"Florida","zipcode":"33033","slug":"dr-jose-a-cobiella-md"},{"name":"TreeLeaf Healing Center","type":"doctor","phone":"(407) 683-6240","city":"Longwood","state":"Florida","zipcode":"32750","slug":"treeleaf-healing-center"},{"name":"Marijuana Doctor - Orlando","type":"doctor","phone":"844 442-0362","city":"Orlando","state":"Florida","zipcode":"32817","slug":"marijuana-doctor-9"},{"name":"Trulieve - Orlando (Colonial Dr.)","type":"dispensary","phone":"407-512-9707","city":"Orlando","state":"Florida","zipcode":"32817","slug":"trulieve-orlando-colonial-dr"},{"name":"Cannabis Consultants","type":"doctor","phone":"407-728-5970","city":"Winter Park","state":"Florida","zipcode":"32789","slug":"cannabis-consultants-1"},{"name":"Oasis Medical Marijuana Doctors","type":"doctor","phone":"(561) 660-2181","city":"Boca Raton","state":"Florida","zipcode":"33434","slug":"okun-medical-marijuana-cards"},{"name":"VidaCann - Tallahassee","type":"dispensary","phone":"(850) 727-4941","city":"Tallahassee","state":"Florida","zipcode":"32303","slug":"vidacann-tallahassee"},{"name":"Medicann Clinic","type":"doctor","phone":"941-888-0723","city":"North Port","state":"Florida","zipcode":"34288","slug":"medicann-clinic"},{"name":"Omni Medical Services","type":"doctor","phone":"(866) 417-2002","city":"Bradenton","state":"Florida","zipcode":"34209","slug":"omni-medical-services-9"},{"name":"The Flowery -Jacksonville [Delivery on Mon + Wed]","type":"delivery","phone":"305-912-2929","city":"Jacksonville","state":"Florida","zipcode":"32034","slug":"the-flowery-13"},{"name":"Dr. Carlos G. Rivera","type":"doctor","phone":"(305) 229-9899","city":"Miami","state":"Florida","zipcode":"33173","slug":"dr-carlos-g-rivera"},{"name":"Miracle Leaf - Port St. Lucie","type":"doctor","phone":"(772) 281-4512","city":"Port Saint Lucie","state":"Florida","zipcode":"34983","slug":"miracle-leaf-port-st-lucie"},{"name":"Alternative Medical Centers of America","type":"doctor","phone":"(877) 603-4420","city":"Jacksonville Beach","state":"Florida","zipcode":"32250","slug":"alternative-medical-centers-of-america-2"},{"name":"Natural Clinic MD","type":"doctor","phone":"(727) 753-8861","city":"New Port Richey","state":"Florida","zipcode":"34653","slug":"natural-clinic-md"},{"name":"MMJ Health","type":"doctor","phone":"561-631-7994","city":"Lake Worth","state":"Florida","zipcode":"33467","slug":"mmj-health-5"},{"name":"The 420 doctor","type":"doctor","phone":"(954) 299-6786","city":"Hollywood","state":"Florida","zipcode":"33024","slug":"the-420-doctor-1"},{"name":"Cannabis Cardz","type":"doctor","phone":"(855) 718-2273","city":"Coral Gables","state":"Florida","zipcode":"33134","slug":"cannabis-cardz"},{"name":"Medical Marijuana Treatment Clinics of Florida","type":"doctor","phone":"(850) 906-5000","city":"Casselberry","state":"Florida","zipcode":"32707","slug":"medical-marijuana-treatment-clinics-of-florida-6"},{"name":"CannaMD","type":"doctor","phone":"855-420-9170","city":"Gainesville","state":"Florida","zipcode":"32606","slug":"canna-md-7"},{"name":"Florida Medical Marijuana Doctors","type":"doctor","phone":"800-620-2027","city":"Fort Myers","state":"Florida","zipcode":"33900","slug":"florida-420-doctor-8"},{"name":"Smart For Life","type":"doctor","phone":"(561) 338-3999","city":"Boca Raton","state":"Florida","zipcode":"33432","slug":"smart-for-life"},{"name":"Surterra Wellness Center - Jacksonville","type":"dispensary","phone":"(904) 858-1006","city":"Jacksonville","state":"Florida","zipcode":"32204","slug":"surterra-wellness-center-jacksonville"},{"name":"Trulieve - Deerfield Beach","type":"dispensary","phone":"(844) 878-5438","city":"Deerfield","state":"Florida","zipcode":"33441","slug":"trulieve-deerfield-beach"},{"name":"Marijuana Doctor - Bonita Springs","type":"doctor","phone":"844-442-0362","city":"Bonita Springs","state":"Florida","zipcode":"34134","slug":"marijuana-doctor-bonita-springs"},{"name":"Dr. Green Relief","type":"doctor","phone":"(813) 575-2755","city":"Tampa","state":"Florida","zipcode":"33607","slug":"dr-green-relief-5"},{"name":"Cannabis Doc","type":"doctor","phone":"813-501-4777","city":"Tampa","state":"Florida","zipcode":"33613","slug":"cannabis-doc-2"},{"name":"Trulieve - Palm Coast","type":"dispensary","phone":"(386) 628-3239","city":"Palm Coast","state":"Florida","zipcode":"32137","slug":"trulieve-palm-coast"},{"name":"Medical Marijuana Treatment Clinics of Florida","type":"doctor","phone":"8509065000","city":"Palm Harbor","state":"Florida","zipcode":"34685","slug":"medical-marijuana-treatment-clinics-of-florida-77617997"},{"name":"Trulieve - Fort Myers","type":"dispensary","phone":"(239) 204-4808","city":"Fort Myers","state":"Florida","zipcode":"33903","slug":"trulieve-fort-myers"},{"name":"Omni Medical Services","type":"doctor","phone":"(866) 417-2002","city":"Wesley Chapel","state":"Florida","zipcode":"33544","slug":"omni-medical-services-10"},{"name":"Surterra Wellness Center – Tallahassee","type":"dispensary","phone":"(850) 391-5455","city":"Tallahassee","state":"Florida","zipcode":"32309","slug":"surterra-wellness-center-tallahassee"},{"name":"Frank Filiberto MD","type":"doctor","phone":"(321) 676-3101","city":"Melbourne","state":"Florida","zipcode":"32901","slug":"frank-filiberto-md"},{"name":"Coastal Wellness Centers","type":"doctor","phone":"(386) 302-4842","city":"Ormond Beach","state":"Florida","zipcode":"32174","slug":"coastal-wellness-centers"},{"name":"Angelic Lift Marijuana Doctor - Jacksonville","type":"doctor","phone":"8556576800","city":"Jacksonville","state":"Florida","zipcode":"32223","slug":"angelic-lift-marijuana-doctor"},{"name":"Omni Medical Services","type":"doctor","phone":"(866) 417-2002","city":"Tampa","state":"Florida","zipcode":"33624","slug":"omni-medical-services-12"},{"name":"Miracle Leaf Key West","type":"doctor","phone":"3056766605","city":"Key West","state":"Florida","zipcode":"33040","slug":"miracle-leaf-key-west"},{"name":"Family Medical Cannabis Clinic","type":"doctor","phone":"813-603-4417","city":"Tampa","state":"Florida","zipcode":"33618","slug":"family-medical-cannabis-clinic"},{"name":"Columbia Care Delray Beach","type":"dispensary","phone":"561-303-0551","city":"Delray Beach","state":"Florida","zipcode":"33484","slug":"columbia-care-delray-beach"},{"name":"Miracle Leaf Palmetto Bay","type":"doctor","phone":"3053069795","city":"Miami","state":"Florida","zipcode":"33176","slug":"miracle-leaf-palmetto-bay-1"},{"name":"Curaleaf - St. Petersburg","type":"dispensary","phone":"(727) 369-9019","city":"St. Petersburg","state":"Florida","zipcode":"33709","slug":"curaleaf-st-petersburg"},{"name":"Omni Medical Services","type":"doctor","phone":"(866) 417-2002","city":"Merritt Island","state":"Florida","zipcode":"32952","slug":"omni-medical-services-18"},{"name":"One Plant St Petersburg","type":"dispensary","phone":"877-308-3344","city":"St. Petersburg","state":"Florida","zipcode":"33712","slug":"one-plant-st-petersburg-1"},{"name":"Benevolent Care LLC","type":"doctor","phone":"954-994-7002","city":"Coral Springs","state":"Florida","zipcode":"33076","slug":"benevolent-care-llc"},{"name":"DocMJ","type":"doctor","phone":"(888) 908-0143","city":"Daytona Beach","state":"Florida","zipcode":"32114","slug":"docmj-9028bb22-5a13-4a7d-aa84-c2520fe9d9a0"},{"name":"Tetra Health Centers","type":"doctor","phone":"(813) 296-2782","city":"Winter Park","state":"Florida","zipcode":"32792","slug":"tetra-health-centers-7"},{"name":"Trulieve - Jacksonville","type":"dispensary","phone":"(904) 862-2390","city":"Jacksonville","state":"Florida","zipcode":"32216","slug":"trulieve-jacksonville"},{"name":"Curaleaf Tampa Gandy","type":"dispensary","phone":"+1 850-786-2888","city":"Pensacola","state":"Florida","zipcode":"32504","slug":"curaleaf-tampa-gandy"},{"name":"Key West Cannabis Clinic","type":"doctor","phone":"(305) 330-4701","city":"Key West","state":"Florida","zipcode":"33040","slug":"key-west-cannabis-clinic"},{"name":"Florida Integrative Health","type":"doctor","phone":"(904) 779-3901","city":"Jacksonville","state":"Florida","zipcode":"32216","slug":"florida-integrative-health"},{"name":"Dr. Green Relief","type":"doctor","phone":"(904) 503-3247","city":"Jacksonville","state":"Florida","zipcode":"32211","slug":"dr-green-relief-46ea8c91-2ee8-453c-a849-396da291f50f"},{"name":"Trulieve - New Port Richey","type":"dispensary","phone":"(727) 551-4374","city":"New Port Richey","state":"Florida","zipcode":"34652","slug":"trulieve-new-port-richey"},{"name":"Biofit","type":"doctor","phone":"(786) 909-4155","city":"Miami Gardens","state":"Florida","zipcode":"33169","slug":"biofit"},{"name":"Marijuana Doctor - Saint Petersburg","type":"doctor","phone":"844-442-0362","city":"Saint Petersburg","state":"Florida","zipcode":"33705","slug":"marijuana-doctor-saint-petersburg"},{"name":"Jacksonville Medical Marijuana 420 Doctor","type":"doctor","phone":"(904) 556-2994","city":"Jacksonville","state":"Florida","zipcode":"32207","slug":"florida-420-doctor-5"},{"name":"Marijuana Doctor- Fort Myers","type":"doctor","phone":"8444420362","city":"Fort Myers","state":"Florida","zipcode":"33907","slug":"marijuana-doctor-fort-myers"},{"name":"Florida Family Medical Centers","type":"doctor","phone":"(727) 443-7478","city":"Clearwater","state":"Florida","zipcode":"33756","slug":"florida-family-medical-centers"},{"name":"Miracle Leaf Oakland Park","type":"doctor","phone":"9542566004","city":"Fort Lauderdale","state":"Florida","zipcode":"33308","slug":"miracle-leaf-oakland-park"},{"name":"Anderson Longevity Clinic","type":"doctor","phone":"904-874-5775","city":"Jacksonville","state":"Florida","zipcode":"32224","slug":"anderson-longevity-clinic"},{"name":"Dr. Green Relief","type":"doctor","phone":"904-834-1999","city":"Jacksonville","state":"Florida","zipcode":"32216","slug":"dr-green-relief-9"},{"name":"Emerald Medical Center","type":"doctor","phone":"(239) 202-0772","city":"Naples","state":"Florida","zipcode":"34102","slug":"emerald-medical-center"},{"name":"Suncoast Family Medicine","type":"doctor","phone":"(941) 448-5854","city":"Bradenton","state":"Florida","zipcode":"34208","slug":"suncoast-family-medicine"},{"name":"RISE Dispensaries Deerfield Beach","type":"dispensary","phone":"(786) 540-4910","city":"Deerfield Beach","state":"Florida","zipcode":"33442","slug":"rise-deerfield-beach"},{"name":"Compassionate Alternative Care","type":"doctor","phone":"(904) 265-0344","city":"Jacksonville","state":"Florida","zipcode":"32204","slug":"compassionate-alternative-care"},{"name":"Trulieve - Tallahassee","type":"dispensary","phone":"(850) 512-1968","city":"Tallahassee","state":"Florida","zipcode":"32301","slug":"trulieve"},{"name":"Fluent - Cape Coral","type":"dispensary","phone":"(833) 735-8368","city":"Cape Coral","state":"Florida","zipcode":"33991","slug":"fluent-cape-coral"},{"name":"Green Medical Solutions","type":"doctor","phone":"(813) 282-9333","city":"Tampa","state":"Florida","zipcode":"33629","slug":"green-medical-solutions-2"},{"name":"Curaleaf Orange Park","type":"dispensary","phone":"(904) 541-8805","city":"Orange Park","state":"Florida","zipcode":"32073","slug":"curaleaf-orange-park"},{"name":"MÜV - Fort Myers (Coming Soon!)","type":"dispensary","phone":"833-880-5420","city":"Fort Myers","state":"Florida","zipcode":"33913","slug":"muv-fort-myers"},{"name":"Curaleaf","type":"dispensary","phone":"(786) 398-4494","city":"Kendall","state":"Florida","zipcode":"33156","slug":"curaleaf-kendall"},{"name":"Columbia Care Jacksonville","type":"dispensary","phone":"(904) 694-2174","city":"Jacksonville","state":"Florida","zipcode":"32216","slug":"columbia-care-jacksonville"},{"name":"Medverde, Inc.","type":"doctor","phone":"(786) 842-7001","city":"Miami","state":"Florida","zipcode":"33137","slug":"medverde-inc"},{"name":"Curaleaf - North Orlando","type":"dispensary","phone":"(407) 988-2122","city":"Orlando","state":"Florida","zipcode":"32807","slug":"curaleaf-orlando-2"},{"name":"Muv Dispensary Gainesville","type":"dispensary","phone":"352-448-3070","city":"Gainesville","state":"Florida","zipcode":"32608","slug":"muv-dispensary-gainesville"},{"name":"Benevolent Care LLC","type":"doctor","phone":"9549947002","city":"Fort Lauderdale","state":"Florida","zipcode":"33304","slug":"benevolent-care-llc-2"},{"name":"Trulieve Englewood","type":"dispensary","phone":"941-300-5496","city":"Englewood","state":"Florida","zipcode":"34223","slug":"trulieve-englewood"},{"name":"RISE Dispensaries Kendall","type":"dispensary","phone":"(786) 788-4008","city":"Miami","state":"Florida","zipcode":"33173","slug":"rise-dispensaries-kendall"},{"name":"Canna MD","type":"doctor","phone":"855-420-9170","city":"Fort Lauderdale","state":"Florida","zipcode":"33309","slug":"canna-md"},{"name":"Surterra Wellness Center - Key West","type":"dispensary","phone":"(786) 625-2500","city":"Key West","state":"Florida","zipcode":"33040","slug":"surterra-wellness-key-west"},{"name":"Miracle Leaf Deerfield Beach","type":"doctor","phone":"(954) 900-9018","city":"Deerfield Beach","state":"Florida","zipcode":"33441","slug":"miracle-leaf-deerfield-beach-1"},{"name":"THC Doctor","type":"doctor","phone":"(727) 351-7052","city":"Largo","state":"Florida","zipcode":"33771","slug":"thc-doctor"},{"name":"Dr. Michael J. Mckenzie, MD","type":"doctor","phone":"(954) 362-8677","city":"Hallandale Beach","state":"Florida","zipcode":"33009","slug":"dr-michael-j-mckenzie-md"},{"name":"CannaMD - Marijuana Doctor","type":"doctor","phone":"855-420-9170","city":"DeLand","state":"Florida","zipcode":"32720","slug":"cannamd-3"},{"name":"Trulieve - St. Augustine","type":"dispensary","phone":"(844) 878-5438","city":"St. Augustine","state":"Florida","zipcode":"32084","slug":"trulieve-st-augustine"},{"name":"Curaleaf - Ocala","type":"dispensary","phone":"(352) 619-2540","city":"Ocala","state":"Florida","zipcode":"34471","slug":"curaleaf-ocala"},{"name":"Miracle Leaf Hallandale","type":"doctor","phone":"(954) 589-0159","city":"Hallandale","state":"Florida","zipcode":"33009","slug":"miracle-leaf-hallandale"},{"name":"Trulieve - Orlando Millenia (Coming Soon!)","type":"dispensary","phone":"321-340-2040","city":"Orlando","state":"Florida","zipcode":"32839","slug":"trulieve-orlando-millenia"},{"name":"Curaleaf - Tampa","type":"dispensary","phone":"813-497-2028","city":"Tampa","state":"Florida","zipcode":"33604","slug":"curaleaf-tampa"},{"name":"The Neuro Well","type":"doctor","phone":"786-405-9819","city":"Oakland Park","state":"Florida","zipcode":"33334","slug":"the-neuro-well"},{"name":"Surterra Wellness Center - South Tampa","type":"dispensary","phone":"(813) 379-9989","city":"Tampa","state":"Florida","zipcode":"33611","slug":"surterra-wellness-center-south-tampa"},{"name":"DocMJ","type":"doctor","phone":"(888) 908-0143","city":"Pensacola","state":"Florida","zipcode":"32503","slug":"docmj-9"},{"name":"ChoiceMedGroup","type":"doctor","phone":"(727) 523-3700 ","city":"Clearwater","state":"Florida","zipcode":"33763","slug":"choicemedgroup"},{"name":"Dr. Renata Teytlebaum, MD","type":"doctor","phone":"(727) 734-6777","city":"Dunedin","state":"Florida","zipcode":"34698","slug":"dr-renata-teytlebaum-md"},{"name":"Angelic Lift Marijuana Doctor - Daytona","type":"doctor","phone":"8556576800","city":"Daytona Beach","state":"Florida","zipcode":"32114","slug":"angelic-lift-marijuana-doctor-2"},{"name":"Green Balance Health and Wellness","type":"doctor","phone":"(239) 919-8041","city":"Naples","state":"Florida","zipcode":"34113","slug":"green-balance-health-and-wellness"},{"name":"Express Cannabis Cards","type":"doctor","phone":"2392216367","city":"Bonita Springs","state":"Florida","zipcode":"34135","slug":"express-cannabis-cards-1"},{"name":"Compassionate Care Clinics of Pinellas","type":"doctor","phone":"(727) 440-7786","city":"St. Petersburg","state":"Florida","zipcode":"33710","slug":"compassionate-care-clinics-of-pinellas"},{"name":"Tierra Healthcare Concepts","type":"doctor","phone":"(561) 665-6090","city":"Delray Beach","state":"Florida","zipcode":"33445","slug":"tierra-healthcare-concepts"},{"name":"The Flowery - Fort Myers [Delivery on Tues +Thurs]","type":"delivery","phone":"305-912-2929","city":"Fort Myers","state":"Florida","zipcode":"33901","slug":"the-flowery-3"},{"name":"Miami Kind Dr.","type":"doctor","phone":"(305) 684-8363","city":"Doral","state":"Florida","zipcode":"33166","slug":"miami-kind-dr"},{"name":"High Life Medical Centers","type":"doctor","phone":"(786) 953-7120","city":"Miami","state":"Florida","zipcode":"33165","slug":"high-life-medical-centers"},{"name":"Family Medical Care","type":"doctor","phone":"561-249-7626","city":"Palm Beach Gardens","state":"Florida","zipcode":"33410","slug":"family-medical-care"},{"name":"Medical Marijuana Treatment Clinics of Florida","type":"doctor","phone":"850-906-5000","city":"Port St. Lucie","state":"Florida","zipcode":"34952","slug":"medical-marijuana-treatment-clinics-of-florida-23"},{"name":"Trulieve - Boynton Beach","type":"dispensary","phone":"(844) 878-5438","city":"Boynton Beach","state":"Florida","zipcode":"33426","slug":"trulieve-boynton-beach"},{"name":"My Florida Green","type":"doctor","phone":"(833) 665-3279","city":"Sunrise","state":"Florida","zipcode":"33323","slug":"my-florida-green-5"},{"name":"All-Pro Medical","type":"doctor","phone":"(954) 322-1110","city":"Hollywood","state":"Florida","zipcode":"33020","slug":"all-pro-medical"},{"name":"Columbia Care Longwood","type":"dispensary","phone":"(407) 357-0805","city":"Longwood","state":"Florida","zipcode":"32750","slug":"columbia-care-longwood-1"},{"name":"Trulieve - Panama City Beach","type":"dispensary","phone":"844-878-5438","city":"Panama City Beach","state":"Florida","zipcode":"32407","slug":"trulieve-panama-city-beach"},{"name":"Omni Medical Services","type":"doctor","phone":"(866) 417-2002","city":"Boca","state":"Florida","zipcode":"33433","slug":"omni-medical-services-13"},{"name":"One Plant Ocala","type":"dispensary","phone":"877-308-3344","city":"Ocala","state":"Florida","zipcode":"34470","slug":"one-plant-ocala-1"},{"name":"Orlando Psychiatric Associates","type":"doctor","phone":"(407) 375-0480","city":"Lake Mary","state":"Florida","zipcode":"32746","slug":"orlando-psychiatric-associates-3"},{"name":"DocMJ","type":"doctor","phone":"(888) 908-0143","city":"Tampa","state":"Florida","zipcode":"33604","slug":"docmj-10"},{"name":"Marijuana Doctor - Hudson","type":"doctor","phone":"844 442-0362","city":"Hudson","state":"Florida","zipcode":"34667","slug":"marijuana-doctor-29"},{"name":"Marijuana Doctor - Palm Bay","type":"doctor","phone":"844 442-0362","city":"Palm Bay","state":"Florida","zipcode":"32905","slug":"marijuana-doctor-27"},{"name":"The Emerald Medical Group Of Sarasota","type":"doctor","phone":"(941) 926-3100","city":"Sarasota","state":"Florida","zipcode":"34233","slug":"the-emerald-medical-group-of-sarasota"},{"name":"Liberty Health Sciences - Dania Beach","type":"dispensary","phone":"(833) 254-4877","city":"Dania Beach","state":"Florida","zipcode":"33004","slug":"liberty-health-sciences-dania-beach"},{"name":"Gulf Coast Certified Primary Care","type":"doctor","phone":"(239) 498-5760","city":"Bonita Springs","state":"Florida","zipcode":"34135","slug":"gulf-coast-certified-primary-care-2"},{"name":"Miracle Leaf - South Beach","type":"doctor","phone":"(786) 899-0339","city":"Miami Beach","state":"Florida","zipcode":"33139","slug":"miracle-leaf-4"},{"name":"LifeCann MD","type":"doctor","phone":"(833) 543-3226","city":"Miami","state":"Florida","zipcode":"33130","slug":"lifecann-md"},{"name":"Trulieve - Port Charlotte","type":"dispensary","phone":"844 878-5438","city":"Port Charlotte","state":"Florida","zipcode":"33952","slug":"trulieve-port-charlotte"},{"name":"Mmj Doctors Miami","type":"doctor","phone":"(305) 776-2898","city":"Miami","state":"Florida","zipcode":"33130","slug":"mmj-doctors-miami"},{"name":"Dr Bob’s Compassion Clinic","type":"doctor","phone":"(352) 601-4200","city":"Crystal River","state":"Florida","zipcode":"34429","slug":"better-health-compassion-clinic"},{"name":"Liberty Health Sciences - Port St. Lucie","type":"dispensary","phone":"(772) 249-4199","city":"Port St. Lucie","state":"Florida","zipcode":"34952","slug":"liberty-health-sciences-cannabis-education-center-port-st-lucie"},{"name":"Surterra Wellness Center - Port Orange","type":"dispensary","phone":"(386) 888-5551","city":"Port Orange","state":"Florida","zipcode":"32129","slug":"surterra-wellness-center-port-orange"},{"name":"Medical Marijuana Treatment Clinics of Florida","type":"doctor","phone":"(850) 906-5000","city":"Tallahassee","state":"Florida","zipcode":"32308","slug":"medical-marijuana-treatment-centers-of-florida-3"},{"name":"Fluent - Kendall","type":"dispensary","phone":"(833) 261-4396","city":"Kendall","state":"Florida","zipcode":"33176","slug":"fluent-north-kendall"},{"name":"Point Lumineux Holistic Wellness Center","type":"doctor","phone":"(941) 217-6828","city":"Sarasota","state":"Florida","zipcode":"34231","slug":"point-lumineux-holistic-wellness-center"},{"name":"Dr. Green Relief","type":"doctor","phone":"(941) 444-0064","city":"Sarasota","state":"Florida","zipcode":"34231","slug":"dr-green-relief-4"},{"name":"Medical Marijuana Treatment Clinics of Florida","type":"doctor","phone":"(850) 906-5000","city":"The Villages","state":"Florida","zipcode":"32162","slug":"medical-marijuana-treatment-clinics-of-florida-20"},{"name":"Trulieve Daytona Beach","type":"dispensary","phone":"(386) 777-2677","city":"Daytona Beach","state":"Florida","zipcode":"32114","slug":"trulieve-daytona-beach"},{"name":"Medical Marijuana Treatment Clinics of Florida","type":"doctor","phone":"(850) 906-5000","city":"North Port","state":"Florida","zipcode":"34287","slug":"medical-marijuana-treatment-clinics-of-florida-2"},{"name":"Alternative Medical Solutions","type":"doctor","phone":"(772) 202-7976","city":"Sebastian","state":"Florida","zipcode":"32958","slug":"alternative-medical-solutions"},{"name":"Vitality Health","type":"doctor","phone":"(407) 930-5863","city":"Orlando","state":"Florida","zipcode":"32825","slug":"vitality-health"},{"name":"Curaleaf Clearwater","type":"dispensary","phone":"+1 727-285-9120","city":"Clearwater","state":"Florida","zipcode":"33765","slug":"curaleaf-clearwater"},{"name":"MedMen West Palm Beach - Downtown","type":"dispensary","phone":"(561) 323-7330","city":"West Palm Beach","state":"Florida","zipcode":"33401","slug":"medmen-west-palm-beach-downtown"},{"name":"Omni Medical Services","type":"doctor","phone":"(866) 417-2002","city":"Miami","state":"Florida","zipcode":"33137","slug":"omni-medical-services-5"},{"name":"Trulieve","type":"dispensary","phone":"(844) 878-5438","city":"DeLand","state":"Florida","zipcode":"32720","slug":"trulieve-deland"},{"name":"Sanctuary Medicinals (NOW OPEN!)","type":"dispensary","phone":"(321)352-7316","city":"Orlando","state":"Florida","zipcode":"32819","slug":"sanctuary-medicinals-2"},{"name":"Rxpo.com","type":"doctor","phone":"(954) 326-0114","city":"Orlando","state":"Florida","zipcode":"32803","slug":"rxpo-com-4"},{"name":"Green Life Wellness Centers (Formerly: Florida Medical Marijuana Health Center)","type":"doctor","phone":"(561) 223-0743","city":"Boynton Beach","state":"Florida","zipcode":"33426","slug":"florida-medical-marijuana-health-center"},{"name":"Comfort Care Clinic","type":"doctor","phone":"(386) 478-4877","city":"New Smyrna Beach","state":"Florida","zipcode":"32169","slug":"comfort-care-clinic"},{"name":"Medical Marijuana Treatment Clinics of Florida","type":"doctor","phone":"(850) 906-5000","city":"Pensacola","state":"Florida","zipcode":"32503","slug":"medical-marijuana-treatment-clinics-of-florida-8"},{"name":"Sol Medical Center","type":"doctor","phone":"(786) 621-9777","city":"Hialeah","state":"Florida","zipcode":"33012","slug":"sol-medical-center"},{"name":"Florida Pain Management","type":"doctor","phone":"(727) 548-6100","city":"St. Petersburg","state":"Florida","zipcode":"33709","slug":"florida-pain-management"},{"name":"Medical Marijuana Treatment Clinics of Florida","type":"doctor","phone":"(844) 682-8261","city":"Ocala","state":"Florida","zipcode":"34471","slug":"medical-marijuana-treatment-clinics-of-florida-89d1c3b0-7180-4968-bbb7-2eb8561db3fb"},{"name":"Fluent - Ft. Walton","type":"dispensary","phone":"(833) 735-8368","city":"Fort Walton Beach","state":"Florida","zipcode":"32547","slug":"fluent-ft-walton"},{"name":"Medical Cannabis Clinics of Florida","type":"doctor","phone":"(407) 603-8300","city":"Kissimmee","state":"Florida","zipcode":"34744","slug":"medical-cannabis-clinics-of-florida-2"},{"name":"CannaMD - Marijuana Doctor","type":"doctor","phone":"(855) 420-9170","city":"Wildwood","state":"Florida","zipcode":"34785","slug":"cannamd-2"},{"name":"Columbia Care Sarasota","type":"dispensary","phone":"941-500-3128","city":"Sarasota","state":"Florida","zipcode":"34231","slug":"columbia-care-sarasota"},{"name":"The Flowery - Broward County","type":"delivery","phone":"305-912-2929","city":"Ft. Lauderdale","state":"Florida","zipcode":"33030","slug":"the-flowery"},{"name":"Miracle Leaf Coconut Grove","type":"doctor","phone":"3058479933","city":"Miami","state":"Florida","zipcode":"33133","slug":"miracle-leaf-coconut-grove"},{"name":"Dr. Green Relief RX","type":"doctor","phone":"(407) 801-6500","city":"Orlando","state":"Florida","zipcode":"32819","slug":"dr-green-relief-6"},{"name":"RISE Dispensaries Bonita Springs","type":"dispensary","phone":"(813) 467-7990","city":"Bonita Springs","state":"Florida","zipcode":"34135","slug":"rise-bonita-springs"},{"name":"Trulieve - Bradenton","type":"dispensary","phone":"(941) 254-2701","city":"West Bradenton","state":"Florida","zipcode":"34209","slug":"trulieve-bradenton-1"},{"name":"Curaleaf Pensacola","type":"dispensary","phone":"+1 850-740-0680","city":"Pensacola","state":"Florida","zipcode":"32405","slug":"curaleaf-pensacola"},{"name":"Fluent - Lake Worth","type":"dispensary","phone":"(833) 735-8368","city":"Lake Worth","state":"Florida","zipcode":"33460","slug":"fluent-lake-worth"},{"name":"Curaleaf Bradenton","type":"dispensary","phone":"+1 941-216-0090","city":"Bradenton","state":"Florida","zipcode":"34207","slug":"curaleaf-bradenton"},{"name":"All-Pro Orthopedic & Sports Medicine","type":"doctor","phone":"(954) 322-1110","city":"Hialeah","state":"Florida","zipcode":"33016","slug":"all-pro-orthopedic-sports-medicine"},{"name":"DocMJ","type":"doctor","phone":"(888) 908-0143","city":"Sarasota","state":"Florida","zipcode":"34237","slug":"doc-mj"},{"name":"Liberty Health Sciences - Palm Harbor","type":"dispensary","phone":"(727) 559-1142","city":"Palm Harbor","state":"Florida","zipcode":"34684","slug":"liberty-health-sciences-cannabis-education-center-palm-harbor"}]}}