{"meta":{"total_listings":27},"data":{"listings":[{"name":"Doctor 420 Hawaii","type":"doctor","phone":"(808) 934-7566","city":"Kahului","state":"Hawaii","zipcode":"96732","slug":"effective-change-llc-6"},{"name":"Noa Botanicals - Kaneohe","type":"dispensary","phone":"(808) 550-9860","city":"Kaneohe","state":"Hawaii","zipcode":"96744","slug":"noa-botanicals-kaneohe"},{"name":"Hawaiian Ethos - Kona","type":"dispensary","phone":"(808) 339-3205","city":"Kailua Kona","state":"Hawaii","zipcode":"96740","slug":"hawaiian-ethos"},{"name":"CertiCann","type":"doctor","phone":"(808) 757-9480","city":"Kahului","state":"Hawaii","zipcode":"96732","slug":"certicann-3"},{"name":"Aloha Green Apothecary Waikiki","type":"dispensary","phone":"(808) 369-2888","city":"Honolulu","state":"Hawaii","zipcode":"96815","slug":"aloha-green-apothecary"},{"name":"Aloha Green Apothecary King St","type":"dispensary","phone":"(808) 369-2888","city":"Honolulu","state":"Hawaii","zipcode":"96814","slug":"aloha-green"},{"name":"Hawaii Compassionate Care","type":"doctor","phone":"(808) 854-6335","city":"Kapaa","state":"Hawaii","zipcode":"96746","slug":"hawaii-compassionate-care"},{"name":"Green Wave Medical","type":"doctor","phone":"(808) 829-1244","city":"Pearl City","state":"Hawaii","zipcode":"96782","slug":"green-wave-medical"},{"name":"Honolulu Wellness Center","type":"doctor","phone":"(808) 798-3629","city":"Honolulu","state":"Hawaii","zipcode":"96814","slug":"honolulu-wellness-ceter"},{"name":"Doctor 420 Hawaii","type":"doctor","phone":"(808) 934-7566","city":"Hilo","state":"Hawaii","zipcode":"96720","slug":"effective-change-llc-2"},{"name":"Thomas Cook, M.D.","type":"doctor","phone":"(808) 457-1082","city":"Honolulu","state":"Hawaii","zipcode":"96814","slug":"thomas-cook-m-d"},{"name":"Cure Oahu","type":"dispensary","phone":"(808) 208-8770","city":"Honolulu","state":"Hawaii","zipcode":"96816","slug":"cure-oahu"},{"name":"PONO LIFE MAUI","type":"dispensary","phone":"(808) 489-9454","city":"Kahului, Maui","state":"Hawaii","zipcode":"96732","slug":"pono-life-maui"},{"name":"Noa Botanicals - Aiea","type":"dispensary","phone":"(808) 900-3320","city":"Aiea","state":"Hawaii","zipcode":"96701","slug":"noa-botanicals-4"},{"name":"Doctor 420 Hawaii","type":"doctor","phone":"(808) 934-7566","city":"Kaunakakai","state":"Hawaii","zipcode":"96748","slug":"effective-change-llc-4"},{"name":"Hawaiian Ethos - Kamuela","type":"dispensary","phone":"8087315082","city":"Kamuela","state":"Hawaii","zipcode":"96743","slug":"hawaiian-ethos-1"},{"name":"HMM Clinic","type":"doctor","phone":"(808) 435-3077","city":"Honolulu","state":"Hawaii","zipcode":"96826","slug":"hmm-clinic"},{"name":"Aloha Green Herb House","type":"dispensary","phone":"808-369-2888","city":"Honolulu","state":"Hawaii","zipcode":"96819","slug":"aloha-green-herb-house"},{"name":"Green Aloha +Dispensary","type":"dispensary","phone":"(808) 320-3187","city":"Kapaa","state":"Hawaii","zipcode":"96746","slug":"green-aloha-kauai"},{"name":"Maui Grown Therapies","type":"dispensary","phone":"(808) 866-7576","city":"Kahului","state":"Hawaii","zipcode":"96732","slug":"maui-grown-therapies"},{"name":"Hawaiian Ethos - Hilo","type":"dispensary","phone":"8087315559","city":"Hilo","state":"Hawaii","zipcode":"96740","slug":"hawaiian-ethos-2"},{"name":"Noa Botanicals - Honolulu","type":"dispensary","phone":"(808) 800-2126","city":"Honolulu","state":"Hawaii","zipcode":"96814","slug":"noa-botanicals"},{"name":"Doctor 420 Hawaii","type":"doctor","phone":"(808) 934-7566","city":"Honolulu","state":"Hawaii","zipcode":"96718","slug":"effective-change-llc-3"},{"name":"Doctor 420 Hawaii","type":"doctor","phone":"(808) 934-7566","city":"Kauai","state":"Hawaii","zipcode":"96766","slug":"effective-change-llc-5"},{"name":"The MUM Clinic","type":"doctor","phone":"(808) 430-4763","city":"Kailua-Kona","state":"Hawaii","zipcode":"96740","slug":"the-mum-clinic"},{"name":"Malie Cannabis Clinic","type":"doctor","phone":"(808) 518-0299","city":"Honolulu","state":"Hawaii","zipcode":"96817","slug":"malie-cannabis-clinic"},{"name":"Medical Marijuana Hawaii LLC","type":"doctor","phone":"808-726-2392","city":"Honolulu","state":"Hawaii","zipcode":"96825","slug":"medical-marijuana-hawaii-llc"}]}}