{"meta":{"total_listings":122},"data":{"listings":[{"name":"Medical Cannabis Doctors","type":"doctor","phone":"(630) 551-8210","city":"Villa Park","state":"Illinois","zipcode":"60181","slug":"medical-cannabis-doctors"},{"name":"Dr. Hafiz Khattak","type":"doctor","phone":"(618) 398-6266","city":"Belleville","state":"Illinois","zipcode":"62223","slug":"dr-h-khattak"},{"name":"Herbal Remedies - 4440 Broadway","type":"dispensary","phone":"(217) 214-6337","city":"Quincy","state":"Illinois","zipcode":"62305","slug":"herbal-remedies-il"},{"name":"EarthMed - Rosemont (NOW OPEN!)","type":"dispensary","phone":"(224) 275-9333","city":"Rosemont","state":"Illinois","zipcode":"60018","slug":"earthmed-rosemont"},{"name":"Verilife - Galena","type":"dispensary","phone":"(815) 255-8715","city":"Galena","state":"Illinois","zipcode":"61036","slug":"verilife-galena"},{"name":"RISE Dispensaries Joliet (Colorado)","type":"dispensary","phone":"8157331167","city":"Joliet","state":"Illinois","zipcode":"60431","slug":"rise-joliet-colorado"},{"name":"Greengate Chicago","type":"dispensary","phone":"(773) 516-4007","city":"Chicago","state":"Illinois","zipcode":"60626","slug":"greengate-chicago-1"},{"name":"Verilife - Schaumburg (Coming Soon)","type":"dispensary","phone":"(630) 332-9601","city":"Schaumburg","state":"Illinois","zipcode":"60194","slug":"verilife-schaumburg"},{"name":"Curaleaf Morris","type":"dispensary","phone":"815-513-0124","city":"Morris","state":"Illinois","zipcode":"60450","slug":"greenhouse-morris"},{"name":"Verilife - Arlington Heights (Medical and Recreational)","type":"dispensary","phone":"(847) 755-2992","city":"Arlington Heights","state":"Illinois","zipcode":"60005","slug":"pharmacannis-schaumburg"},{"name":"MEDICAL CANNABIS OUTREACH","type":"doctor","phone":"(309) 338-8900","city":"Pekin","state":"Illinois","zipcode":"61554","slug":"medical-cannabis-outreach"},{"name":"Cannabist Villa Park","type":"dispensary","phone":"630-396-3261","city":"Villa Park","state":"Illinois","zipcode":"60181","slug":"columbia-care-villa-park"},{"name":"Sunnyside Cannabis Dispensary – Schaumburg","type":"dispensary","phone":"847-893-0460","city":"Schaumburg","state":"Illinois","zipcode":"60173","slug":"sunnyside-cannabis-dispensary-schaumburg"},{"name":"Dispensary 33","type":"dispensary","phone":"(312) 620-3333","city":"Chicago","state":"Illinois","zipcode":"60640","slug":"dispensary-33"},{"name":"Consume Cannabis Co - Marion","type":"dispensary","phone":"(618) 969-8217","city":"Marion","state":"Illinois","zipcode":"62959","slug":"harbory-medical-cannabis-dispensary"},{"name":"The Dispensary Fulton","type":"dispensary","phone":"(815) 208-7701 ","city":"Fulton","state":"Illinois","zipcode":"61252","slug":"the-dispensary-fulton"},{"name":"Chicago Compassion Club","type":"doctor","phone":"(773) 906-5339","city":"Chicago","state":"Illinois","zipcode":"60630","slug":"chicago-compassion-club"},{"name":"Enlightened - Mount Prospect","type":"dispensary","phone":"(224) 801-2015","city":"Mount Prospect","state":"Illinois","zipcode":"60056","slug":"new-age-care"},{"name":"Curaleaf Weed Street","type":"dispensary","phone":"872-249-0246","city":"Chicago","state":"Illinois","zipcode":"60642","slug":"windy-city-cannabis-weed-st"},{"name":"Zen Leaf Prospect Heights","type":"dispensary","phone":"224-269-4275","city":"Prospect Heights","state":"Illinois","zipcode":"60070","slug":"zen-lead-prospect-heights"},{"name":"Sunnyside Cannabis Dispensary - Lakeview","type":"dispensary","phone":"773-820-7280","city":"Chicago","state":"Illinois","zipcode":"60613","slug":"sunnyside-lakeview"},{"name":"Jerabek Wellness","type":"doctor","phone":"(217) 954-1408","city":"Urbana","state":"Illinois","zipcode":"61802","slug":"jerabek-wellness-1"},{"name":"Medical Cannabis Outreach","type":"doctor","phone":"(309) 338-8900","city":"Savoy","state":"Illinois","zipcode":"61874","slug":"medical-cannabis-outreach-23ca2d29-e2b7-4696-981c-3733c381998f"},{"name":"Chicago Compassion Club","type":"doctor","phone":"773-906-5339","city":"Bolingbrook","state":"Illinois","zipcode":"60440","slug":"chicago-compassion-club-1"},{"name":"MOCA - Modern Cannabis (River North)","type":"dispensary","phone":"(773) 722-6622","city":"Chicago","state":"Illinois","zipcode":"60654","slug":"moca-modern-cannabis-river-north"},{"name":"Sunnyside Cannabis Dispensary - Buffalo Grove","type":"dispensary","phone":"847-495-2397","city":"Buffalo Grove","state":"Illinois","zipcode":"60089","slug":"sunnyside-buffalo-grove"},{"name":"Star Flower Clinic and Wellness","type":"doctor","phone":"(815) 208-7703","city":"Fulton","state":"Illinois","zipcode":"61252","slug":"star-flower-clinic-and-wellness"},{"name":"Herbal Remedies Dispensary - 1837 Broadway","type":"dispensary","phone":"217-214-4372","city":"Quincy","state":"Illinois","zipcode":"62301","slug":"herbal-remedies-dispensary-1"},{"name":"Green Care Medical","type":"doctor","phone":"(708) 966-3030","city":"Chicago","state":"Illinois","zipcode":"60608","slug":"green-care-medical-10"},{"name":"Beyond\/Hello - Sauget","type":"dispensary","phone":"(618) 663-4311","city":"Sauget","state":"Illinois","zipcode":"62206","slug":"the-green-solution-illinois-sauget"},{"name":"Rise Dispensaries Naperville [Recreational]","type":"dispensary","phone":"(630) 369-4000","city":"Naperville","state":"Illinois","zipcode":"60540","slug":"rise-naperville-recreational"},{"name":"Curaleaf Deerfield","type":"dispensary","phone":"847-686-2821","city":"Deerfield","state":"Illinois","zipcode":"60015","slug":"greenhouse-deerfield"},{"name":"Sunnyside Cannabis Dispensary - Rockford","type":"dispensary","phone":"815-315-0090","city":"Rockford","state":"Illinois","zipcode":"61107","slug":"sunnyside-rockford"},{"name":"Sunnyside Cannabis Dispensary - Elmwood Park","type":"dispensary","phone":"708-402-8975","city":"Elmwood Park","state":"Illinois","zipcode":"60707","slug":"sunnyside-elmwood-park"},{"name":"Verilife - River North (Now Open!)","type":"dispensary","phone":"312-667-6247","city":"Chicago","state":"Illinois","zipcode":"60654","slug":"verilife-river-north"},{"name":"Maribis of Springfield","type":"dispensary","phone":"(217) 503-4296","city":"Springfield","state":"Illinois","zipcode":"62702","slug":"maribis-of-springfield"},{"name":"Green Care Medical","type":"doctor","phone":"(708) 966-3030","city":"Justice","state":"Illinois","zipcode":"60458","slug":"green-care-medical-11"},{"name":"Green Care Medical","type":"doctor","phone":"(708) 966-3030","city":"Homewood","state":"Illinois","zipcode":"60430","slug":"green-care-medical-3"},{"name":"Dr. Amarish Dave","type":"doctor","phone":"(815) 337-1563","city":"Woodstock","state":"Illinois","zipcode":"60098","slug":"dr-amarish-dave"},{"name":"Curaleaf Worth","type":"dispensary","phone":"312-874-7040","city":"Worth","state":"Illinois","zipcode":"60482","slug":"windy-city-cannabis-2-2"},{"name":"Columbia Care Chicago [ Medical ]","type":"dispensary","phone":"(312) 948-9082","city":"Chicago","state":"Illinois","zipcode":"60630","slug":"columbia-care-dispensary-illinois"},{"name":"Rise Dispensaries - Joliet (Rock Creek)","type":"dispensary","phone":"815 773 9300","city":"Joliet","state":"Illinois","zipcode":"60431","slug":"rise-joliet-rock-creek"},{"name":"Office of Dr. Jason Jerabek","type":"doctor","phone":" 618-879-2167","city":"Marion","state":"Illinois","zipcode":"62959","slug":"office-of-dr-jason-jerabek-2"},{"name":"Dr. David Zeiger","type":"doctor","phone":"(312) 255-9444","city":"Chicago","state":"Illinois","zipcode":"60614","slug":"dr-david-zeiger"},{"name":"Midway Dispensary","type":"dispensary","phone":"(872) 267-7038","city":"Chicago","state":"Illinois","zipcode":"60638","slug":"midway-dispensary"},{"name":"RISE Dispensaries Mundelein","type":"dispensary","phone":"(847) 616-8966","city":"Mundelein","state":"Illinois","zipcode":"60060","slug":"rise-mundelein"},{"name":"nuEra - Urbana","type":"dispensary","phone":"(217) 607-2867","city":"Urbana","state":"Illinois","zipcode":"61801","slug":"numed-urbana-il"},{"name":"Ascend - Fairview Heights","type":"dispensary","phone":"618-852-1905","city":"Fairview Heights","state":"Illinois","zipcode":"62208","slug":"ascend-fairview-heights-1"},{"name":"EarthMed - Addison","type":"dispensary","phone":"(630) 607-0796","city":"Addison","state":"Illinois","zipcode":"60101","slug":"earthmed-addison"},{"name":"Ascend - Horizon Drive","type":"dispensary","phone":"217-718-6355","city":"Springfield","state":"Illinois","zipcode":"62703","slug":"ascend-horizon-drive"},{"name":"The Herbal Care Center","type":"dispensary","phone":"(773) 724-4200","city":"Chicago","state":"Illinois","zipcode":"60608","slug":"the-herbal-care-center"},{"name":"Verilife - North Aurora (Recreational)","type":"dispensary","phone":"(630) 264-0890","city":"North Aurora","state":"Illinois","zipcode":"60542","slug":"verilife-north-aurora"},{"name":"RISE Dispensaries Naperville [Medical]","type":"dispensary","phone":"(630) 369-4000","city":"Naperville","state":"Illinois","zipcode":"60540","slug":"rise-naperville-medical"},{"name":"Dr. Ernesto Padron","type":"doctor","phone":"(847) 696-7036","city":"Park Ridge","state":"Illinois","zipcode":"60068","slug":"dr-ernesto-padron"},{"name":"Beyond\/Hello - Normal","type":"dispensary","phone":"(309) 434-5141","city":"Normal","state":"Illinois","zipcode":"61761","slug":"the-green-solution-illinois-normal"},{"name":"Columbia Care Chicago [ Adult-Use ]","type":"dispensary","phone":"(312) 948-9082","city":"Chicago","state":"Illinois","zipcode":"60630","slug":"columbia-care-dispensary-illinois-adult-use"},{"name":"Mapleglen Care Center","type":"dispensary","phone":"(779) 368-5154","city":"Rockford","state":"Illinois","zipcode":"61109","slug":"mapleglen-care-center"},{"name":"Enlightened - Schaumburg","type":"dispensary","phone":"3129345717","city":"Schaumburg","state":"Illinois","zipcode":"60173","slug":"enlightened"},{"name":"Maribis of Chicago - Westchester","type":"dispensary","phone":"(888)888-2812","city":"Westchester","state":"Illinois","zipcode":"60154","slug":"maribis-of-chicago-westchester"},{"name":"GREENHOUSE - Litchfield","type":"dispensary","phone":"217-253-8883","city":"Litchfield","state":"Illinois","zipcode":"62056","slug":"greenhouse-litchfield"},{"name":"Sunnyside Cannabis Dispensary - Champaign","type":"dispensary","phone":"217-305-4009","city":"Champaign","state":"Illinois","zipcode":"61820","slug":"sunnyside-champaign"},{"name":"RISE Dispensaries Quincy","type":"dispensary","phone":"(217) 214-7473","city":"Quincy","state":"Illinois","zipcode":"62301","slug":"rise-quincy"},{"name":"Ascend- Downtown Springfield","type":"dispensary","phone":"(217) 679-3283","city":"Springfield","state":"Illinois","zipcode":"62701","slug":"hci-alternatives-2"},{"name":"Zen Leaf West Loop","type":"dispensary","phone":"(872) 260-3874","city":"Chiacgo","state":"Illinois","zipcode":"60661","slug":"zen-leaf-west-loop"},{"name":"American Medical Marijuana Clinics","type":"doctor","phone":"(847) 672-9961","city":"Gurnee","state":"Illinois","zipcode":"60031","slug":"american-medical-marijuana-clinics"},{"name":"Office of Dr. Jason Jerabek","type":"doctor","phone":" 618-879-2167","city":"Olney","state":"Illinois","zipcode":"62450","slug":"office-of-dr-jason-jerabek"},{"name":"Zen Leaf Lombard (Now Open!)","type":"dispensary","phone":"630-716-2517","city":"Lombard","state":"Illinois","zipcode":"60148","slug":"zen-leaf-lombard"},{"name":"Consume Cannabis Co - Chicago","type":"dispensary","phone":"872-304-3113","city":"Chicago","state":"Illinois","zipcode":"60631","slug":"zen-leaf-il-chicago"},{"name":"Green Care Medical","type":"doctor","phone":"(708) 966-3030","city":"Hinsdale","state":"Illinois","zipcode":"60521","slug":"green-care-medical-8d725429-d374-49d7-8926-28f230ba1ada"},{"name":"Innovative Wellness","type":"doctor","phone":"(773) 420-7994","city":"Chicago","state":"Illinois","zipcode":"60614","slug":"innovative-express-care-2"},{"name":"Curaleaf Melrose Park","type":"dispensary","phone":"872-249-0809","city":"Melrose Park","state":"Illinois","zipcode":"60160","slug":"greenhouse-melrose-park"},{"name":"Windy City Cannabis - Homewood","type":"dispensary","phone":"312-874-7040","city":"Homewood","state":"Illinois","zipcode":"60430","slug":"windy-city-cannabis"},{"name":"Zen Leaf Aurora","type":"dispensary","phone":"331-212-8846","city":"Aurora","state":"Illinois","zipcode":"60504","slug":"zen-leaf-aurora"},{"name":"Curaleaf Justice","type":"dispensary","phone":"312-874-7040","city":"Justice","state":"Illinois","zipcode":"60458","slug":"windy-city-cannabis-2"},{"name":"Elevation Wellness","type":"doctor","phone":"734-879-0970","city":"Chicago","state":"Illinois","zipcode":"60611","slug":"omni-doctors-elevation-station"},{"name":"United Family Health Care","type":"doctor","phone":"(847) 680-7002","city":"Libertyville","state":"Illinois","zipcode":"60048","slug":"united-family-health-care"},{"name":"Verilife - Rosemont","type":"dispensary","phone":"847-233-1593","city":"Rosemont","state":"Illinois","zipcode":"60018","slug":"verilife-rosemont"},{"name":"Mission South Chicago","type":"dispensary","phone":"773-530-0088","city":"Chicago","state":"Illinois","zipcode":"60617","slug":"mission-il"},{"name":"Verilife - Ottawa (Medical)","type":"dispensary","phone":"(888) 493-6066","city":"Ottawa","state":"Illinois","zipcode":"61350","slug":"pharmacannis-ottawa"},{"name":"RISE Dispensaries Canton","type":"dispensary","phone":"(309) 647-9333","city":"Canton","state":"Illinois","zipcode":"61520","slug":"rise-canton"},{"name":"Curaleaf Mokena","type":"dispensary","phone":"708-258-1141","city":"Mokena","state":"Illinois","zipcode":"60448","slug":"greenhouse-mokena"},{"name":"Sunnyside Cannabis Dispensary – Naperville","type":"dispensary","phone":"630 884 8061","city":"Naperville","state":"Illinois","zipcode":"60564","slug":"sunnyside-cannabis-dispensary-naperville"},{"name":"Zen Leaf St. Charles","type":"dispensary","phone":"(630) 377-7373","city":"St. Charles","state":"Illinois","zipcode":"60174","slug":"zen-leaf-il-st-charles"},{"name":"Dispensary 33","type":"dispensary","phone":"3127675663","city":"Chicago","state":"Illinois","zipcode":"60607","slug":"dispensary-33-3"},{"name":"Illinois Medical Cannabis Doctors","type":"doctor","phone":"(833) 226-6362","city":"Chicago","state":"Illinois","zipcode":"60606","slug":"illinois-medical-cannabis-doctors"},{"name":"Sunnyside Cannabis Dispensary – South Beloit","type":"dispensary","phone":"779-771-6660","city":"South Beloit","state":"Illinois","zipcode":"61080","slug":"sunnyside-cannabis-dispensary-south-beloit"},{"name":"Ascend- Collinsville","type":"dispensary","phone":"618-381-9229","city":"Collinsville","state":"Illinois","zipcode":"62234","slug":"hci-alternatives"},{"name":"HATCH","type":"dispensary","phone":"224-434-2320","city":"Wheeling","state":"Illinois","zipcode":"60090","slug":"hatch-1"},{"name":"nuEra - East Peoria","type":"dispensary","phone":"(309) 839-1330","city":"East Peoria","state":"Illinois","zipcode":"61611","slug":"numed-east-peoria"},{"name":"Dr. Bruce M. Hertz","type":"doctor","phone":"(847) 297-2181","city":"Niles","state":"Illinois","zipcode":"60714","slug":"dr-bruce-m-hertz"},{"name":"Green Care Medical","type":"doctor","phone":"(708) 966-3030","city":"Chicago","state":"Illinois","zipcode":"60632","slug":"green-care-medical-7"},{"name":"Roya Family Medical Center","type":"doctor","phone":"(708) 681-0808","city":"Melrose Park","state":"Illinois","zipcode":"60160","slug":"roya-family-medical-center"},{"name":"Zen Leaf Highland Park","type":"dispensary","phone":"(847) 780-3942","city":"Highland Park","state":"Illinois","zipcode":"60035","slug":"elevele"},{"name":"Verilife - Ottawa (Recreational)","type":"dispensary","phone":"(815) 324-9189","city":"Ottawa","state":"Illinois","zipcode":"61350","slug":"verilife-ottawa"},{"name":"The Healing Clinic - Patient Advocacy Center","type":"doctor","phone":"(312) 890-6113","city":"Highland Park","state":"Illinois","zipcode":"60035","slug":"the-healing-clinic-patient-advocacy-center-3"},{"name":"Curaleaf Skokie","type":"dispensary","phone":"(224) 707-9072","city":"Skokie","state":"Illinois","zipcode":"60077","slug":"greenhouse-skokie"},{"name":"Zen Leaf Charleston","type":"dispensary","phone":"(217) 284-6977","city":"Charleston","state":"Illinois","zipcode":"61920","slug":"zen-leaf-charleston"},{"name":"Nature's Treatment of Illinois","type":"dispensary","phone":"(309) 283-7642","city":"Milan","state":"Illinois","zipcode":"61264","slug":"nature-s-treatment-of-illinois-3"},{"name":"MOCA - Modern Cannabis (Logan Square, Medical Menu)","type":"dispensary","phone":"(773) 722-6622","city":"Chicago","state":"Illinois","zipcode":"60647","slug":"moca-modern-cannabis"},{"name":"Zen Leaf Naperville","type":"dispensary","phone":"630-634-8543","city":"Naperville","state":"Illinois","zipcode":"60563","slug":"zen-leaf-naperville"},{"name":"Sunnyside Cannabis Dispensary - River North","type":"dispensary","phone":"312-481-7380","city":"Chicago","state":"Illinois","zipcode":"60654","slug":"sunnyside-dispensary-river-north"},{"name":"Jerabek Wellness and Family Health","type":"doctor","phone":"(217) 348-8727","city":"Charleston","state":"Illinois","zipcode":"61920","slug":"jerabek-wellness"},{"name":"Verilife - North Aurora (Medical)","type":"dispensary","phone":"(888) 493-6066","city":"North Aurora","state":"Illinois","zipcode":"60542","slug":"pharmacannis-north-aurora"},{"name":"Maribis of Springfield-Lindbergh","type":"dispensary","phone":"(217)280-5461","city":"Springfield","state":"Illinois","zipcode":"62704","slug":"maribis-of-springfield-2"},{"name":"Medical Cannabis Outreach","type":"doctor","phone":"(309) 338-8900","city":"Chicago","state":"Illinois","zipcode":"60647","slug":"medical-cannabis-outreach-2"},{"name":"RISE Dispensaries Effingham","type":"dispensary","phone":"(217) 727-7715","city":"Effingham","state":"Illinois","zipcode":"62401","slug":"rise-effingham"},{"name":"MedMen Evanston - Maple Ave.","type":"dispensary","phone":"(224) 278-9988","city":"Evanston","state":"Illinois","zipcode":"60201","slug":"medmen-evanston-maple-ave"},{"name":"MedMen Chicago - Oak Park","type":"dispensary","phone":"(708) 665-3143","city":"Oak Park","state":"Illinois","zipcode":"60131","slug":"medmen-chicago-oak-park"},{"name":"Maribis of Chicago","type":"dispensary","phone":"(773) 940-2216","city":"Chicago","state":"Illinois","zipcode":"60632","slug":"maribis-of-chicago"},{"name":"nuEra - Wicker Park","type":"dispensary","phone":"(773) 687-8480","city":"Chicago","state":"Illinois","zipcode":"60642","slug":"numed-downtown-chicago"},{"name":"Rise Dispensaries Niles","type":"dispensary","phone":"(815) 900-2227","city":"Niles","state":"Illinois","zipcode":"60714","slug":"rise-dispensaries-niles"},{"name":"Curaleaf Northbrook","type":"dispensary","phone":"224-306-2788","city":"Northbrook","state":"Illinois","zipcode":"60062","slug":"greenhouse-northbrook"},{"name":"HATCH","type":"dispensary","phone":"(630) 519-1300","city":"Addison","state":"Illinois","zipcode":"60101","slug":"hatch"},{"name":"Rise Dispensaries Lake in the Hills","type":"dispensary","phone":"847-999-3063","city":"Lake In The Hills","state":"Illinois","zipcode":"60156","slug":"rise-dispensaries-lake-in-the-hills"},{"name":"Windy City Cannabis - Posen","type":"dispensary","phone":"312-874-7040","city":"Posen","state":"Illinois","zipcode":"60469","slug":"windy-city-cannabis-posen"},{"name":"Ascend Chicago Ridge","type":"dispensary","phone":"872-260-5100","city":"Chicago Ridge","state":"Illinois","zipcode":"60415","slug":"ascend-chicago-ridge"},{"name":"Mission Calumet City","type":"dispensary","phone":"(773) 530-0088","city":"Calumet City","state":"Illinois","zipcode":"60409","slug":"mission-calumet-city"},{"name":"Green Care Medical","type":"doctor","phone":"(708) 966-3030","city":"Palos Heights","state":"Illinois","zipcode":"60463","slug":"green-care-medical"},{"name":"Thrive - Anna","type":"dispensary","phone":"(618) 715-0887","city":"Anna","state":"Illinois","zipcode":"62906","slug":"thrive-anna"},{"name":"Thrive - Harrisburg","type":"dispensary","phone":"(618) 715-0882","city":"Harrisburg","state":"Illinois","zipcode":"62946","slug":"thrive-harrisburg"},{"name":"Sunnyside Cannabis Dispensary - Danville","type":"dispensary","phone":"217-903-3576","city":"Danville","state":"Illinois","zipcode":"61834","slug":"sunnyside-cannabis-dispensary-danville"},{"name":"Nature's Care","type":"dispensary","phone":"(847) 754-4955","city":"Rolling Meadows","state":"Illinois","zipcode":"60008","slug":"natures-care"}]}}