{"meta":{"total_listings":28},"data":{"listings":[{"name":"Green Rx","type":"doctor","phone":"(337) 565-2239","city":"Carencro","state":"Louisiana","zipcode":"70520","slug":"green-rx"},{"name":"Dr. Leone F. Elliott, Jr., MD","type":"doctor","phone":"(225) 384-5378","city":"Baton Rouge","state":"Louisiana","zipcode":"70809","slug":"dr-leone-f-elliott-jr-md"},{"name":"Green Leaf Dispensary","type":"dispensary","phone":"(985) 360-3372","city":"Houma","state":"Louisiana","zipcode":"70364","slug":"green-leaf-dispensary-houma"},{"name":"The Medicine Cabinet Pharmacy","type":"dispensary","phone":"(318) 545-4460","city":"Alexandria","state":"Louisiana","zipcode":"71301","slug":"the-medicine-cabinet-pharmacy"},{"name":"Dr Karl Gerald Haydel, M. D.","type":"doctor","phone":"(985) 537-0048","city":"Raceland","state":"Louisiana","zipcode":"70394","slug":"dr-karl-gerald-haydel-m-d"},{"name":"Dr. Antonio Edwards \/ Family First Medical Clinic","type":"doctor","phone":"(225) 687-1772","city":"Plaquemine","state":"Louisiana","zipcode":"70764","slug":"dr-antonio-edwards-family-first-medical-clinic"},{"name":"Green Medical Solutions","type":"doctor","phone":"(985) 242-4577","city":"Houma","state":"Louisiana","zipcode":"70360","slug":"green-medical-solutions"},{"name":"Delta Medmar","type":"dispensary","phone":"(318) 855-3373","city":"West Monroe","state":"Louisiana","zipcode":"71291","slug":"delta-medmar"},{"name":"Urgent Care Eleven","type":"doctor","phone":"(504) 324-7790","city":"New Orleans","state":"Louisiana","zipcode":"70117","slug":"urgent-care-eleven"},{"name":"Green Leaf Medical Center","type":"doctor","phone":"(504) 940-4942","city":"Terrytown","state":"Louisiana","zipcode":"70056","slug":"green-leaf-medical-center"},{"name":"Louisiana Medical Marijuana Dispensaries","type":"dispensary","phone":"0000000000","city":"New Orleans","state":"Louisiana","zipcode":"70119","slug":"louisiana-medical-marijuana-dispensaries-2"},{"name":"Louisiana Medical Marijuana Doctors","type":"doctor","phone":"(504)-442-9634","city":"New Orleans","state":"Louisiana","zipcode":"70122","slug":"louisiana-medical-marijuana-doctors"},{"name":"Hope Pharmacy","type":"dispensary","phone":"(318) 585-0420","city":"Shreveport","state":"Louisiana","zipcode":"71103","slug":"hope-pharmacy"},{"name":"TeleLeaf","type":"doctor","phone":"(504)264-3123","city":"New Orleans","state":"Louisiana","zipcode":"70124","slug":"teleleaf"},{"name":"Louisiana Medical Marijuana Dispensaries","type":"dispensary","phone":"0000000000","city":"Baton Rouge","state":"Louisiana","zipcode":"70806","slug":"louisiana-medical-marijuana-dispensaries"},{"name":"Medicis","type":"dispensary","phone":"(337) 420-8420","city":"Lake Charles","state":"Louisiana","zipcode":"70605","slug":"medicis"},{"name":"H & W Drug Store","type":"dispensary","phone":"(504) 301-2363","city":"New Orleans","state":"Louisiana","zipcode":"70122","slug":"h-w-drug-store"},{"name":"Total Health Clinic (THC)","type":"doctor","phone":"(347) 428-4263","city":"Bossier City","state":"Louisiana","zipcode":"71111","slug":"total-health-clinic-thc-2"},{"name":"Medical Marijuana Clinic of Louisiana | Doctor Victor H Chou, M.D.","type":"doctor","phone":"(225) 800-3162","city":"Baton Rouge","state":"Louisiana","zipcode":"70879","slug":"medical-marijuana-clinic-of-louisiana-doctor-victor-h-chou-m-d"},{"name":"Capitol Wellness Solutions","type":"dispensary","phone":"(225) 800-9420","city":"Baton Rouge","state":"Louisiana","zipcode":"70809","slug":"capitol-wellness-solutions"},{"name":"The Apothecary Shoppe","type":"dispensary","phone":"(337) 345-4500","city":"Lafayette","state":"Louisiana","zipcode":"70506","slug":"the-apothecary-shoppe-lafayette"},{"name":"Green Leaf Medical Center","type":"doctor","phone":"985-590-2523","city":"Covington","state":"Louisiana","zipcode":"70433","slug":"green-leaf-medical-center-2"},{"name":"420Recs.com - New Orleans (100% Online)","type":"doctor","phone":"650-300-4334","city":"New Orleans","state":"Louisiana","zipcode":"70126","slug":"420rec-new-orleans"},{"name":"Miracle Leaf Louisiana","type":"doctor","phone":"8332603624","city":"New Orleans","state":"Louisiana","zipcode":"70112","slug":"miracle-leaf-louisiana"},{"name":"Marijuana Doctor- Telehealth- Louisiana","type":"doctor","phone":"(863) 220-9377","city":"Shreveport","state":"Louisiana","zipcode":"71109","slug":"marijuana-doctor-telehealth-louisiana"},{"name":"Total Health Clinic (THC)","type":"doctor","phone":"(347) 428-4263","city":"Lafayette","state":"Louisiana","zipcode":"70506","slug":"total-health-clinic-thc"},{"name":"Willow Pharmacy","type":"dispensary","phone":"(985) 792-2391","city":"Madisonville","state":"Louisiana","zipcode":"70447","slug":"willow-pharmacy"},{"name":"Zen Acupuncture and Pain Management","type":"doctor","phone":"504-513-2531","city":"Metairie","state":"Louisiana","zipcode":"70002","slug":"zen-acupuncture-and-pain-management"}]}}