{"meta":{"total_listings":250},"data":{"listings":[{"name":"Serenity Medical Evaluations","type":"doctor","phone":"951 751 1450","city":"Germantown","state":"Maryland","zipcode":"20874","slug":"serenity-medical-evaluations-39"},{"name":"AIR MD","type":"doctor","phone":"(410) 656-3130","city":"Pikesville","state":"Maryland","zipcode":"21208","slug":"air-md-2"},{"name":"gLeaf Delivery (Wed. + Sat. Only)","type":"delivery","phone":"(800) 208-9333","city":"Cumberland","state":"Maryland","zipcode":"21502","slug":"gleaf-delivery-cumberland"},{"name":"Blue Ridge Wellness","type":"dispensary","phone":"301-640-5265","city":"Parkville","state":"Maryland","zipcode":"21234","slug":"blue-ridge-wellness"},{"name":"The Health Center","type":"doctor","phone":"3012622168","city":"Rockville","state":"Maryland","zipcode":"20850","slug":"the-health-center-5"},{"name":"Salvera","type":"dispensary","phone":"(240) 260-3305","city":"Bowie","state":"Maryland","zipcode":"20716","slug":"salvera"},{"name":"Herbiculture","type":"dispensary","phone":"(240) 390-3942","city":"Burtonsville","state":"Maryland","zipcode":"20866","slug":"herbiculture"},{"name":"Turning Point Integrative Health Centers","type":"doctor","phone":"(443) 951-4300","city":"Annapolis","state":"Maryland","zipcode":"21401","slug":"turning-point-integrative-health-centers-2"},{"name":"410 Medicine","type":"doctor","phone":"(410) 941-8010","city":"Salisbury","state":"Maryland","zipcode":"21804","slug":"410-medicne"},{"name":"Dr. Cannon","type":"doctor","phone":"(301) 331-0000","city":"Cumberland","state":"Maryland","zipcode":"21502","slug":"more-with-doc-c"},{"name":"Maryland Cannabis Consultants","type":"doctor","phone":"(301) 471-4716","city":"Boyds","state":"Maryland","zipcode":"20841","slug":"maryland-cannabis-consultants"},{"name":"gLeaf Delivery","type":"delivery","phone":"3019173665","city":"Temple Hills","state":"Maryland","zipcode":"20748","slug":"gleaf-wellness-delivery-temple-hills-11am-6pm"},{"name":"SweetBuds Dispensary","type":"dispensary","phone":"240-877-2837","city":"Frederick","state":"Maryland","zipcode":"21703","slug":"sweetbuds-dispensary"},{"name":"Nature's Medicines Ellicott City","type":"dispensary","phone":"(410) 988-6004","city":"Ellicott City","state":"Maryland","zipcode":"21042","slug":"natures-medicines-ellicott-city"},{"name":"gLeaf Delivery","type":"delivery","phone":"(800) 208-9333","city":"Bethesda","state":"Maryland","zipcode":"20814","slug":"gleaf-bethesda"},{"name":"ZYBS Medical Group","type":"doctor","phone":"(301) 850-6099","city":"Upper Marlboro","state":"Maryland","zipcode":"20774","slug":"zybs-medical-group"},{"name":"AmediCanna Dispensary","type":"dispensary","phone":"(410) 565-6421","city":"Halethorpe","state":"Maryland","zipcode":"21227","slug":"amedicanna-dispensary"},{"name":"Clarksburg Health Care","type":"doctor","phone":"(240) 668-4821","city":"Clarksburg","state":"Maryland","zipcode":"20871","slug":"clarksburg-health-care-2"},{"name":"Annapolis Family Medicine","type":"doctor","phone":"(410) 280-9500","city":"Annapolis","state":"Maryland","zipcode":"21401","slug":"annapolis-family-medicine"},{"name":"Releaf Life MD","type":"doctor","phone":"(240) 825-4390","city":"College Park","state":"Maryland","zipcode":"20740","slug":"releaf-life"},{"name":"Euphoria Wellness - New Market","type":"delivery","phone":"(301) 882-7910","city":"New Market","state":"Maryland","zipcode":"21774","slug":"euphoria-wellness-new-market"},{"name":"RevCanna","type":"dispensary","phone":"(410) 329-4926","city":"Abingdon","state":"Maryland","zipcode":"21009","slug":"revcanna"},{"name":"Curio Wellness","type":"dispensary","phone":"(443) 484-8600","city":"Timonium","state":"Maryland","zipcode":"21093","slug":"curio-wellness"},{"name":"Turning Point Integrative Health Centers","type":"doctor","phone":"(410) 312-5280","city":"Columbia","state":"Maryland","zipcode":"21046","slug":"turning-point-integrative-health-centers"},{"name":"Serenity Medical Evaluations","type":"doctor","phone":"410-402-1140","city":"Annapolis","state":"Maryland","zipcode":"21401","slug":"serenity-medical-evaluations-1-1"},{"name":"Reach Out Clinic","type":"doctor","phone":"(877) 476-3466","city":"Hyattsville","state":"Maryland","zipcode":"20785","slug":"reach-out-clinic-3"},{"name":"Remedy Columbia","type":"dispensary","phone":"(443) 542-0948","city":"Columbia","state":"Maryland","zipcode":"21045","slug":"remedy-columbia"},{"name":"The Health Center","type":"doctor","phone":"(301) 262-2168","city":"Waldorf","state":"Maryland","zipcode":"20602","slug":"the-health-center-6"},{"name":"Verilife - Rockville","type":"dispensary","phone":"(888) 493-6066","city":"Rockville","state":"Maryland","zipcode":"20852","slug":"verilife-rockville"},{"name":"gLeaf - Frederick","type":"dispensary","phone":"301-662-2222","city":"Frederick","state":"Maryland","zipcode":"21703","slug":"gleaf-frederick"},{"name":"Serenity Medical Evaluations","type":"doctor","phone":"410-402-1140","city":"Columbia","state":"Maryland","zipcode":"21046","slug":"serenity-medical-evaluations-42"},{"name":"Mercy Medical Cannabis Clinic","type":"doctor","phone":"4104655451","city":"Catonsville","state":"Maryland","zipcode":"21228","slug":"mercy-medical-cannabis-clinic"},{"name":"Herbology - Gaithersburg","type":"dispensary","phone":"240-720-7749","city":"Gaithersburg","state":"Maryland","zipcode":"20877","slug":"herbology-gaithersburg"},{"name":"Serenity Medical Evaluations","type":"doctor","phone":"(951) 751-1450","city":"Parkville","state":"Maryland","zipcode":"21234","slug":"serenity-medical-evaluations-14"},{"name":"Primary NP Associates","type":"doctor","phone":"(410) 356-4680","city":"Owings Mills","state":"Maryland","zipcode":"21117","slug":"primary-np-associates"},{"name":"Marijane Consults","type":"doctor","phone":"4433716940","city":"Eldersburg","state":"Maryland","zipcode":"21784","slug":"marijane-consults-3"},{"name":"Garrett Treatment Center","type":"doctor","phone":"(301) 533-2888","city":"Oakland","state":"Maryland","zipcode":"21550","slug":"dr-richard-perry-md"},{"name":"Bmore Hydrated","type":"doctor","phone":"(410) 864-2169","city":"Baltimore","state":"Maryland","zipcode":"21224","slug":"bmore-hydrated"},{"name":"Green Wellness RX","type":"doctor","phone":"(443) 949-7381","city":"Hyattsville","state":"Maryland","zipcode":"20783","slug":"green-wellness-rx-5"},{"name":"Green Wellness RX","type":"doctor","phone":"(443) 949-7381","city":"Silver Spring","state":"Maryland","zipcode":"20902","slug":"green-wellness-rx-6"},{"name":"The Living Room","type":"dispensary","phone":"(443) 313-8724","city":"Pikesville","state":"Maryland","zipcode":"21208","slug":"the-living-room"},{"name":"VidyaMed Clinics","type":"doctor","phone":"(650) 275-3373","city":"Pikesville","state":"Maryland","zipcode":"21208","slug":"vidyamed-clinics-md"},{"name":"Allegany Medical Marijuana Dispensary","type":"dispensary","phone":"(888) 446-3420","city":"Cumberland","state":"Maryland","zipcode":"21502","slug":"allegany-medical-marijuana-dispensary"},{"name":"CTA Medical Cannabis","type":"doctor","phone":"(410) 988-2503","city":"Towson","state":"Maryland","zipcode":"21204","slug":"cta-medical-cannabis-2"},{"name":"RISE Dispensaries Silver Spring","type":"dispensary","phone":"(301) 565-8100","city":"Silver Spring","state":"Maryland","zipcode":"20910","slug":"rise-silver-spring"},{"name":"Greenwave Maryland","type":"dispensary","phone":"(410) 394-3936","city":"Solomons","state":"Maryland","zipcode":"20688","slug":"greenwave-maryland"},{"name":"Verilife - Takoma Park","type":"dispensary","phone":"(301) 679-6420","city":"Takoma Park","state":"Maryland","zipcode":"20912","slug":"verilife-takoma-park"},{"name":"Euphoria Wellness - Union Bridge","type":"delivery","phone":"(301) 882-7910","city":"Union Bridge","state":"Maryland","zipcode":"21791","slug":"euphoria-wellness-union-bridge"},{"name":"gLeaf Delivery","type":"delivery","phone":"(301) 662-2222","city":"Towson","state":"Maryland","zipcode":"21204","slug":"gleaf-towson"},{"name":"Dispensary Works","type":"dispensary","phone":"(240) 585-5220","city":"White Plains","state":"Maryland","zipcode":"20695","slug":"dispensary-works"},{"name":"Compassionate Care Consultants","type":"doctor","phone":"(443) 320-2500","city":"Baltimore","state":"Maryland","zipcode":"21202","slug":"compassionate-care-consultants"},{"name":"CannaLeaf Health","type":"doctor","phone":"(443) 800-0670","city":"Ellicott City","state":"Maryland","zipcode":"21042","slug":"cannaleaf-health"},{"name":"Nature’s Therapy","type":"doctor","phone":"(410) 665-2112","city":"Parkville","state":"Maryland","zipcode":"21234","slug":"nature-s-therapy"},{"name":"Grow West Cannabis Company","type":"dispensary","phone":"(833) 942-9900","city":"Cumberland","state":"Maryland","zipcode":"21502","slug":"grow-west-cannabis-company"},{"name":"Fells Point Cannabis Docs","type":"doctor","phone":"(410) 401-4200","city":"Baltimore","state":"Maryland","zipcode":"21231","slug":"fells-point-cannabis-docs"},{"name":"Serenity Medical Evaluations","type":"doctor","phone":"410-402-1140","city":"Arnold","state":"Maryland","zipcode":"21012","slug":"serenity-medical-evaluations-7a1bc541-b860-41fb-bdc7-11384178e43e"},{"name":"Serenity Medical Evaluations","type":"doctor","phone":"410-402-1140","city":"Pikesville","state":"Maryland","zipcode":"21208","slug":"serenity-medical-evaluations-41"},{"name":"gLeaf Delivery","type":"delivery","phone":"3019173665","city":"Silver Spring","state":"Maryland","zipcode":"20902","slug":"gleaf-silver-spring-md"},{"name":"The Health Center","type":"doctor","phone":"(301) 262-2168","city":"Annapolis","state":"Maryland","zipcode":"21401","slug":"the-health-center-9"},{"name":"Zen Leaf - Jessup","type":"delivery","phone":"(833) 936-5323","city":"Columbia","state":"Maryland","zipcode":"21045","slug":"zen-leaf-columbia"},{"name":"Herbology - Westminster","type":"delivery","phone":"(240) 801-3775","city":"Westminster","state":"Maryland","zipcode":"21157","slug":"herbology-north-bethesda"},{"name":"Gold Leaf","type":"dispensary","phone":"(410) 267-3000","city":"Annapolis","state":"Maryland","zipcode":"21401","slug":"gold-leaf"},{"name":"gLeaf Delivery","type":"delivery","phone":"3019173665","city":"Waldorf","state":"Maryland","zipcode":"20601","slug":"gleaf-wellness-solutions-delivery-11am-6pm"},{"name":"Zen Leaf Towson","type":"dispensary","phone":"(410) 842-9333","city":"Towson","state":"Maryland","zipcode":"21286","slug":"herban-legends-towson"},{"name":"Dr. Steven N. Rice, DDS","type":"doctor","phone":"(301) 881-5040","city":"Rockville","state":"Maryland","zipcode":"20852","slug":"dr-steven-n-rice-dds"},{"name":"GreenLeaf Evaluation and Resource Center","type":"doctor","phone":"(410) 862-0062","city":"Baltimore","state":"Maryland","zipcode":"21218","slug":"greenleaf-evaluation-and-resource-center"},{"name":"Nature's Medicines Crofton","type":"dispensary","phone":"(410) 264-1411","city":"Crofton","state":"Maryland","zipcode":"21114","slug":"natures-medicines-crofton"},{"name":"Arya Wellness Center","type":"doctor","phone":"(877) 862-0303","city":"Silver Spring","state":"Maryland","zipcode":"20906","slug":"arya-wellness-center"},{"name":"Peake ReLeaf Delivery","type":"delivery","phone":"(301) 703-2400","city":"Potomac","state":"Maryland","zipcode":"20854","slug":"peake-releaf-delivery"},{"name":"Dr. Jennifer Tipograph, DDS","type":"doctor","phone":"(301) 770-2270","city":"Rockville","state":"Maryland","zipcode":"20852","slug":"jennifer-tipograph-dds"},{"name":"Mary & Main","type":"dispensary","phone":"(240) 838-3660","city":"Capitol Heights","state":"Maryland","zipcode":"20743","slug":"mary-and-main-capitol-heights"},{"name":"Greenlight Therapeutics","type":"dispensary","phone":"(410) 650-4150","city":"Gambrills","state":"Maryland","zipcode":"21054","slug":"greenlight-therapeutics"},{"name":"Ethos Rockville (Formerly Mission Rockville)","type":"dispensary","phone":"240-599-5290","city":"Rockville","state":"Maryland","zipcode":"20853","slug":"mission-rockville"},{"name":"Health For Life - Bethesda","type":"dispensary","phone":"(240) 760-2420","city":"Bethesda","state":"Maryland","zipcode":"20814","slug":"health-for-life-bethesda"},{"name":"Reach Out Clinic","type":"doctor","phone":"(877) 476-3466","city":"Rockville","state":"Maryland","zipcode":"20852","slug":"reach-out-clinic-2"},{"name":"Peake ReLeaf Delivery (NOW OPEN!)","type":"delivery","phone":"(301) 703-2400","city":"Germantown","state":"Maryland","zipcode":"20876","slug":"peake-releaf-delivery-3"},{"name":"Serenity Medical Evaluations","type":"doctor","phone":"(951) 751-1450","city":"Germantown","state":"Maryland","zipcode":"20874","slug":"serenity-medical-evaluations-17"},{"name":"Your Farmacy Delivery - Lutherville","type":"delivery","phone":"(410) 970-4666","city":"Lutherville","state":"Maryland","zipcode":"21093","slug":"your-farmacy"},{"name":"gLeaf Delivery (Saturday Only)","type":"delivery","phone":"3019173665","city":"Centreville","state":"Maryland","zipcode":"21617","slug":"gleaf-centreville"},{"name":"Mt Washington Cannabis Docs","type":"doctor","phone":"410-401-4200","city":"Baltimore","state":"Maryland","zipcode":"21209","slug":"mt-washington-cannabis-docs"},{"name":"Chesapeake Apothecary","type":"dispensary","phone":"(301) 818-2427","city":"White Plains","state":"Maryland","zipcode":"20695","slug":"chesapeake-apothecary"},{"name":"Nature's Care & Wellness Delivery","type":"delivery","phone":"(443) 252-1383","city":"Baltimore","state":"Maryland","zipcode":"21224","slug":"natures-care-and-wellness-baltimore"},{"name":"Toscana MediSpa and Wellness Center","type":"doctor","phone":"(410) 837-2262","city":"Baltimore","state":"Maryland","zipcode":"21202","slug":"toscana-medispa-and-wellness-center"},{"name":"The Health Center","type":"doctor","phone":"844-420-APPT","city":"Glenn Dale","state":"Maryland","zipcode":"20769","slug":"the-health-center"},{"name":"Maryland Cannabis Care","type":"doctor","phone":"(443) 914-3777","city":"Owings Mills","state":"Maryland","zipcode":"21117","slug":"maryland-cannabis-care"},{"name":"Serenity Medical Evaluations","type":"doctor","phone":"410-402-1140","city":"Laurel","state":"Maryland","zipcode":"20707","slug":"serenity-medical-evaluations-37"},{"name":"Black Rock Integrative Medicine","type":"doctor","phone":"(301) 790-4938","city":"Hagerstown","state":"Maryland","zipcode":"21740","slug":"black-rock-integrative-medicine"},{"name":"MD Pain & Spine Associates","type":"doctor","phone":"(240) 469-3002","city":"Hagerstown","state":"Maryland","zipcode":"21740","slug":"md-pain-and-spine"},{"name":"Euphoria Wellness Delivery - Hagerstown","type":"delivery","phone":"(301) 882-7910","city":"Hagerstown","state":"Maryland","zipcode":"21740","slug":"euphoria-wellness-hagerstown"},{"name":"Trilogy Wellness","type":"dispensary","phone":"(443) 539-7372","city":"Ellicott City","state":"Maryland","zipcode":"21042","slug":"trilogy-wellness"},{"name":"Potomac Holistics","type":"dispensary","phone":"2406545276","city":"Rockville","state":"Maryland","zipcode":"20850","slug":"potomac-holistics"},{"name":"Dr. Cannon","type":"doctor","phone":"(301) 331-0000","city":"Hagerstown","state":"Maryland","zipcode":"21740","slug":"more-with-doc-c-md"},{"name":"gLeaf Delivery","type":"delivery","phone":"3019173665","city":"Ellicott City","state":"Maryland","zipcode":"21043","slug":"gleaf-ellicottcity"},{"name":"Waave (Now Open!)","type":"dispensary","phone":"240-436-0600","city":"Greenbelt","state":"Maryland","zipcode":"20770","slug":"waave"},{"name":"Bethesda Weed Rx","type":"doctor","phone":"(301) 656-8788","city":"Bethesda","state":"Maryland","zipcode":"20814","slug":"cord-h-schlobohm-d-m-d-bethesda-weed-rx"},{"name":"The Health Center","type":"doctor","phone":"844-420-APPT","city":"Catonsville","state":"Maryland","zipcode":"21228","slug":"the-health-center-llc"},{"name":"Green Flower Consultations","type":"doctor","phone":"443-351-4116","city":"Baltimore","state":"Maryland","zipcode":"21230","slug":"green-flower-consultations-1"},{"name":"Star Buds Baltimore","type":"dispensary","phone":"(443) 438-7494","city":"Baltimore","state":"Maryland","zipcode":"21206","slug":"starbuds-baltimore"},{"name":"The Sanctuary Wellness Institute","type":"doctor","phone":"(240) 232-6645","city":"Bethesda","state":"Maryland","zipcode":"20817","slug":"the-sanctuary-wellness-institute-11"},{"name":"gLeaf - Rockville","type":"dispensary","phone":"301-917-3665","city":"Rockville","state":"Maryland","zipcode":"20850","slug":"gleaf-rockville"},{"name":"Greenhouse Wellness","type":"dispensary","phone":"(410) 910-8702","city":"Ellicott City","state":"Maryland","zipcode":"21042","slug":"greenhouse-wellness-columbia"},{"name":"Taylor Integrated Health","type":"doctor","phone":"(410) 292-0483","city":"Baltimore","state":"Maryland","zipcode":"21216","slug":"taylor-integrated-health"},{"name":"Nature's Care & Wellness Delivery - White Marsh","type":"delivery","phone":"(443) 252-1383","city":"White Marsh","state":"Maryland","zipcode":"21128","slug":"natures-care-and-wellness-white-marsh"},{"name":"Haven","type":"dispensary","phone":"(240) 650-0420","city":"Brandywine","state":"Maryland","zipcode":"20613","slug":"haven"},{"name":"Green Goods - Frederick","type":"dispensary","phone":"(240) 772-9520","city":"Frederick","state":"Maryland","zipcode":"21703","slug":"green-goods-frederick"},{"name":"My420Dr","type":"doctor","phone":"4109389000","city":"Annapolis","state":"Maryland","zipcode":"21401","slug":"my420dr"},{"name":"gLeaf Delivery","type":"delivery","phone":"(800) 208-9333","city":"Gaithersburg","state":"Maryland","zipcode":"20877","slug":"gleaf-gaithersburg"},{"name":"Herbology - Gaithersburg Delivery","type":"delivery","phone":"(240) 801-3775","city":"Gaithersburg","state":"Maryland","zipcode":"20879","slug":"herbology-gaithersburg"},{"name":"CTA Medical Cannabis","type":"doctor","phone":"(410) 988-2503","city":"Columbia","state":"Maryland","zipcode":"21045","slug":"cta-medical-cannabis"},{"name":"Mercy Medical Cannabis Clinic","type":"doctor","phone":"(443) 280-2407","city":"Takoma Park","state":"Maryland","zipcode":"20912","slug":"mercy-medical-cannabis-clinic-2"},{"name":"Serenity Medical Evaluations","type":"doctor","phone":"410-402-1140","city":"Silver Spring","state":"Maryland","zipcode":"20901","slug":"serenity-medical-evaluations-43"},{"name":"ReLeaf Shop","type":"dispensary","phone":"(410) 773-9054","city":"Baltimore","state":"Maryland","zipcode":"21201","slug":"releaf-shop"},{"name":"Green Health Docs","type":"doctor","phone":"(877) 242-0362","city":"Hagerstown","state":"Maryland","zipcode":"21740","slug":"green-health-docs-6"},{"name":"RISE Dispensaries Bethesda","type":"dispensary","phone":"(301) 571-0420","city":"Bethesda","state":"Maryland","zipcode":"20814","slug":"rise-bethesda"},{"name":"Green Relief Health","type":"doctor","phone":"410-368-0420","city":"Baltimore","state":"Maryland","zipcode":"21236","slug":"green-relief-health-2"},{"name":"Green Health Docs","type":"doctor","phone":"(877) 242-0362","city":"Owings Mills","state":"Maryland","zipcode":"21117","slug":"green-health-docs-71107353-4a1c-455c-be31-e0d3a9faa6d8"},{"name":"Dr. Vitaly Stepensky","type":"doctor","phone":"(717) 884-8259","city":"Rockville","state":"Maryland","zipcode":"20850","slug":"dr-vitaly-stepensky"},{"name":"Eastern Shore MediCann Clinic LLC.","type":"doctor","phone":"(443) 666-0711","city":"Kennedyville","state":"Maryland","zipcode":"21645","slug":"eastern-shore-medicann-clinic-llc"},{"name":"Dr. Marc S. Scheiner, MD","type":"doctor","phone":"(443) 484-7573","city":"Edgewood","state":"Maryland","zipcode":"21040","slug":"dr-marc-s-scheiner-md-2"},{"name":"Dominion Health Care Services Inc.","type":"doctor","phone":"(443) 848-9123","city":"Baltimore","state":"Maryland","zipcode":"21229","slug":"dominion-health-care-services-inc"},{"name":"Harvest Medical","type":"doctor","phone":"(443) 513-0500","city":"Salisbury","state":"Maryland","zipcode":"21804","slug":"harvest-medical"},{"name":"weed4pain.org","type":"doctor","phone":"(301) 694-8881","city":"Frederick","state":"Maryland","zipcode":"21704","slug":"weed4pain-org"},{"name":"Sunburst Pharm","type":"dispensary","phone":"(443) 972-5501","city":"Cambridge","state":"Maryland","zipcode":"21613","slug":"sunburst-pharm"},{"name":"Peake ReLeaf","type":"dispensary","phone":"(301) 703-2400","city":"Rockville","state":"Maryland","zipcode":"20852","slug":"peake-releaf"},{"name":"Family Health Connections","type":"doctor","phone":"410 465 5451","city":"Ellicott City","state":"Maryland","zipcode":"21042","slug":"familyhealthconnections"},{"name":"gLeaf Delivery","type":"delivery","phone":"3019173665","city":"Glen Burnie","state":"Maryland","zipcode":"21054","slug":"gleaf-gambrills"},{"name":"Anne L Grady, D.O.","type":"doctor","phone":"(410) 820-6870","city":"Easton","state":"Maryland","zipcode":"21601","slug":"anne-l-grady-d-o"},{"name":"gLeaf Delivery","type":"delivery","phone":"(800) 208-9333","city":"Baltimore","state":"Maryland","zipcode":"21223","slug":"gleaf-baltimore"},{"name":"ACT Health Integrated Services, LLC","type":"doctor","phone":"(301) 679-5770","city":"Gaithersburg","state":"Maryland","zipcode":"20877","slug":"act-health-integrated-services-llc-3"},{"name":"Dr. Marc S. Scheiner, MD","type":"doctor","phone":"(410) 618-6315","city":"Elkton","state":"Maryland","zipcode":"21921","slug":"dr-marc-s-scheiner-md"},{"name":"Marijane Consults","type":"doctor","phone":"(443) 371-6940","city":"BelAir","state":"Maryland","zipcode":"21014","slug":"marijane-consults"},{"name":"Nirvana Center","type":"delivery","phone":"410-989-3365","city":"Baltimore","state":"Maryland","zipcode":"21215","slug":"nirvana-center-3"},{"name":"Oceanside","type":"dispensary","phone":"443-354-1211","city":"Pasadena","state":"Maryland","zipcode":"21122","slug":"oceanside"},{"name":"Zen Leaf Jessup","type":"dispensary","phone":"(833) 936-5323","city":"Jessup","state":"Maryland","zipcode":"20794","slug":"zen-leaf-maryland"},{"name":"Ethos Hampden (Formerly Mission)","type":"dispensary","phone":"(443)-990-0440","city":"Baltimore","state":"Maryland","zipcode":"21211","slug":"mission-hampden"},{"name":"Euphoria Wellness - Maryland Cannabis","type":"dispensary","phone":"(301) 882-7910","city":"New Market","state":"Maryland","zipcode":"21774","slug":"euphoria-wellness-maryland"},{"name":"Avenue Of Cannabis","type":"doctor","phone":"(410) 939-3343","city":"Havre de Grace","state":"Maryland","zipcode":"21078","slug":"avenue-of-cannabis"},{"name":"gLeaf Delivery","type":"delivery","phone":"3019173665","city":"Rockville","state":"Maryland","zipcode":"20850","slug":"gleaf-rockville"},{"name":"GreenLabs","type":"dispensary","phone":"(410) 624-5520","city":"Baltimore","state":"Maryland","zipcode":"21231","slug":"greenlabs"},{"name":"Compassionate Care Consultants","type":"doctor","phone":"4843206550","city":"Annapolis","state":"Maryland","zipcode":"21401","slug":"compassionate-care-consultants-15"},{"name":"Laurel Medicine","type":"doctor","phone":"(301) 497-0401","city":"Laurel","state":"Maryland","zipcode":"20707","slug":"dr-darryl-a-hill-md"},{"name":"gLeaf Delivery","type":"delivery","phone":"(800) 208-9333","city":"Hagerstown","state":"Maryland","zipcode":"21740","slug":"gleaf-hagerstown"},{"name":"Serenity Medical Evaluations","type":"doctor","phone":"4104021140","city":"Bel Air","state":"Maryland","zipcode":"21014","slug":"serenity-medical-evaluations-27"},{"name":"Sweetspot Dispensary","type":"dispensary","phone":"(301) 774-0840","city":"Olney","state":"Maryland","zipcode":"20832","slug":"sweetspot-2"},{"name":"Nirvana Center","type":"dispensary","phone":"410-989-3365","city":"Baltimore","state":"Maryland","zipcode":"21229","slug":"the-nirvana-center-1"},{"name":"David Pinsky, DDS","type":"doctor","phone":"(240) 683-8111","city":"Rockville","state":"Maryland","zipcode":"20850","slug":"david-pinsky-dds"},{"name":"Peake ReLeaf Delivery","type":"delivery","phone":"(301) 703-2400","city":"Colesville","state":"Maryland","zipcode":"20904","slug":"peake-releaf-delivery-2"},{"name":"Harvest HOC","type":"dispensary","phone":"(301) 678-4744","city":"Rockville","state":"Maryland","zipcode":"20852","slug":"harvest-of-rockville"},{"name":"Charm City Medicus","type":"dispensary","phone":"(443) 530-6474","city":"Baltimore","state":"Maryland","zipcode":"21224","slug":"charm-city-medicus"},{"name":"Green Health Docs","type":"doctor","phone":"(877) 242-0362","city":"Frederick","state":"Maryland","zipcode":"21701","slug":"green-health-docs"},{"name":"Karl Spector, MD & Associates \/ Karl Spector, MD - Privia Medical Group","type":"doctor","phone":"(410) 515-6774","city":"Bel Air","state":"Maryland","zipcode":"21014","slug":"dr-karl-spector-md"},{"name":"Green Care Medical","type":"doctor","phone":"(708) 966-3030","city":"Gaithersburg","state":"Maryland","zipcode":"20877","slug":"green-care-medical-6"},{"name":"Canna Medical Consulting","type":"doctor","phone":"410-252-4406","city":"Lutherville","state":"Maryland","zipcode":"21093","slug":"canna-medical-consulting"},{"name":"Dr. Matthew A. Hahn, MD","type":"doctor","phone":"(301) 678-7007","city":"Hancock","state":"Maryland","zipcode":"21750","slug":"dr-matthew-a-hahn-md"},{"name":"Golden Days Healthcare","type":"doctor","phone":"(301) 503-1490","city":"Bowie","state":"Maryland","zipcode":"20720","slug":"golden-days-healthcare"},{"name":"Maryland Cannabis Physicians","type":"doctor","phone":"(667) 367-2260","city":"Westminster","state":"Maryland","zipcode":"21157","slug":"maryland-cannabis-physicians"},{"name":"gLeaf Delivery","type":"delivery","phone":"(800) 208-9333","city":"Bowie","state":"Maryland","zipcode":"20770","slug":"gleaf-wellness-solutions-bowie-1"},{"name":"Dr. Jonathan Levin, MD","type":"doctor","phone":"(301) 774-1622","city":"Olney","state":"Maryland","zipcode":"20832","slug":"dr-jonathan-levin-md"},{"name":"True Wellness - Laurel","type":"dispensary","phone":"(240) 360-2616","city":"Laurel","state":"Maryland","zipcode":"20707","slug":"true-wellness-laurel"},{"name":"Canna Docs Rx","type":"doctor","phone":"(301) 593-4200","city":"Silver Spring","state":"Maryland","zipcode":"20902","slug":"dr-marvin-r-mark-dmd-Canna-Docs-Rx"},{"name":"My NP Health","type":"doctor","phone":"(301) 920-7060","city":"Rockville","state":"Maryland","zipcode":"20855","slug":"my-np-health"},{"name":"Bowie Health and Spine","type":"doctor","phone":"(301) 430-0213","city":"Bowie","state":"Maryland","zipcode":"20716","slug":"dr-donald-c-egbuonu-md"},{"name":"Green Point Wellness - Laurel (Newly Opened)","type":"dispensary","phone":"240-524-4010","city":"Laurel","state":"Maryland","zipcode":"20707","slug":"green-point-wellness-laurel"},{"name":"Revolution Releaf - Laurel","type":"dispensary","phone":"(240) 280-8446","city":"Laurel","state":"Maryland","zipcode":"20723","slug":"revolution-releaf"},{"name":"Peake ReLeaf Delivery","type":"delivery","phone":"(301) 703-2400","city":"Bethesda","state":"Maryland","zipcode":"20814","slug":"peake-releaf-delivery-1"},{"name":"RISE Dispensaries Joppa","type":"dispensary","phone":"(410) 676-1123","city":"Joppa","state":"Maryland","zipcode":"21085","slug":"rise-joppa"},{"name":"Aurora Health Services","type":"doctor","phone":"(301) 477-2684","city":"Laurel","state":"Maryland","zipcode":"20708","slug":"aurora-health-services"},{"name":"Omni Med Center","type":"doctor","phone":"(301) 350-8500","city":"Upper Marlboro","state":"Maryland","zipcode":"20774","slug":"dr-omni-med-center"},{"name":"Nature's Care & Wellness Delivery","type":"delivery","phone":"(443) 252-1383","city":"Elkton","state":"Maryland","zipcode":"21921","slug":"nature-s-care-wellness-delivery"},{"name":"gLeaf Delivery","type":"delivery","phone":"(800) 208-9333","city":"Frederick","state":"Maryland","zipcode":"21701","slug":"gleaf-frederick"},{"name":"Cannabis Wellness Consultants","type":"doctor","phone":"(302) 751-0478","city":"Hyattsville","state":"Maryland","zipcode":"20782","slug":"cannabis-wellness-consultants"},{"name":"Curaleaf","type":"dispensary","phone":"(301) 304-4100","city":"Gaithersburg","state":"Maryland","zipcode":"20879","slug":"zenity-wellness-gaithersburg"},{"name":"Curaleaf Gaithersburg Montgomery Ave","type":"dispensary","phone":"(240) 642-3010","city":"Gaithersburg","state":"Maryland","zipcode":"20886","slug":"curaleaf-airpark"},{"name":"Kannavis","type":"dispensary","phone":"(301) 810-2962","city":"Frederick","state":"Maryland","zipcode":"21704","slug":"kannavis"},{"name":"Herban Medical Options","type":"doctor","phone":"(301) 844-6880","city":"Mt. Rainier","state":"Maryland","zipcode":"20712","slug":"herban-medical-options"},{"name":"Dr. Jonathan Levin, MD","type":"doctor","phone":"(443) 868-7149","city":"Rosedale","state":"Maryland","zipcode":"21237","slug":"dr-jonathan-levin-md-2"},{"name":"Nature's Care & Wellness Delivery - Columbia","type":"delivery","phone":"(443) 252-1383","city":"Columbia","state":"Maryland","zipcode":"21044","slug":"nature-s-care-wellness-delivery-newly-opened-columbia"},{"name":"Baltimore Progressive Compassionate Care","type":"doctor","phone":"(410) 821-1853","city":"Towson","state":"Maryland","zipcode":"21286","slug":"dr-c-weng"},{"name":"Verilife Delivery","type":"delivery","phone":"(301) 484-8393","city":"Rockville","state":"Maryland","zipcode":"20852","slug":"verilife"},{"name":"Verilife - Westminster","type":"dispensary","phone":"443-952-4127","city":"Westminster","state":"Maryland","zipcode":"21157","slug":"verilife-westminster"},{"name":"Southern Maryland Relief","type":"dispensary","phone":"(301) 242-3200","city":"Mechanicsville","state":"Maryland","zipcode":"20659","slug":"southern-maryland-relief"},{"name":"Mana Supply Co. Edgewater","type":"dispensary","phone":"(410) 317-4825","city":"Edgewater","state":"Maryland","zipcode":"21037","slug":"mana-supply-co-edgewater"},{"name":"weed4pain.org","type":"doctor","phone":"(301) 790-2271","city":"Hagerstown","state":"Maryland","zipcode":"21740","slug":"weed4pain-org-2"},{"name":"Serenity Medical Evaluations","type":"doctor","phone":"410 402 1140","city":"Cockeysville","state":"Maryland","zipcode":"21030","slug":"serenity-medical-evaluations-40"},{"name":"Maggie's","type":"dispensary","phone":"(443) 873-6974","city":"Hampden","state":"Maryland","zipcode":"21211","slug":"maggie-s"},{"name":"The Dispensary","type":"dispensary","phone":"(667) 314-3297","city":"Westminster","state":"Maryland","zipcode":"21157","slug":"the-dispensary-westminster"},{"name":"Bloom Medicinals - Germantown","type":"dispensary","phone":"(240) 813-8818","city":"Germantown","state":"Maryland","zipcode":"20876","slug":"bloom-medicinals-cannabis-dispensary"},{"name":"Baltimore Progressive Compassionate Care","type":"doctor","phone":"(410) 821-1853","city":"Baltimore","state":"Maryland","zipcode":"21206","slug":"baltimore-progressive-compassionate-care-2"},{"name":"Serenity Medical Evaluations","type":"doctor","phone":"(951) 751-1450","city":"Hagerstown","state":"Maryland","zipcode":"21742","slug":"serenity-medical-evaluations-11"},{"name":"Golden Days Healthcare","type":"doctor","phone":"3015031490","city":"Bowie","state":"Maryland","zipcode":"20720","slug":"golden-days-healthcare-1"},{"name":"Shore Wellness and Med Spa","type":"doctor","phone":"(410) 973-1030","city":"Berlin","state":"Maryland","zipcode":"21811","slug":"dr-william-gunn-md"},{"name":"gLeaf Delivery","type":"delivery","phone":"3019173665","city":"Annapolis","state":"Maryland","zipcode":"21401","slug":"gleaf-wellness-solutions-annapolis"},{"name":"Blair Wellness Center","type":"dispensary","phone":"4103230100","city":"Baltimore","state":"Maryland","zipcode":"21212","slug":"blair-wellness-center"},{"name":"Kip","type":"dispensary","phone":"(410) 403-0280","city":"Cockeysville","state":"Maryland","zipcode":"21030","slug":"kip"},{"name":"Zen Leaf - Germantown","type":"dispensary","phone":"(240) 732-2250","city":"Germantown","state":"Maryland","zipcode":"20874","slug":"zen-leaf-germantown"},{"name":"Baltimore Progressive Compassionate Care","type":"doctor","phone":"(410) 821-1853","city":"Havre De Grace","state":"Maryland","zipcode":"21078","slug":"baltimore-progressive-compassionate-care"},{"name":"CULTA","type":"dispensary","phone":"(844) 507-9333","city":"Baltimore","state":"Maryland","zipcode":"21230","slug":"culta"},{"name":"Pain & Injury Center of Greater Washington","type":"doctor","phone":"(301) 770-6301","city":"Rockville","state":"Maryland","zipcode":"20852","slug":"pain-injury-center-of-greater-washington"},{"name":"Green Remedy Wellness","type":"doctor","phone":"(410) 761-3574","city":"Glen Burnie","state":"Maryland","zipcode":"21061","slug":"greenremedywellness"},{"name":"Green Health Docs","type":"doctor","phone":"(877) 242-0362","city":"Rosedale","state":"Maryland","zipcode":"21237","slug":"green-health-docs-5"},{"name":"Harvest HOC (Formerly Your Farmacy)","type":"dispensary","phone":"(410) 970-4666","city":"Lutherville","state":"Maryland","zipcode":"21093","slug":"harvest-hoc-lutherville"},{"name":"Serenity Medical Evaluations","type":"doctor","phone":"410 402 1140","city":"Hagerstown","state":"Maryland","zipcode":"21742","slug":"serenity-medical-evaluations-28"},{"name":"MariCare Wellness","type":"doctor","phone":"(240) 206-7004","city":"Bowie","state":"Maryland","zipcode":"20715","slug":"maricare-wellness"},{"name":"410 Medicine","type":"doctor","phone":"(410) 941-8010","city":"Ocean Pines","state":"Maryland","zipcode":"21811","slug":"410-medicine"},{"name":"Green Health Docs","type":"doctor","phone":"(877) 242-0362","city":"Waldorf","state":"Maryland","zipcode":"20601","slug":"green-health-docs-7"},{"name":"Nature's Care & Wellness Delivery - Glen Burnie","type":"delivery","phone":"(443) 252-1383","city":"Glen Burnie","state":"Maryland","zipcode":"21060","slug":"nature-s-care-wellness-delivery-glen-burnie"},{"name":"Urbn Holistic","type":"doctor","phone":"(410) 314-9548","city":"Ijamsville","state":"Maryland","zipcode":"21754","slug":"urbn-holistic"},{"name":"gLeaf Delivery","type":"delivery","phone":"(800) 208-9333","city":"Westminster","state":"Maryland","zipcode":"21157","slug":"gleaf-westminster"},{"name":"Dr. John C. Arrabal","type":"doctor","phone":"(410) 778-6410","city":"Chestertown","state":"Maryland","zipcode":"21620","slug":"dr-john-c-arrabal"},{"name":"HerbaFi","type":"dispensary","phone":"(240) 650-4372","city":"Silver Spring","state":"Maryland","zipcode":"20910","slug":"herbafi-wellness"},{"name":"Charm THC","type":"doctor","phone":"(443) 599-4000","city":"Baltimore","state":"Maryland","zipcode":"21224","slug":"charm-thc"},{"name":"Total Wellness Healthcare Clinic","type":"doctor","phone":"(301) 494-1006","city":"Upper Marlboro","state":"Maryland","zipcode":"20772","slug":"total-wellness-healthcare-clinic"},{"name":"Ash + Ember Cannabis","type":"dispensary","phone":"(443) 262-8045","city":"Centreville","state":"Maryland","zipcode":"21617","slug":"ash-ember-cannabis"},{"name":"Four Green Fields","type":"dispensary","phone":"(410) 457-8088","city":"Street","state":"Maryland","zipcode":"21154","slug":"four-green-fields-maryland"},{"name":"Pure Life Wellness","type":"dispensary","phone":"(443) 708-5683","city":"Baltimore","state":"Maryland","zipcode":"21230","slug":"pure-life-wellness-baltimore"},{"name":"Liberty Rockville","type":"dispensary","phone":"(301) 603-2747","city":"Rockville","state":"Maryland","zipcode":"20852","slug":"liberty"},{"name":"Positive Energy","type":"dispensary","phone":"(410) 877-2017","city":"Ocean City","state":"Maryland","zipcode":"21842","slug":"positive-energy"},{"name":"gLeaf Delivery (Saturday Only)","type":"delivery","phone":"3019173665","city":"Salisbury","state":"Maryland","zipcode":"21801","slug":"gleaf-delivery-salisbury"},{"name":"Storehouse","type":"dispensary","phone":"(443) 438-4160","city":"Baltimore","state":"Maryland","zipcode":"21209","slug":"storehouse-dispensary"},{"name":"Alternative Therapy MD","type":"doctor","phone":"(443) 825-4998","city":"Easton","state":"Maryland","zipcode":"21601","slug":"alternative-therapy-md"},{"name":"Compassionate Care Consultants","type":"doctor","phone":"4843206550","city":"Bethesda","state":"Maryland","zipcode":"20817","slug":"compassionate-care-consultants-16"},{"name":"True Wellness Aberdeen","type":"dispensary","phone":"(410) 306-6099","city":"Aberdeen","state":"Maryland","zipcode":"21001","slug":"true-wellness"},{"name":"Columbia Care Chevy Chase","type":"dispensary","phone":"301 637-0870","city":"Chevy Chase","state":"Maryland","zipcode":"20815","slug":"columbia-care-chevy-chase"},{"name":"JOVA Wellness Center","type":"dispensary","phone":"(301) 278-5184","city":"Camp Springs","state":"Maryland","zipcode":"20748","slug":"jova-wellness"},{"name":"Serenity Medical Evaluations","type":"doctor","phone":"410-402-1140","city":"Baltimore","state":"Maryland","zipcode":"21216","slug":"serenity-medical-evaluationss"},{"name":"Nature's Care & Wellness Delivery","type":"delivery","phone":"(443) 252-1383","city":"Bel Air","state":"Maryland","zipcode":"21014","slug":"nature-s-care-wellness-delivery-1"},{"name":"Mana Supply Co. Middle River","type":"dispensary","phone":"(443) 317-8162","city":"Middle River","state":"Maryland","zipcode":"21220","slug":"mana-middle-river"},{"name":"Green Health Docs","type":"doctor","phone":"(877) 242-0362","city":"Rockville","state":"Maryland","zipcode":"20852","slug":"green-health-docs-3"},{"name":"PharmKent","type":"dispensary","phone":"(443) 207-8224","city":"Elkton","state":"Maryland","zipcode":"21921","slug":"pharmkent"},{"name":"Nature's Care & Wellness","type":"dispensary","phone":"(443) 252-1383","city":"Perryville","state":"Maryland","zipcode":"21903","slug":"natures-care-and-wellness"},{"name":"Zen Leaf - Waldorf","type":"delivery","phone":"(833) 936-5323","city":"Waldorf","state":"Maryland","zipcode":"20603","slug":"zen-leaf-waldorf"},{"name":"A Better You, LLC","type":"doctor","phone":"(410) 672-2700","city":"Odenton","state":"Maryland","zipcode":"21113","slug":"a-better-you-llc"},{"name":"Curaleaf","type":"dispensary","phone":"(443) 881-4782","city":"Reisterstown","state":"Maryland","zipcode":"21136","slug":"curaleaf-reisterstown"},{"name":"HI Tide Dispensary","type":"dispensary","phone":"(410) 701-2837","city":"Ocean City","state":"Maryland","zipcode":"21842","slug":"hi-tide-dispensary"},{"name":"Serenity Medical Evaluations","type":"doctor","phone":"410-402-1140","city":"Glen Burnie","state":"Maryland","zipcode":"21061","slug":"serenity-medical-evaluations-44"},{"name":"Dr. William Pawluk, MD","type":"doctor","phone":"(410) 560-7404","city":"Timonium","state":"Maryland","zipcode":"21093","slug":"dr-william-pawluk-md"},{"name":"Chesacanna","type":"dispensary","phone":"(410) 650-6555","city":"Cockeysville","state":"Maryland","zipcode":"21030","slug":"chesacanna"},{"name":"MedLeaf","type":"dispensary","phone":"(301) 599-1903","city":"Upper Marlboro","state":"Maryland","zipcode":"20772","slug":"medleaf-maryland"},{"name":"Maryland Health & Wellness Center","type":"dispensary","phone":"240-329-4800","city":"Hagerstown","state":"Maryland","zipcode":"21740","slug":"maryland-health-wellness-center"},{"name":"Mercy Medical Cannabis Clinic","type":"doctor","phone":"(443) 280-2407","city":"College Park","state":"Maryland","zipcode":"20740","slug":"mercy-medical-cannabis-clinic-5"},{"name":"Euphoria Wellness Delivery - Frederick","type":"delivery","phone":"(301) 882-7910","city":"Frederick","state":"Maryland","zipcode":"21701","slug":"euphoria-wellness-frederick"},{"name":"Tappan Comprehensive Dentistry","type":"doctor","phone":"301-565-8392","city":"Silver Spring","state":"Maryland","zipcode":"20910","slug":"tappan-comprhensive-dentistry"},{"name":"Serenity Medical Evaluations","type":"doctor","phone":"(951) 751-1450","city":"Silver Spring","state":"Maryland","zipcode":"20901","slug":"serenity-medical-evaluations-13"},{"name":"The Greener Path Clinic","type":"doctor","phone":"(410) 701-0807","city":"Pikesville","state":"Maryland","zipcode":"21208","slug":"the-greener-path-clinic"},{"name":"The Kahan Center for Pain Management","type":"doctor","phone":"(410) 571-9000","city":"Annapolis","state":"Maryland","zipcode":"21401","slug":"dr-brian-s-kahan-do"},{"name":"Ritual Dispensary","type":"dispensary","phone":"(443) 817-2842","city":"Curtis Bay","state":"Maryland","zipcode":"21226","slug":"ritual-dispensary"},{"name":"Green Point Wellness - Linthicum","type":"dispensary","phone":"(410) 553-7171","city":"Linthicum Heights","state":"Maryland","zipcode":"21090","slug":"green-point-wellness-baltimore"},{"name":"Nature's Care & Wellness Delivery - Towson","type":"delivery","phone":"(443) 252-1383","city":"Towson","state":"Maryland","zipcode":"21204","slug":"nature-s-care-wellness-delivery-newly-opened-towson"},{"name":"Ethos Catonsville","type":"dispensary","phone":"(443) 840-8287","city":"Catonsville","state":"Maryland","zipcode":"21228","slug":"mission-catonsville"},{"name":"Zen Leaf Waldorf","type":"dispensary","phone":"(833) 936-5323","city":"Waldorf","state":"Maryland","zipcode":"20601","slug":"zen-leaf-waldorf"}]}}