{"meta":{"total_listings":218},"data":{"listings":[{"name":"Green Gold Group","type":"dispensary","phone":"774-449-8555","city":"Charlton","state":"Massachusetts","zipcode":"01507","slug":"green-gold-group-charlton"},{"name":"Mass Alternative Care Lee (Coming Soon)","type":"dispensary","phone":"(413) 377-6240","city":"Lee","state":"Massachusetts","zipcode":"01238","slug":"mass-alternative-care-lee"},{"name":"CommCan, Inc.- Recreational (21+)","type":"dispensary","phone":"(508) 533-9333","city":"Millis","state":"Massachusetts","zipcode":"02054","slug":"the-commonwealth-cannabis-company-millis"},{"name":"Atlantic Medicinal Partners Salem (Coming Soon)","type":"dispensary","phone":"Coming Soon","city":"Salem","state":"Massachusetts","zipcode":"01970","slug":"atlantic-medicinal-partners-salem"},{"name":"Triple M Mashpee","type":"dispensary","phone":"(508) 477-0001","city":"Mashpee","state":"Massachusetts","zipcode":"02649","slug":"triple-m-mashpee"},{"name":"Berkshire Roots - Medical Pittsfield","type":"dispensary","phone":"(413) 553-9333","city":"Pittsfield","state":"Massachusetts","zipcode":"01201","slug":"berkshire-roots-1"},{"name":"B'Leaf Wellness Centre Ware (Coming Soon)","type":"dispensary","phone":"0000000000","city":"Ware","state":"Massachusetts","zipcode":"01082","slug":"b-leaf-wellness-centre-ware"},{"name":"Cultivate (Grand Opening June 15th!)","type":"dispensary","phone":"(508) 436-6731","city":"Worcester","state":"Massachusetts","zipcode":"01610","slug":"cultivate-6"},{"name":"CannaVana","type":"dispensary","phone":"774-420-3050","city":"Rockland","state":"Massachusetts","zipcode":"02370","slug":"cannavana-inc"},{"name":"Zen Leaf Sharon (Open Now)","type":"dispensary","phone":"7818670350","city":"Sharon","state":"Massachusetts","zipcode":"02067","slug":"zen-leaf-sharon"},{"name":"Herbology Group (Coming Soon)","type":"dispensary","phone":"000-000-0000","city":"Amherst","state":"Massachusetts","zipcode":"01002","slug":"herbology-group"},{"name":"Green Meadows Farm LLC","type":"dispensary","phone":"508-909-5880","city":"Southbridge","state":"Massachusetts","zipcode":"01550","slug":"green-meadows-farm-llc"},{"name":"Evergreen Strategies Worcester (Coming Soon)","type":"dispensary","phone":"0000000000","city":"Worcester","state":"Massachusetts","zipcode":"01604","slug":"evergreen-strategies-worcester"},{"name":"The Botanist - Worcester","type":"dispensary","phone":"(508) 680-7550","city":"Worcester","state":"Massachusetts","zipcode":"01606","slug":"the-botanist-worcester"},{"name":"Harbor House Collective (Coming Soon!)","type":"dispensary","phone":"1111111111","city":"Chelsea","state":"Massachusetts","zipcode":"01803","slug":"harbor-house-collective"},{"name":"The Hempest","type":"dispensary","phone":"413-727-3325","city":"Northampton","state":"Massachusetts","zipcode":"01060","slug":"the-hempest"},{"name":"Northeast Alternatives Medical Dispensary","type":"dispensary","phone":"(508) 567-6761","city":"Fall River","state":"Massachusetts","zipcode":"02721","slug":"northeast-alternatives"},{"name":"Mass Alternative Care Chicopee","type":"dispensary","phone":"(413) 377-6240","city":"Chicopee","state":"Massachusetts","zipcode":"01020","slug":"mass-alternative-care-chicopee"},{"name":"Patriot Care","type":"delivery","phone":"(978) 289-1088","city":"Gardner","state":"Massachusetts","zipcode":"01440","slug":"patriot-care-gardner"},{"name":"Nature's Medicines Fall River (Now Open!)","type":"dispensary","phone":"(508) 469-8571","city":"Fall River","state":"Massachusetts","zipcode":"02724","slug":"natures-medicines-fall-river"},{"name":"Central Ave Compassionate Care Inc - Ayer","type":"dispensary","phone":"(978) 772-2273","city":"Ayer","state":"Massachusetts","zipcode":"01432","slug":"central-ave-compassionate-care-inc"},{"name":"Hennep Provincetown (Coming Soon)","type":"dispensary","phone":"617-982-7000","city":"Provincetown","state":"Massachusetts","zipcode":"02657","slug":"hennep-provincetown"},{"name":"Ashli’s Inc. (Coming Soon)","type":"dispensary","phone":"0000000000","city":"Attleboro","state":"Massachusetts","zipcode":"02703","slug":"ashli-s-inc"},{"name":"Patriot Care","type":"delivery","phone":"(978) 289-1088","city":"Miller Falls","state":"Massachusetts","zipcode":"01349","slug":"patriot-care-miller-falls"},{"name":"High Hopes - COMING SOON","type":"dispensary","phone":"508-561-2596","city":"Hopedale","state":"Massachusetts","zipcode":"01747","slug":"hi-25"},{"name":"Sanctuary Medicinals - Gardner","type":"dispensary","phone":"(978) 730-8134","city":"Gardner","state":"Massachusetts","zipcode":"01440","slug":"sanctuary-medicinals-gardner"},{"name":"Sira Naturals Needham Heights","type":"dispensary","phone":"(866) 420-7472","city":"Needham Heights","state":"Massachusetts","zipcode":"02494","slug":"sira-naturals"},{"name":"BCWC, LLC (Coming Soon)","type":"dispensary","phone":"000-000-0000","city":"Attleboro","state":"Massachusetts","zipcode":"02703","slug":"bcwc-llc"},{"name":"Verilife - Shrewsbury (Recreational)","type":"dispensary","phone":"508-266-9889","city":"Shrewsbury","state":"Massachusetts","zipcode":"01545","slug":"verilife-shrewsbury"},{"name":"Jack's Cannabis Company - Pittsfield","type":"dispensary","phone":"413-464-9673","city":"Pittsfield","state":"Massachusetts","zipcode":"01201","slug":"jacks-cannabis-company-pittsfield"},{"name":"Mayflower - Worcester","type":"dispensary","phone":"(508) 356-6600","city":"Worcester","state":"Massachusetts","zipcode":"01603","slug":"mayflower-worcester"},{"name":"Ethos Lynn","type":"dispensary","phone":"617-910-2595","city":"Lynn","state":"Massachusetts","zipcode":"01901","slug":"ethos-dispensary-1"},{"name":"GreenStar Herbals - Maynard","type":"dispensary","phone":"978-298-5251","city":"Maynard","state":"Massachusetts","zipcode":"01754","slug":"greenstar-herbals-inc"},{"name":"Canna Provisions","type":"dispensary","phone":"(413) 394-5055","city":"Lee","state":"Massachusetts","zipcode":"01238","slug":"canna-provisions-group"},{"name":"Alternative Compassion Services","type":"dispensary","phone":"(508) 356-5151","city":"Bridgewater","state":"Massachusetts","zipcode":"02324","slug":"alternative-compassion-services"},{"name":"Mission Worcester [Medical]","type":"dispensary","phone":"978-352-8286","city":"Worcester","state":"Massachusetts","zipcode":"01605","slug":"mission-worcester"},{"name":"MMJ Medical Practice","type":"doctor","phone":"(978) 578-0816","city":"Salem","state":"Massachusetts","zipcode":"01970","slug":"mmj-physician-practice"},{"name":"Bask - Adult Use Menu","type":"dispensary","phone":"(774) 305-4749","city":"Fairhaven","state":"Massachusetts","zipcode":"02719","slug":"bask-premium-cannabis"},{"name":"Jack's Cannabis Company - Northampton","type":"dispensary","phone":"413-570-4631","city":"Northampton","state":"Massachusetts","zipcode":"01060","slug":"jacks-cannabis-company-northampton"},{"name":"Patriot Care","type":"delivery","phone":"(978) 289-1088","city":"Orange","state":"Massachusetts","zipcode":"01364","slug":"patriot-care-orange"},{"name":"Revolutionary Clinics - Cambridge","type":"dispensary","phone":"(617) 800-0813","city":"Cambridge","state":"Massachusetts","zipcode":"02138","slug":"revolutionary-clinics-fresh-pond"},{"name":"Patriot Care","type":"delivery","phone":"(978) 289-1088","city":"Baldwinville","state":"Massachusetts","zipcode":"01436","slug":"patriot-care-baldwinville"},{"name":"Patriot Care","type":"delivery","phone":"(978) 289-1088","city":"Wendell","state":"Massachusetts","zipcode":"01379","slug":"patriot-care-wendell"},{"name":"Revolutionary Clinics - Somerville","type":"dispensary","phone":"(617) 213-6006","city":"Somerville","state":"Massachusetts","zipcode":"02145","slug":"revolutionary-clinics"},{"name":"Mass Wellspring - Maynard","type":"dispensary","phone":"781-728-5130","city":"Maynard","state":"Massachusetts","zipcode":"01754","slug":"mass-wellspring-maynard"},{"name":"Salty Farmers (COMING SOON)","type":"dispensary","phone":"7745612716","city":"North Eastham","state":"Massachusetts","zipcode":"02651","slug":"salty-farmers"},{"name":"Berkshire Roots Adult Use - Boston","type":"dispensary","phone":"(617) 420-2565","city":"Boston","state":"Massachusetts","zipcode":"02128","slug":"berkshire-roots-boston"},{"name":"Miracle Leaf Massachusetts","type":"doctor","phone":"8332603624","city":"Boston","state":"Massachusetts","zipcode":"02117","slug":"miracle-leaf-massachusetts"},{"name":"Delta 9 Medical Consulting (Malden)","type":"doctor","phone":"(970) 335-8290","city":"Malden","state":"Massachusetts","zipcode":"02148","slug":"d9mc"},{"name":"Berkshire Roots Adult Use - Pittsfield","type":"dispensary","phone":"(413) 553-9333","city":"Pittsfield","state":"Massachusetts","zipcode":"01201","slug":"berkshire-roots"},{"name":"CommCan, Inc. - Medical Only (Southborough)","type":"dispensary","phone":"(508) 533-9333","city":"Southborough","state":"Massachusetts","zipcode":"01772","slug":"the-commonwealth-cannabis-company-southborough"},{"name":"Western Front","type":"dispensary","phone":"(617)466-0255","city":"Chelsea","state":"Massachusetts","zipcode":"02150","slug":"western-front-llc"},{"name":"The Green Lady Dispensary","type":"dispensary","phone":"(774) 333-3875","city":"Nantucket","state":"Massachusetts","zipcode":"02554","slug":"the-green-lady-dispensary"},{"name":"Resinate Medical","type":"dispensary","phone":"7819620328","city":"Worcester","state":"Massachusetts","zipcode":"02148","slug":"resinate-medical"},{"name":"CED Clinic","type":"doctor","phone":"(617) 500-3595","city":"Chestnut Hill","state":"Massachusetts","zipcode":"02460","slug":"ced-clinic"},{"name":"CNA Stores Haverhill","type":"dispensary","phone":"978-241-4666","city":"Haverhill","state":"Massachusetts","zipcode":"01832","slug":"cna-stores-1"},{"name":"Patriot Care - Lowell","type":"dispensary","phone":"(978) 289-1088","city":"Lowell","state":"Massachusetts","zipcode":"01852","slug":"patriot-care-lowell"},{"name":"Natures Remedy - Tyngsboro","type":"dispensary","phone":"508-500-6290","city":"Tyngsboro","state":"Massachusetts","zipcode":"01879","slug":"natures-remedy-tyngsboro"},{"name":"Northeast Alternatives - Adult Use 21+","type":"dispensary","phone":"(508) 567-6761","city":"Fall River","state":"Massachusetts","zipcode":"02721","slug":"northeast-alternatives-recreational"},{"name":"The Haven Center Cape Cod (Coming Soon)","type":"dispensary","phone":"0000000000","city":"Brewster","state":"Massachusetts","zipcode":"02631","slug":"the-haven-center-cape-cod"},{"name":"Rebelle","type":"dispensary","phone":"4132583958","city":"Great Barrington","state":"Massachusetts","zipcode":"01230","slug":"rebelle-1"},{"name":"Holyoke Cannabis - Holyoke","type":"dispensary","phone":"4133228611","city":"Holyoke","state":"Massachusetts","zipcode":"01040","slug":"holyoke-cannabis"},{"name":"Farnsworth Fine Cannabis","type":"dispensary","phone":"(413) 717-4102","city":"Great Barrington","state":"Massachusetts","zipcode":"01230","slug":"farnsworth-fine-cannabis"},{"name":"Ermont - Quincy","type":"dispensary","phone":"(617) 804-0320","city":"Quincy","state":"Massachusetts","zipcode":"02169","slug":"ermont-quincy"},{"name":"NETA - Brookline","type":"dispensary","phone":"(617) 841-7250","city":"Brookline","state":"Massachusetts","zipcode":"02445","slug":"neta-brookline"},{"name":"The Vault (NOW OPEN!)","type":"dispensary","phone":"774-520-2420","city":"Webster","state":"Massachusetts","zipcode":"01562","slug":"the-vault-5"},{"name":"b\\well","type":"dispensary","phone":"508-413-9427","city":"Provincetown","state":"Massachusetts","zipcode":"02657","slug":"bwell"},{"name":"Happy Valley","type":"dispensary","phone":"(978) 515-5600","city":"Gloucester","state":"Massachusetts","zipcode":"01930","slug":"happy-valley-gloucester"},{"name":"Sira Naturals Cambridge","type":"dispensary","phone":"(866) 420-7472","city":"Cambridge","state":"Massachusetts","zipcode":"02138","slug":"sage-cannabis-cambridge"},{"name":"Patriot Care","type":"delivery","phone":"(978) 289-1088","city":"Deerfield","state":"Massachusetts","zipcode":"01342","slug":"patriot-care-deerfield"},{"name":"Canna Care Docs - Fall River","type":"doctor","phone":"(781) 382-8053","city":"Fall River","state":"Massachusetts","zipcode":"02721","slug":"canna-care-docs-fall-river"},{"name":"Affinity (NOW OPEN!)","type":"dispensary","phone":"(617) 206-2155","city":"Boston","state":"Massachusetts","zipcode":"02118","slug":"affinity-1"},{"name":"Green4All","type":"dispensary","phone":"(508) 507-5000","city":"Brockton","state":"Massachusetts","zipcode":"02301","slug":"green4all"},{"name":"Ascend","type":"dispensary","phone":"6178596411","city":"Boston","state":"Massachusetts","zipcode":"02114","slug":"ascend-2"},{"name":"Cape Cod Cannabis","type":"dispensary","phone":"(774)383-3133","city":"Wellfleet","state":"Massachusetts","zipcode":"02667","slug":"cape-cod-cannabis"},{"name":"The Verb is Herb","type":"dispensary","phone":"413-779-5600","city":"Easthampton","state":"Massachusetts","zipcode":"01027","slug":"the-verb-is-herb-2"},{"name":"Nature's Medicines Uxbridge (Now Open!)","type":"dispensary","phone":"5085389853","city":"Uxbridge","state":"Massachusetts","zipcode":"01569","slug":"natures-medicines-uxbridge"},{"name":"Ryan Zaklin, MD, MA, PC","type":"doctor","phone":"(978) 998-0010","city":"Salem","state":"Massachusetts","zipcode":"01970","slug":"ryan-zaklin-md-ma-pc"},{"name":"Patriot Care","type":"delivery","phone":"(617) 500-1375","city":"Boston","state":"Massachusetts","zipcode":"02118","slug":"patriot-care-boston"},{"name":"Patriot Care","type":"delivery","phone":"(978) 289-1088","city":"Athol","state":"Massachusetts","zipcode":"01331","slug":"patriot-care-athol"},{"name":"Ethos Fitchburg","type":"dispensary","phone":"978-614-0070","city":"Fitchburg","state":"Massachusetts","zipcode":"01420","slug":"ethos-fitchburg"},{"name":"Verilife - Wareham (Recreational)","type":"dispensary","phone":"(888) 493-6066","city":"Wareham","state":"Massachusetts","zipcode":"02571","slug":"verilife-wareham-receational"},{"name":"Green Heart","type":"dispensary","phone":"6179914365","city":"Brockton","state":"Massachusetts","zipcode":"02301","slug":"green-heart"},{"name":"Native Sun Wellness","type":"dispensary","phone":"9782125723","city":"Hudson","state":"Massachusetts","zipcode":"01749","slug":"native-sun-wellness"},{"name":"Stem","type":"dispensary","phone":"978-212-9760","city":"Haverhill","state":"Massachusetts","zipcode":"01830","slug":"stem-haverhill"},{"name":"Healthy Pharms","type":"dispensary","phone":"(617) 714-4922","city":"Cambridge","state":"Massachusetts","zipcode":"02138","slug":"healthy-pharms-cambridge"},{"name":"Inhale MD Health and Wellness (Brookline)","type":"doctor","phone":"(617) 477-8886","city":"Brookline","state":"Massachusetts","zipcode":"02446","slug":"inhale-md-medical-consulting-2"},{"name":"Emerald Grove","type":"dispensary","phone":"774-561-2693","city":"Eastham","state":"Massachusetts","zipcode":"02642","slug":"emerald-grove-1"},{"name":"MIM","type":"dispensary","phone":"339-217-0420","city":"Norwood","state":"Massachusetts","zipcode":"02062","slug":"mim"},{"name":"Canna Provisions Holyoke","type":"dispensary","phone":"(413) 650-2500","city":"Holyoke","state":"Massachusetts","zipcode":"01040","slug":"canna-provisions-holyoke"},{"name":"Bud's Goods & Provisions Corp","type":"dispensary","phone":"(774) 500-2837","city":"Worcester","state":"Massachusetts","zipcode":"02494","slug":"bud-s-goods-provisions-corp"},{"name":"Curaleaf Ware","type":"dispensary","phone":"(413)277-0873","city":"Ware","state":"Massachusetts","zipcode":"01082","slug":"curaleaf-ware"},{"name":"beWell Organic Medicine","type":"dispensary","phone":"(978)-224-1577","city":"Merrimac","state":"Massachusetts","zipcode":"01860","slug":"bewell-organic-medicine"},{"name":"The Green Harbor Dispensary (Coming Soon)","type":"dispensary","phone":"(781) 964-2303","city":"Middleborough","state":"Massachusetts","zipcode":"02346","slug":"the-green-harbor-dispensary"},{"name":"Nature's Remedy- Millbury","type":"dispensary","phone":"5083553180","city":"Millbury","state":"Massachusetts","zipcode":"01527","slug":"nature-s-remedy-millbury"},{"name":"Mission Worcester [Recreational]","type":"dispensary","phone":"978-352-8286","city":"Worcester","state":"Massachusetts","zipcode":"01605","slug":"mission-worcester-1"},{"name":"Health Circle","type":"dispensary","phone":"781-384-2001","city":"Rockland","state":"Massachusetts","zipcode":"02370","slug":"health-circle-1"},{"name":"Sira Naturals Somerville","type":"dispensary","phone":"(866) 420-7472","city":"Somerville","state":"Massachusetts","zipcode":"02144","slug":"sage-naturals"},{"name":"United Cultivation","type":"dispensary","phone":"(978) 384-2616","city":"Ashby","state":"Massachusetts","zipcode":"01431","slug":"united-cultivation"},{"name":"Casco Bay Medical","type":"doctor","phone":"(978) 705-1905","city":"Danvers","state":"Massachusetts","zipcode":"01923","slug":"casco-bay-medical-3"},{"name":"Advanced Pain Management","type":"doctor","phone":"(781) 662-2243","city":"Stoneham","state":"Massachusetts","zipcode":"02180","slug":"advanced-pain-management"},{"name":"CommCan, Inc. - Medical Only (Millis)","type":"dispensary","phone":"5085339333","city":"Millis","state":"Massachusetts","zipcode":"02054","slug":"commcan-millis-coming-soon"},{"name":"Patriot Care","type":"delivery","phone":"(978) 289-1088","city":"Greenfield","state":"Massachusetts","zipcode":"01301","slug":"patriot-care-greenfield"},{"name":"4 Bros Holyoke (Coming Soon)","type":"dispensary","phone":"00000000","city":"Holyoke","state":"Massachusetts","zipcode":"01040","slug":"4-bros-holyoke"},{"name":"RISE Dispensaries Amherst [Medical]","type":"dispensary","phone":"(413) 825-9770","city":"Amherst","state":"Massachusetts","zipcode":"01002","slug":"rise-amherst"},{"name":"Commonwealth Alternative Care Taunton","type":"dispensary","phone":"(508) 738-6380","city":"Taunton","state":"Massachusetts","zipcode":"02780","slug":"commonwealth-alternative-care"},{"name":"Resinate Northampton","type":"dispensary","phone":"508 476-6290","city":"Northampton","state":"Massachusetts","zipcode":"01060","slug":"resinate-northampton"},{"name":"Cannabis Medical Centers LLC","type":"doctor","phone":"(413) 455-1060","city":"Springfield","state":"Massachusetts","zipcode":"01104","slug":"cannabis-medical-centers-llc"},{"name":"Silver Therapeutics - Orange (Now Open!)","type":"dispensary","phone":"(978) 633-4225","city":"Orange","state":"Massachusetts","zipcode":"01364","slug":"silver-therapeutics-orange"},{"name":"GreenStar Herbals","type":"dispensary","phone":"(978) 319-9269","city":"Dracut","state":"Massachusetts","zipcode":"01826","slug":"greenstar-herbals"},{"name":"Full Harvest Moonz","type":"dispensary","phone":"978-702-4160","city":"Haverhill","state":"Massachusetts","zipcode":"01830","slug":"full-harvest-moonz"},{"name":"Cultivate (Adult Use)","type":"dispensary","phone":"(508) 872-6277","city":"Framingham","state":"Massachusetts","zipcode":"01702","slug":"cultivate-5"},{"name":"Elev8 Cannabis - Athol","type":"dispensary","phone":"978-830-1420","city":"Athol","state":"Massachusetts","zipcode":"01331","slug":"elev8-cannabis-athol-ma"},{"name":"Theory Wellness - Chicopee Recreational Dispensary","type":"dispensary","phone":"413-595-2011","city":"Chicopee","state":"Massachusetts","zipcode":"01020","slug":"theory-wellness-chicopee"},{"name":"Theory Wellness - Chicopee Medical Dispensary","type":"dispensary","phone":"(413) 595-2011","city":"Chicopee","state":"Massachusetts","zipcode":"01020","slug":"theory-wellness-chicopee-med"},{"name":"Temescal Wellness - Pittsfield (Recreational)","type":"dispensary","phone":"(413) 464-8044","city":"Pittsfield","state":"Massachusetts","zipcode":"01201","slug":"temescal-wellness-pittsfield-recreational"},{"name":"Temescal Wellness - Pittsfield","type":"dispensary","phone":"(413) 242-9580","city":"Pittsfield","state":"Massachusetts","zipcode":"01201","slug":"temescal-wellness-pittsfield"},{"name":"Solar Therapeutics","type":"dispensary","phone":"(508) 300-3366","city":"Somerset","state":"Massachusetts","zipcode":"02725","slug":"solar-therapeutics"},{"name":"Cannabis Connection (NOW OPEN)","type":"dispensary","phone":"413-752-2269","city":"Westfield","state":"Massachusetts","zipcode":"01085","slug":"cannabis-connection-inc"},{"name":"Alternative Therapies Group - Salisbury (Recreational\/Medical)","type":"dispensary","phone":"(978) 834-6800","city":"Salisbury","state":"Massachusetts","zipcode":"01952","slug":"alternative-therapies-group-salisbury"},{"name":"Curaleaf","type":"dispensary","phone":"(781) 987-1646","city":"Hanover","state":"Massachusetts","zipcode":"02339","slug":"curaleaf-hanover"},{"name":"Panacea Wellness","type":"dispensary","phone":"508-738-4833","city":"Middleborough","state":"Massachusetts","zipcode":"02346","slug":"panacea-wellness-2"},{"name":"Silver Therapeutics (Recreational)","type":"dispensary","phone":"413-458-6244","city":"Williamstown","state":"Massachusetts","zipcode":"01267","slug":"silver-therapeutics"},{"name":"Patriot Care - Greenfield","type":"dispensary","phone":"(413) 203-6131","city":"Greenfield","state":"Massachusetts","zipcode":"01301","slug":"patriot-care-greenfield"},{"name":"In Good Health of Brockton","type":"dispensary","phone":"(508) 682-1510","city":"Brockton","state":"Massachusetts","zipcode":"02301","slug":"in-good-health"},{"name":"Delta 9 Medical Consulting","type":"doctor","phone":"(970) 335-8290","city":"Methuen","state":"Massachusetts","zipcode":"01844","slug":"delta-9-medical-consulting"},{"name":"Sanctuary - Brookline","type":"dispensary","phone":"(617) 366-2900","city":"Brookline","state":"Massachusetts","zipcode":"02446","slug":"sanctuary-medicinals-brookline"},{"name":"Mayflower Medicinals","type":"dispensary","phone":"(508) 356-6600","city":"Boston","state":"Massachusetts","zipcode":"02134","slug":"mayflower-medicinals"},{"name":"Turning Leaf Centers","type":"dispensary","phone":"413-889-5323","city":"Northampton","state":"Massachusetts","zipcode":"01060","slug":"turning-leaf-centers"},{"name":"Verilife - Wareham (Medical)","type":"dispensary","phone":"(888) 493-6066","city":"Wareham","state":"Massachusetts","zipcode":"02571","slug":"verilife-wareham"},{"name":"Mission Georgetown [Adult Use]","type":"dispensary","phone":"978-352-8286","city":"Georgetown","state":"Massachusetts","zipcode":"01833","slug":"mission-georgetown"},{"name":"CannaMed - Boston, Massachusetts","type":"doctor","phone":"(866) 624-1191","city":"Framingham","state":"Massachusetts","zipcode":"01702","slug":"cannamed-of-boston"},{"name":"Apothca - Arlington","type":"dispensary","phone":"(781) 859-5892","city":"Arlington","state":"Massachusetts","zipcode":"02476","slug":"apothca-arlington"},{"name":"Ethos Watertown – Med + Adult Use","type":"dispensary","phone":"6179102595","city":"Watertown","state":"Massachusetts","zipcode":"02142","slug":"natural-selections-3"},{"name":"True Herbal Consults","type":"doctor","phone":"(617) 401-5295","city":"West Boylston","state":"Massachusetts","zipcode":"01583","slug":"true-herbal-consults-4"},{"name":"Temescal Wellness - Framingham (Medical)","type":"dispensary","phone":"(508) 309-7036","city":"Framingham","state":"Massachusetts","zipcode":"01701","slug":"temescal-wellness-of-massachusetts"},{"name":"Patriot Care - Boston","type":"dispensary","phone":"(617) 500-1375","city":"Boston","state":"Massachusetts","zipcode":"02109","slug":"patriot-care-boston"},{"name":"Garden Wonders Cannabis","type":"dispensary","phone":"(774) 460 0261","city":"Millville","state":"Massachusetts","zipcode":"01529","slug":"garden-wonders"},{"name":"Mass Alternative Care Amherst","type":"dispensary","phone":"(413) 377-6240","city":"Amherst","state":"Massachusetts","zipcode":"01002","slug":"mass-alternative-care-amherst"},{"name":"Mission Georgetown [Medical]","type":"dispensary","phone":"978-352-8286","city":"Georgetown","state":"Massachusetts","zipcode":"01833","slug":"mission-georgetown-1"},{"name":"Alternative Therapies Group - Amesbury (Recreational\/Medical)","type":"dispensary","phone":"(978) 594-5728","city":"Amesbury","state":"Massachusetts","zipcode":"01913","slug":"alternative-therapies-group-amesbury"},{"name":"Seagrass","type":"dispensary","phone":"978-498-4183","city":"Salem","state":"Massachusetts","zipcode":"01970","slug":"seagrass"},{"name":"Local Roots","type":"dispensary","phone":"(508) 250-4111","city":"Sturbridge","state":"Massachusetts","zipcode":"01566","slug":"local-roots-sturbridge"},{"name":"Creating Well Being","type":"doctor","phone":"(508) 545-2500","city":"Plymouth","state":"Massachusetts","zipcode":"02360","slug":"creating-well-being-2"},{"name":"Apothca - Lynn","type":"dispensary","phone":"(781) 215-6003","city":"Lynn","state":"Massachusetts","zipcode":"01905","slug":"apothca-lynn"},{"name":"INSA - Springfield","type":"dispensary","phone":"(413) 265-1164","city":"Springfield","state":"Massachusetts","zipcode":"01104","slug":"insa-springfield"},{"name":"Ethos Dorchester","type":"dispensary","phone":"781-451-3563","city":"Dorchester","state":"Massachusetts","zipcode":"02125","slug":"ethos-dispensary"},{"name":"Uplifting Health and Wellness","type":"doctor","phone":"(508) 444-2324","city":"Natick","state":"Massachusetts","zipcode":"01760","slug":"uplifting-health-and-wellness"},{"name":"Lazy River Products","type":"dispensary","phone":"978-243-9333","city":"Dracut","state":"Massachusetts","zipcode":"01826","slug":"lazy-river-products"},{"name":"Elevated Roots","type":"dispensary","phone":"781-689-0016","city":"Kingston","state":"Massachusetts","zipcode":"02364","slug":"elevated-roots"},{"name":"AMP - Atlantic Medicinal Partners (Medical Only)","type":"dispensary","phone":"978-696-5818","city":"Fitchburg","state":"Massachusetts","zipcode":"01420","slug":"amp-atlantic-medicinal-partners-medical"},{"name":"Liberty Easthampton","type":"dispensary","phone":"(413) 893-9839","city":"Easthampton","state":"Massachusetts","zipcode":"01027","slug":"liberty-easthampton"},{"name":"Patriot Care","type":"delivery","phone":"(978) 289-1088","city":"Templeton","state":"Massachusetts","zipcode":"01468","slug":"patriot-care-templeton"},{"name":"The Botanist - Leominster (Coming Soon)","type":"dispensary","phone":"(443) 200-2242","city":"Leominster","state":"Massachusetts","zipcode":"01453","slug":"the-botanist-leominster"},{"name":"The Pass","type":"dispensary","phone":"413-644-6892","city":"Sheffield","state":"Massachusetts","zipcode":"01257","slug":"the-pass"},{"name":"Temescal Wellness - Hudson (Medical)","type":"dispensary","phone":"(978) 212-5947","city":"Hudson","state":"Massachusetts","zipcode":"01749","slug":"temescal-wellness-hudson"},{"name":"Mass Wellspring","type":"dispensary","phone":"(855) 693-4773","city":"Acton","state":"Massachusetts","zipcode":"01720","slug":"mass-wellspring-acton"},{"name":"Garden Remedies Newton (Medical and Adult Use)","type":"dispensary","phone":"(844) 344-2420","city":"Newton","state":"Massachusetts","zipcode":"02458","slug":"garden-remedies"},{"name":"Sanctuary Medicinals - Woburn","type":"dispensary","phone":"781-281-1674","city":"Woburn","state":"Massachusetts","zipcode":"01801","slug":"sanctuary-medicinals-woburn"},{"name":"Gage Cannabis Company","type":"dispensary","phone":"9784877100","city":"Ayer","state":"Massachusetts","zipcode":"01432","slug":"gage-cannabis-coming-soon"},{"name":"253 Farmacy","type":"dispensary","phone":"413-863-5765","city":"Turner Falls","state":"Massachusetts","zipcode":"01376","slug":"253-organic-montague-farmacy"},{"name":"Nova Farms","type":"dispensary","phone":"833-420-6682","city":"Attleboro","state":"Massachusetts","zipcode":"02703","slug":"nova-farms-2"},{"name":"Good Chemistry Worcester","type":"dispensary","phone":"(774) 243-1760","city":"Worcester","state":"Massachusetts","zipcode":"01604","slug":"good-chemistry-worcester"},{"name":"Sunnyside Cannabis Dispensary - Fall River","type":"dispensary","phone":"(774) 377-9333","city":"Fall River","state":"Massachusetts","zipcode":"02720","slug":"sunnyside-fall-river"},{"name":"The Botanist - Shrewsbury (Now Open!)","type":"dispensary","phone":"(443) 200-2242","city":"Shrewsbury","state":"Massachusetts","zipcode":"01545","slug":"the-botanist-shrewsbury"},{"name":"INSA - Salem","type":"dispensary","phone":"(413) 206-6339","city":"Salem","state":"Massachusetts","zipcode":"01970","slug":"insa-salem"},{"name":"Seed - Adult-Use Dispensary Jamaica Plain","type":"dispensary","phone":"6175535922","city":"Boston","state":"Massachusetts","zipcode":"02130","slug":"seed"},{"name":"Zen Leaf Plymouth (Now Open!)","type":"dispensary","phone":"7742737040","city":"Plymouth","state":"Massachusetts","zipcode":"02360","slug":"zen-leaf-plymouth"},{"name":"Inhale MD Health and Wellness","type":"doctor","phone":"(617) 477-8886","city":"Cambridge","state":"Massachusetts","zipcode":"02138","slug":"inhale-md-medical-consulting"},{"name":"Caroline's Cannabis","type":"dispensary","phone":"(774) 243-0323","city":"Uxbridge","state":"Massachusetts","zipcode":"01569","slug":"caroline-s-cannabis"},{"name":"Affinity","type":"dispensary","phone":"(413) 217-1155","city":"West Springfield","state":"Massachusetts","zipcode":"01089","slug":"affinity"},{"name":"Triple M Plymouth","type":"dispensary","phone":"(508) 747-1970","city":"Plymouth","state":"Massachusetts","zipcode":"02360","slug":"triple-m-plymouth"},{"name":"DDM Cannabis","type":"dispensary","phone":"508-928-2939","city":"Blackstone","state":"Massachusetts","zipcode":"01504","slug":"ddm-cannabis"},{"name":"NETA Northampton (Recreational\/Medical)","type":"dispensary","phone":"(413) 727-8415","city":"Northampton","state":"Massachusetts","zipcode":"01060","slug":"new-england-treatment-access"},{"name":"Fine Fettle","type":"dispensary","phone":"9784322147","city":"ROWLEY","state":"Massachusetts","zipcode":"01969","slug":"fine-fettle"},{"name":"Cultivate (Medical)","type":"dispensary","phone":"(508) 219-6052","city":"Leicester","state":"Massachusetts","zipcode":"01524","slug":"cultivate-leicester"},{"name":"MedMar Medical LLC - Boston","type":"doctor","phone":"(781) 933-9399","city":"Brookline","state":"Massachusetts","zipcode":"02446","slug":"medmar-medical-llc"},{"name":"Happy Valley Boston (Opening June 24th)","type":"dispensary","phone":"(978) 515-5600","city":"Boston","state":"Massachusetts","zipcode":"02128","slug":"happy-valley-boston"},{"name":"The Holistic Center","type":"doctor","phone":"(617) 787-7400","city":"Brighton","state":"Massachusetts","zipcode":"02135","slug":"the-holistic-center"},{"name":"Theory Wellness - Great Barrington Medical Dispensary","type":"dispensary","phone":"(413) 650-5527","city":"Great Barrington","state":"Massachusetts","zipcode":"01230","slug":"theory-wellness-great-barrington"},{"name":"Sanctuary Medicinals - Danvers","type":"dispensary","phone":"(978) 304-0329","city":"Danvers","state":"Massachusetts","zipcode":"01923","slug":"sanctuary-medicinals-danvers"},{"name":"Patriot Care","type":"delivery","phone":"(978) 289-1088","city":"Erving","state":"Massachusetts","zipcode":"01344","slug":"patriot-care-erving"},{"name":"Local Roots Cannabis Crafted","type":"dispensary","phone":"978-906-2500","city":"Fitchburg","state":"Massachusetts","zipcode":"01420","slug":"local-roots-cannabis-crafted"},{"name":"Liberty Springfield","type":"dispensary","phone":"(413)-750-9696","city":"Springfield","state":"Massachusetts","zipcode":"01119","slug":"liberty-springfield"},{"name":"Cultivate (Adult Use)","type":"dispensary","phone":"(508) 219-6052","city":"Leicester","state":"Massachusetts","zipcode":"01524","slug":"cultivate-4"},{"name":"Clear Sky Cannabis","type":"dispensary","phone":"888-540-2343","city":"North Adams","state":"Massachusetts","zipcode":"01247","slug":"clear-sky-cannabis"},{"name":"MARIMED CONSULTS","type":"doctor","phone":"(413) 455-1081","city":"Springfield","state":"Massachusetts","zipcode":"01103","slug":"marimed-consults"},{"name":"Patient Centric (Coming Soon)","type":"dispensary","phone":"(774) 836-4397","city":"West Tisbury","state":"Massachusetts","zipcode":"02575","slug":"patient-centric"},{"name":"Curaleaf","type":"dispensary","phone":"(508) 731-0100","city":"Oxford","state":"Massachusetts","zipcode":"01540","slug":"curaleaf-oxford"},{"name":"Liberty Somerville","type":"dispensary","phone":"(857) 997-8207","city":"Somerville","state":"Massachusetts","zipcode":"02143","slug":"liberty-somerville"},{"name":"Boston Bud Factory","type":"dispensary","phone":"413-420-8100","city":"Holyoke","state":"Massachusetts","zipcode":"01040","slug":"boston-bud-factory"},{"name":"Creating Well Being","type":"doctor","phone":"(508) 545-2500","city":"Plymouth","state":"Massachusetts","zipcode":"02360","slug":"creating-well-being"},{"name":"Temescal Wellness - Hudson (Recreational)","type":"dispensary","phone":"(978) 212-5947","city":"Hudson","state":"Massachusetts","zipcode":"01749","slug":"temescal-wellness-hudson-recreational"},{"name":"Resinate","type":"dispensary","phone":"508 476-6290","city":"Worcester","state":"Massachusetts","zipcode":"01607","slug":"resinate-worcester"},{"name":"Bloom Brothers","type":"dispensary","phone":"413-464-7443","city":"Pittsfield","state":"Massachusetts","zipcode":"01201","slug":"bloom-brothers"},{"name":"Theory Wellness - Eastern MA Delivery","type":"delivery","phone":"1111111111","city":"Boston","state":"Massachusetts","zipcode":"02108","slug":"theory-wellness-eastern-ma-delivery"},{"name":"MedMar Medical - Boston","type":"doctor","phone":"(781) 933-9399","city":"Woburn","state":"Massachusetts","zipcode":"02109","slug":"medmar-medical"},{"name":"MedMar Medical LLC - Boston","type":"doctor","phone":"(781) 933-9399","city":"Quincy","state":"Massachusetts","zipcode":"02169","slug":"medmar-medical-llc-2"},{"name":"CNA Stores Amesbury","type":"dispensary","phone":"(978) 792-5909","city":"Amesbury","state":"Massachusetts","zipcode":"01913","slug":"cna-stores-inc-1"},{"name":"Garden Remedies - Marlborough","type":"dispensary","phone":"844-344-2420","city":"Marlborough","state":"Massachusetts","zipcode":"01752","slug":"garden-remedies-marlborough"},{"name":"Commonwealth Alternative Care Brockton (Coming Soon)","type":"dispensary","phone":"(508) 436-4514","city":"Brockton","state":"Massachusetts","zipcode":"02301","slug":"commonwealth-alternative-care-brockton"},{"name":"Garden Remedies - Melrose","type":"dispensary","phone":"(844) 344-2420","city":"Melrose","state":"Massachusetts","zipcode":"02176","slug":"garden-remedies-melrose"},{"name":"Slang (Coming Soon)","type":"dispensary","phone":"0000000000","city":"Pittsfield","state":"Massachusetts","zipcode":"01201","slug":"slang"},{"name":"Diem Cannabis","type":"dispensary","phone":"(774) 314-3224","city":"Worcester","state":"Massachusetts","zipcode":"01604","slug":"diem-cannabis"},{"name":"Trade Roots (Coming Soon)","type":"dispensary","phone":"0000000000","city":"Wareham","state":"Massachusetts","zipcode":"02571","slug":"trade-roots"},{"name":"East Boston Bloom (Coming Soon)","type":"dispensary","phone":"0000000000","city":"Boston","state":"Massachusetts","zipcode":"02128","slug":"east-boston-bloom"},{"name":"Theory Wellness - Bridgewater Medical Dispensary","type":"dispensary","phone":"(508) 296-9250","city":"Bridgewater","state":"Massachusetts","zipcode":"02324","slug":"theory-wellness-bridgewater"},{"name":"INSA - Easthampton (Recreational\/Medical)","type":"dispensary","phone":"(413) 206-6339","city":"Easthampton","state":"Massachusetts","zipcode":"01027","slug":"insa-easthampton"},{"name":"Karma Therapeutics (Coming Soon)","type":"dispensary","phone":"0000000000","city":"Chelsea","state":"Massachusetts","zipcode":"02150","slug":"karma-therapeutics"},{"name":"AMP - Atlantic Medicinal Partners","type":"dispensary","phone":"978-696-5818","city":"Fitchburg","state":"Massachusetts","zipcode":"01420","slug":"amp-atlantic-medicinal-partners"},{"name":"Theory Wellness - Great Barrington Recreational Dispensary","type":"dispensary","phone":"(413) 650-5527","city":"Great Barrington","state":"Massachusetts","zipcode":"01230","slug":"theory-wellness-great-barrington-recreational"},{"name":"Campfire Cannabis","type":"dispensary","phone":"844-347-3420","city":"West Boylston","state":"Massachusetts","zipcode":"01583","slug":"campfire-cannabis-ma"},{"name":"Alternative Therapies Group - (Recreational\/Medical)","type":"dispensary","phone":"(978) 834-6800","city":"Salem","state":"Massachusetts","zipcode":"01970","slug":"alternative-therapies-group"},{"name":"Nova Farms - Framingham","type":"dispensary","phone":"833-420-6682","city":"Framingham","state":"Massachusetts","zipcode":"01701","slug":"nova-farms-framingham"},{"name":"Krypies ( Coming Soon)","type":"dispensary","phone":" Coming Soon","city":"Pittsfield","state":"Massachusetts","zipcode":"01201","slug":"krypies"},{"name":"True Herbal Consults","type":"doctor","phone":"(617) 401-5295","city":"Fall River","state":"Massachusetts","zipcode":"02720","slug":"true-herbal-consults"},{"name":"Curaleaf - Provincetown","type":"dispensary","phone":"774-593-5952","city":"Provincetown","state":"Massachusetts","zipcode":"02657","slug":"curaleaf-provincetown-coming-soon"},{"name":"Revolutionary Clinics - Central Square","type":"dispensary","phone":"617-206-1082","city":"Cambridge","state":"Massachusetts","zipcode":"02139","slug":"revolutionary-clinics-central-square"}]}}