{"meta":{"total_listings":681},"data":{"listings":[{"name":"CannaVibes Emporium","type":"dispensary","phone":"(269) 282-1984","city":"Battle Creek","state":"Michigan","zipcode":"49037","slug":"cannavibes-emporium"},{"name":"Depot Town Care Center","type":"dispensary","phone":"734-340-2941","city":"Ypsilanti","state":"Michigan","zipcode":"48198","slug":"depot-town-dispensary"},{"name":"The Tree House Provision Center","type":"dispensary","phone":"5177814190","city":"Coldwater","state":"Michigan","zipcode":"49036","slug":"the-tree-house-provision-center"},{"name":"The River Provisioning Recreational Adult Use","type":"dispensary","phone":"989-323-2222","city":"Chesaning","state":"Michigan","zipcode":"48616","slug":"the-river-provisioning-recreational-adult-use"},{"name":"Lapeer - Pure Lapeer Delivery (REC)","type":"delivery","phone":"810-660-8403","city":"Lapeer","state":"Michigan","zipcode":"48446","slug":"lapeer-pure-lapeer-delivery-rec"},{"name":"Olswell Cannabis Co","type":"delivery","phone":"231-252-4543","city":"Traverse City","state":"Michigan","zipcode":"49684","slug":"olswell-cannabis-co"},{"name":"The Fire Station Delivery","type":"delivery","phone":"9062422837","city":"Negaunee","state":"Michigan","zipcode":"49866","slug":"the-fire-station-delivery"},{"name":"3Fifteen Grand Rapids Plainfield - Recreational","type":"dispensary","phone":"(616) 734-6331","city":"Grand Rapids","state":"Michigan","zipcode":"49525","slug":"3fifteen-grand-rapids-plainfield-recreational"},{"name":"The Fire Station","type":"dispensary","phone":"9062731211","city":"Marquette","state":"Michigan","zipcode":"49855","slug":"the-fire-station-422"},{"name":"Nirvana Center - Traverse City","type":"dispensary","phone":"231-486-5834","city":"Traverse City","state":"Michigan","zipcode":"49684","slug":"the-nirvana-center-traverse-city"},{"name":"Sticky Battle Creek (REC)","type":"dispensary","phone":"269-339-3055","city":"Battle Creek","state":"Michigan","zipcode":"49017","slug":"sticky-battle-creek"},{"name":"HOUSE OF DANK 8 MILE DELIVERY OAKLAND COUNTY","type":"delivery","phone":"833-746-7463","city":"Oakland County","state":"Michigan","zipcode":"48071","slug":"house-of-dank-8-mile-delivery"},{"name":"3Fifteen Columbia Ave Medical","type":"dispensary","phone":"(269) 589-6726","city":"Battle Creek","state":"Michigan","zipcode":"49015","slug":"battle-creek-provisioning-2"},{"name":"Good Intentions","type":"doctor","phone":"269-350-1889","city":"Saugatuck","state":"Michigan","zipcode":"49453","slug":"good-intentions-2"},{"name":"Premier Provisioning - Rec","type":"dispensary","phone":"989-882-9006","city":"Vassar","state":"Michigan","zipcode":"48768","slug":"premier-provisioning"},{"name":"Remedii Stateline Medical Provisioning Center (Online Ordering for Curbside Pickup)","type":"dispensary","phone":"(517) 458-3800","city":"Morenci","state":"Michigan","zipcode":"49256","slug":"stateline-wellness"},{"name":"Shake and Bake Detroit (Online Ordering for Curbside Pickup)","type":"dispensary","phone":"313-340-2253","city":"Detroit","state":"Michigan","zipcode":"48235","slug":"shakeandbake"},{"name":"Joyology Grand Rapids","type":"dispensary","phone":"616-330-1111","city":"Grand Rapids","state":"Michigan","zipcode":"49512","slug":"joyology-grand-rapids"},{"name":"Canna 43","type":"dispensary","phone":"2695681071","city":"Gobles","state":"Michigan","zipcode":"49055","slug":"canna-43"},{"name":"High Profile 44th street (REC)","type":"dispensary","phone":"(616) 330-3700","city":"Grand Rapids","state":"Michigan","zipcode":"49508","slug":"high-profile-44th-street-1"},{"name":"Natural Wellness Associates","type":"doctor","phone":"(616) 666-3374","city":"Grand Rapids","state":"Michigan","zipcode":"49505","slug":"natural-wellness-associates"},{"name":"Pinnacle Emporium - Edmore","type":"dispensary","phone":"989-427-7001","city":"Edmore","state":"Michigan","zipcode":"48829","slug":"pinnacle-emporium-3"},{"name":"KKIND","type":"dispensary","phone":"269-201-2300","city":"Kalamazoo","state":"Michigan","zipcode":"49004","slug":"kkind"},{"name":"Lake Effect-Delivery","type":"delivery","phone":"269-459-8488","city":"Kalamazoo","state":"Michigan","zipcode":"49002","slug":"lake-effect"},{"name":"Michigan Holistic Health","type":"doctor","phone":"(855) 420-8100","city":"Grand Rapids","state":"Michigan","zipcode":"49508","slug":"michigan-holistic-health"},{"name":"Fresh Water Cannabis Co - Baldwin","type":"dispensary","phone":"(231) 238-3888","city":"Baldwin","state":"Michigan","zipcode":"49304","slug":"fresh-water-cannabis-co-baldwin"},{"name":"Michigan Supply & Provisions - Grand Rapids","type":"dispensary","phone":"(616) 330-3621","city":"Grand Rapids","state":"Michigan","zipcode":"49546","slug":"michigan-supply-provisions-grand-rapids"},{"name":"Riverside Provisioning Kalkaska","type":"dispensary","phone":"231-564-4005","city":"Kalkaska","state":"Michigan","zipcode":"49646","slug":"riverside-provisioning-kalkaska"},{"name":"Premier Provisioning Center, Caro","type":"dispensary","phone":"989-882-0420","city":"CARO","state":"Michigan","zipcode":"48723","slug":"premier-provisioning-centerllc"},{"name":"Wayne Releaf","type":"dispensary","phone":"(734) 600-0420","city":"Wayne","state":"Michigan","zipcode":"48184","slug":"wayne-releaf-3"},{"name":"House of Zen","type":"dispensary","phone":"(313) 744-7987","city":"Detroit","state":"Michigan","zipcode":"48215","slug":"house-of-zen-2"},{"name":"The River Provisioning Delivery","type":"delivery","phone":"989-323-2222","city":"Grand Blanc Twp","state":"Michigan","zipcode":"48507","slug":"the-river-provisioning-delivery"},{"name":"Dr. Shelby-Lane, MD","type":"doctor","phone":"(800) 584-4926","city":"Detroit","state":"Michigan","zipcode":"48224","slug":"elan-wellness-llc"},{"name":"Over The Moon Certification Clinic","type":"doctor","phone":"734-548-8683","city":"Ann Arbor","state":"Michigan","zipcode":"48104","slug":"over-the-moon-certification-clinic"},{"name":"Over the Moon Certification Clinic","type":"doctor","phone":"248-318-3529","city":"Walled Lake","state":"Michigan","zipcode":"48390","slug":"over-the-moon-certification-center"},{"name":"Exclusive Ypsilanti Recreational Delivery","type":"delivery","phone":"734-494-0772","city":"Livonia","state":"Michigan","zipcode":"48150","slug":"exclusive-ann-arbor-recreational-delivery"},{"name":"Nirvana Center - Center Line (MED)","type":"dispensary","phone":"5867824936","city":"Center Line","state":"Michigan","zipcode":"48015","slug":"nirvana-center-east-detroit"},{"name":"Pure Options Lansing East","type":"dispensary","phone":"(517) 318-6932","city":"Lansing","state":"Michigan","zipcode":"48912","slug":"stateside-wellness"},{"name":"Viola","type":"dispensary","phone":"3137246486","city":"Detroit","state":"Michigan","zipcode":"48209","slug":"viola"},{"name":"THE REEF DETROIT","type":"dispensary","phone":"313-992-4202","city":"Detroit","state":"Michigan","zipcode":"48234","slug":"the-reef-medical-center"},{"name":"MJA Healthcare","type":"doctor","phone":"(906) 228-2999","city":"Marquette","state":"Michigan","zipcode":"49855","slug":"mja-healthcare"},{"name":"HOUSE OF DANK GRATIOT","type":"delivery","phone":"833-746-7463","city":"Detroit","state":"Michigan","zipcode":"48205","slug":"house-of-dank-gratiot"},{"name":"3Fifteen Morenci","type":"dispensary","phone":"517-458-3150","city":"Morenci","state":"Michigan","zipcode":"49256","slug":"3fifteen-morenci-4"},{"name":"3Fifteen Metro Detroit Recreational Delivery","type":"delivery","phone":"3138266037","city":"Hamtramck","state":"Michigan","zipcode":"48212","slug":"detroit-metro-recreational-delivery"},{"name":"Green Genie","type":"dispensary","phone":"(313) 977-9027","city":"Detroit","state":"Michigan","zipcode":"48219","slug":"green-genie-2"},{"name":"Common Citizen (Medical)","type":"delivery","phone":"810-223-0700","city":"flint","state":"Michigan","zipcode":"48506","slug":"common-citizen-medical"},{"name":"Remedii - Battle Creek Recreational (Online Ordering for Curbside Pickup)","type":"dispensary","phone":"269-223-7744","city":"Battle Creek","state":"Michigan","zipcode":"49015","slug":"remedii-battle-creek-rec-online-ordering-for-curbside-pickup"},{"name":"Joyology MED by Holistic Health Wayne","type":"dispensary","phone":"734-725-5343","city":"Wayne","state":"Michigan","zipcode":"48184","slug":"holistic-health-wayne"},{"name":"The Flower Bowl - Recreational","type":"dispensary","phone":"734-895-8753","city":"Inkster","state":"Michigan","zipcode":"48141","slug":"the-flower-bowl-recreational"},{"name":"Sun Provisions","type":"dispensary","phone":"269-436-8221","city":"Decatur","state":"Michigan","zipcode":"49045","slug":"sun-provisions"},{"name":"Dispo - Medical & Recreational","type":"dispensary","phone":"989-671-9333","city":"Bay City","state":"Michigan","zipcode":"48706","slug":"dispo-3"},{"name":"Joyology Grand Rapids","type":"dispensary","phone":"616-330-1111","city":"Grand Rapids","state":"Michigan","zipcode":"49512","slug":"joyology-grand-rapids-1"},{"name":"Meds Cafe","type":"dispensary","phone":"(231) 887-4530","city":"Manistee","state":"Michigan","zipcode":"49660","slug":"meds-cafe-6"},{"name":"Bazonzoes - Medical","type":"dispensary","phone":"2489261518","city":"Walled Lake","state":"Michigan","zipcode":"48390","slug":"bazonzoes-7"},{"name":"Lapeer - Pure Lapeer Delivery (REC)","type":"delivery","phone":"810-660-8403","city":"Oakland County","state":"Michigan","zipcode":"48301","slug":"lapeer-pure-lapeer-delivery-rec-2"},{"name":"Amazing Budz- Recreational","type":"dispensary","phone":"517-759-4012","city":"Adrian","state":"Michigan","zipcode":"49221","slug":"amazing-budz-1"},{"name":"Liberty Madison Heights","type":"dispensary","phone":"(248)-268-2767","city":"Madison Heights","state":"Michigan","zipcode":"48071","slug":"liberty-madison-heights"},{"name":"EZ MEDZ Delivery","type":"delivery","phone":"(855) 439-6339","city":"Lake Orion","state":"Michigan","zipcode":"48359","slug":"ez-medz-delivery"},{"name":"Exclusive Ann Arbor Recreational Delivery","type":"delivery","phone":"734-494-0772","city":"Ann Arbor","state":"Michigan","zipcode":"48108","slug":"exclusive-ann-arbor-recreational-delivery-1"},{"name":"Arbors Wellness Medical","type":"dispensary","phone":"734-929-2602","city":"Ann Arbor","state":"Michigan","zipcode":"48104","slug":"a2wc"},{"name":"Doc Greens Clinic","type":"doctor","phone":"5869834200","city":"Sterling Heights","state":"Michigan","zipcode":"48314","slug":"doc-greens-clinic"},{"name":"Breaking Bud Delivery","type":"delivery","phone":"(269) 224-6146","city":"Battle Creek","state":"Michigan","zipcode":"49014","slug":"breaking-bud"},{"name":"Green Buddha Cannabis Co- Medical Delivery","type":"delivery","phone":"248-955-1500","city":"Ferndale","state":"Michigan","zipcode":"48220","slug":"green-buddha-cannabis-co"},{"name":"Xplore Cannabis Co. (REC)","type":"dispensary","phone":"810-969-4141","city":"Lapeer","state":"Michigan","zipcode":"48446","slug":"xplore"},{"name":"Green Pharm Bay City Recreational","type":"dispensary","phone":"(989) 316-2833","city":"Bay City","state":"Michigan","zipcode":"48706","slug":"medical-woods-provisioning-center-receational"},{"name":"Green Spirit Clinic","type":"doctor","phone":"888-836-2420","city":"Allen Park","state":"Michigan","zipcode":"48101","slug":"green-spirit-clinic-1"},{"name":"Hashish Boyz","type":"dispensary","phone":"9894391972","city":"Bay City","state":"Michigan","zipcode":"48706","slug":"hashish-boyz"},{"name":"Rair - Bay City (Medical)","type":"dispensary","phone":"989-402-1484","city":"Bay City","state":"Michigan","zipcode":"48706","slug":"rair-bay-city-medical"},{"name":"Lume Cannabis Co. Big Rapids","type":"dispensary","phone":"(231) 598-8800","city":"Big Rapids","state":"Michigan","zipcode":"49307","slug":"lume-cannabis-co-big-rapids"},{"name":"Sozo Muskegon","type":"dispensary","phone":"231-600-7696","city":"Muskegon","state":"Michigan","zipcode":"49444","slug":"sozo-muskegon"},{"name":"Arcanna","type":"delivery","phone":"616-755-6656","city":"Grand Rapids","state":"Michigan","zipcode":"49507","slug":"arcanna-1"},{"name":"Lume Cannabis Co. Evart","type":"dispensary","phone":"(231) 202-2318","city":"Evart","state":"Michigan","zipcode":"49631","slug":"lit-provisioning-centers"},{"name":"Rize U.P. - Iron Mountain","type":"dispensary","phone":"906-774-3531","city":"Iron Mountain","state":"Michigan","zipcode":"49801","slug":"rize-up"},{"name":"NORTH COAST - Recreational","type":"dispensary","phone":"517-759-4428","city":"Adrian","state":"Michigan","zipcode":"49221","slug":"north-coast-provisions-recreational"},{"name":"Dr. A's Releaf Center Reading","type":"dispensary","phone":"517-901-0350","city":"Reading","state":"Michigan","zipcode":"49274","slug":"dr-a-s-releaf-center-reading"},{"name":"Michigan's Finest Cannabis Co.","type":"dispensary","phone":"734-895-8277","city":"Wayne","state":"Michigan","zipcode":"48184","slug":"michigan-s-finest-mmd-1"},{"name":"The Green Mile Delivery","type":"delivery","phone":"(313) 826-1479","city":"Detroit","state":"Michigan","zipcode":"48212","slug":"the-green-mile-delivery-1"},{"name":"Information Entropy Delivery","type":"delivery","phone":"(734) 929 4207","city":"Ann Arbor","state":"Michigan","zipcode":"48104","slug":"information-entropy-delivery"},{"name":"Michigan Medical Marijuana Certification Center - Southfield","type":"doctor","phone":"(248) 932-6400","city":"Southfield","state":"Michigan","zipcode":"48034","slug":"mmmcc-southfield"},{"name":"Highly Cannaco","type":"dispensary","phone":"269-883-2111","city":"Battle Creek","state":"Michigan","zipcode":"49015","slug":"the-cannabar"},{"name":"M.DOT Powered by Joyology","type":"delivery","phone":"586-838-1010","city":"26550 Liberal St","state":"Michigan","zipcode":"48015","slug":"m-dot-powered-by-joyology"},{"name":"Om of Medicine (Recreational)","type":"dispensary","phone":"734-369-8255","city":"Ann Arbor","state":"Michigan","zipcode":"48104","slug":"om-of-medicine"},{"name":"420 Factory","type":"dispensary","phone":"3138087171","city":"Detroit","state":"Michigan","zipcode":"48228","slug":"420-factory"},{"name":"Cookies Detroit","type":"dispensary","phone":"313-242-0680","city":"Detroit","state":"Michigan","zipcode":"48234","slug":"cookiesdetroit"},{"name":"Nirvana Center Delivery","type":"delivery","phone":"5867824936","city":"Detroit","state":"Michigan","zipcode":"48205","slug":"nirvana-center"},{"name":"Joyology REC by Holistic Health Wayne","type":"delivery","phone":"734-725-5343","city":"Westland","state":"Michigan","zipcode":"48185","slug":"joyology-by-holistic-health-wayne-med"},{"name":"Detroit Herbal Center Delivery","type":"delivery","phone":"313-397-2738","city":"Allen Park","state":"Michigan","zipcode":"48101","slug":"detroit-herbal-center-delivery"},{"name":"Utopia Gardens","type":"dispensary","phone":"313-332-0544","city":"Detroit","state":"Michigan","zipcode":"48207","slug":"utopia-gardens"},{"name":"CannaVista Wellness","type":"dispensary","phone":"269-234-7377","city":"Buchanan","state":"Michigan","zipcode":"49107","slug":"cannavista-wellness"},{"name":"Herbology - Bangor","type":"dispensary","phone":"269-224-0910","city":"Bangor","state":"Michigan","zipcode":"49013","slug":"herbology-bangor-mi"},{"name":"Apothecare Ann Arbor","type":"dispensary","phone":"734-800-2004","city":"Ann Arbor","state":"Michigan","zipcode":"48105","slug":"apothecare-ann-arbor"},{"name":"Dr. Scott Jay","type":"doctor","phone":"423-430-2690","city":"Williamsburg","state":"Michigan","zipcode":"49690-9706","slug":"drscottjay"},{"name":"Treehouse 603 - Adult Use & Med","type":"dispensary","phone":"(734) 773-3895","city":"Ann Arbor","state":"Michigan","zipcode":"48104","slug":"treehouse-603"},{"name":"Greenpath Holistic Medicine","type":"doctor","phone":"248-607-9535","city":"Huntington Woods","state":"Michigan","zipcode":"48070","slug":"greenpath-holistic-medicine-3"},{"name":"Michigan Organic Solutions","type":"dispensary","phone":"810-309-0564","city":"Flint","state":"Michigan","zipcode":"48507","slug":"michigan-organic-solutions"},{"name":"JARS West Detroit (NOW OPEN)","type":"dispensary","phone":"313-998-7800","city":"Detroit","state":"Michigan","zipcode":"48221","slug":"jars-detroit-west"},{"name":"Green Cross","type":"delivery","phone":"2485343209","city":"West Detroit","state":"Michigan","zipcode":"48075","slug":"green-cross-3"},{"name":"Rair Muskegon Medical","type":"dispensary","phone":"231-747-7939","city":"Muskegon","state":"Michigan","zipcode":"49441","slug":"rair-muskegon"},{"name":"JARS River Rouge","type":"dispensary","phone":"(313) 466-7888","city":"River Rouge","state":"Michigan","zipcode":"48218","slug":"jars-river-rouge"},{"name":"The Patient Station Delivery","type":"delivery","phone":"734-544-9999","city":"Ann Arbor","state":"Michigan","zipcode":"48103","slug":"the-patient-station-delivery-2"},{"name":"HOUSE OF DANK GRATIOT - DELIVERY","type":"delivery","phone":"833-746-7463","city":"Detroit","state":"Michigan","zipcode":"48205","slug":"house-of-dank-gratiot-delivery"},{"name":"3Fifteen Michigan Ave","type":"dispensary","phone":"(269) 719-2360","city":"Battle Creek","state":"Michigan","zipcode":"49037","slug":"battle-creek-provisioning"},{"name":"The Mint Cannabis","type":"dispensary","phone":"(269) 743-7444","city":"Kalamazoo","state":"Michigan","zipcode":"49001","slug":"mint-cannabis"},{"name":"Skymint White Cloud (Recreational)","type":"dispensary","phone":"(231) 282-9863","city":"White Cloud","state":"Michigan","zipcode":"49349","slug":"skymint-white-cloud"},{"name":"Northern Specialty Health","type":"dispensary","phone":"906-523-5122","city":"Houghton","state":"Michigan","zipcode":"49931","slug":"northern-specialty-health"},{"name":"Rair - Muskegon (Recreational) Delivery","type":"delivery","phone":"231-747-7939","city":"Muskegon","state":"Michigan","zipcode":"49441","slug":"rair-muskegon-recreational-delivery"},{"name":"Meds Cafe","type":"dispensary","phone":"616-260-3098","city":"Lowell","state":"Michigan","zipcode":"49331","slug":"meds-cafe-5"},{"name":"Lake Life Farms (Med & Rec)","type":"dispensary","phone":"231-629-8222","city":"Big Rapids","state":"Michigan","zipcode":"49307","slug":"lake-life-farms"},{"name":"The WellFlower - Big Rapids","type":"dispensary","phone":"231-598-9420","city":"Big Rapids","state":"Michigan","zipcode":"49307","slug":"the-wellflower"},{"name":"Sticky Ypsi Delivery","type":"delivery","phone":"(734) 879-1204","city":"Ypsilanti","state":"Michigan","zipcode":"48197","slug":"sticky-ypsi-delivery"},{"name":"Pure Roots - Ann Arbor","type":"dispensary","phone":"844-325-3900","city":"Ann Arbor","state":"Michigan","zipcode":"48104","slug":"pure-roots"},{"name":"Remedy 313","type":"dispensary","phone":"(313) 636-2380","city":"Detroit","state":"Michigan","zipcode":"48219","slug":"remedy-313"},{"name":"Pure Lapeer Delivery (MED)","type":"delivery","phone":"810-660-8403","city":"Flint","state":"Michigan","zipcode":"48502","slug":"pure-lapeer-delivery-5"},{"name":"Pure Lapeer Delivery (MED)","type":"delivery","phone":"810-660-8403","city":"St. Clair County","state":"Michigan","zipcode":"48014","slug":"pure-lapeer-delivery-3"},{"name":"Bacco Farms Provisioning Center","type":"dispensary","phone":"810-877-6538","city":"Flint","state":"Michigan","zipcode":"48505","slug":"bacco-farms-provisioning-center"},{"name":"HOUSE OF DANK CENTER LINE REC","type":"dispensary","phone":"586-459-5683","city":"Center Line","state":"Michigan","zipcode":"48015","slug":"house-of-dank-center-line-med"},{"name":"Green Tree Relief Recreational","type":"dispensary","phone":"(517) 901-0163","city":"Reading","state":"Michigan","zipcode":"49274","slug":"green-tree-relief-3"},{"name":"ArborSide - Medical","type":"dispensary","phone":"734-213-1420","city":"Ann Arbor","state":"Michigan","zipcode":"48104","slug":"arborsidecompassion"},{"name":"3Fifteen Hamtramck","type":"dispensary","phone":"3138266037","city":"hamtramck","state":"Michigan","zipcode":"48212","slug":"3fifteen-detroit-metro-recreational"},{"name":"Lapeer - Pure Lapeer Delivery (REC)","type":"delivery","phone":"810-660-8403","city":"St. Clair County","state":"Michigan","zipcode":"35052","slug":"lapeer-pure-lapeer-delivery-rec-3"},{"name":"3Fifteen Morenci - REC","type":"dispensary","phone":"517-458-3150","city":"Morenci","state":"Michigan","zipcode":"49256","slug":"3fifteen-morenci"},{"name":"MMP Certification And Wellness Center","type":"doctor","phone":"734-281-9333","city":"Detroit","state":"Michigan","zipcode":"48195","slug":"mmp-certifications"},{"name":"LIV Delivery- Recreational","type":"delivery","phone":"(248) 420-4200","city":"West Detroit","state":"Michigan","zipcode":"48067","slug":"liv-delivery-5"},{"name":"ArborSide - Recreational","type":"dispensary","phone":"734-213-1420","city":"Ann Arbor","state":"Michigan","zipcode":"48104","slug":"arborside-compassion"},{"name":"Denali Healthcare (Saginaw)","type":"doctor","phone":"(989) 317-3420 or (989) 4","city":"Saginaw","state":"Michigan","zipcode":"48602","slug":"denali-healthcare-saginaw"},{"name":"Great Lakes Provision Center","type":"dispensary","phone":"(231) 598-9190","city":"Big Rapids","state":"Michigan","zipcode":"49307","slug":"great-lakes-provision-center-1"},{"name":"The Fire Station Cannabis Co Negaunee","type":"dispensary","phone":"9062422837","city":"Negaunee","state":"Michigan","zipcode":"49866","slug":"the-fire-station"},{"name":"3Fifteen Grand Rapids- Plainfield Recreational Delivery","type":"delivery","phone":"833-315-3155","city":"Grand Rapids","state":"Michigan","zipcode":"49501","slug":"3fifteen-grand-rapids-plainfield-recreational-delivery"},{"name":"JARS Ann Arbor- Main Street (COMING SOON)","type":"dispensary","phone":"734-526-1100","city":"Ann Arbor","state":"Michigan","zipcode":"48104","slug":"jars-ann-arbor-main-street"},{"name":"Sticky Ypsi","type":"dispensary","phone":"(734) 879-1204","city":"Ypsilanti","state":"Michigan","zipcode":"48197","slug":"sticky-ypsi"},{"name":"Joyology REC by Holistic Health Wayne","type":"delivery","phone":"734-725-5343","city":"Dearborn","state":"Michigan","zipcode":"48124","slug":"joyology-by-holistic-health-wayne-rec-1"},{"name":"American Medical Clinic","type":"doctor","phone":"(586) 806-5858","city":"Warren","state":"Michigan","zipcode":"48091","slug":"american-medical-clinics-2"},{"name":"Michigan Organic Solutions","type":"delivery","phone":"8103090564","city":"Flint","state":"Michigan","zipcode":"48507","slug":"michigan-organic-solutions"},{"name":"Great Lakes Natural Remedies - Benzonia","type":"dispensary","phone":"231-383-4021","city":"Benzonia","state":"Michigan","zipcode":"49616","slug":"great-lakes-natural-remedies-benzonia"},{"name":"New Standard Park Place","type":"dispensary","phone":"231-747-7305","city":"Muskegon","state":"Michigan","zipcode":"49441","slug":"park-place-provisionary"},{"name":"Treehouse 603","type":"delivery","phone":"(734) 773-3895","city":"Ann Arbor","state":"Michigan","zipcode":"48104","slug":"treehouse-603"},{"name":"Advanced Medical Associates \/ Dr. Mark Neumann","type":"doctor","phone":"734-347-2127","city":"Wayne","state":"Michigan","zipcode":"48184","slug":"advanced-medical-associates-dr-mark-neumann"},{"name":"HOUSE OF DANK CENTER LINE REC - DELIVERY","type":"delivery","phone":"586-459-5683","city":"East Detroit","state":"Michigan","zipcode":"48015","slug":"house-of-dank-center-line-rec"},{"name":"Common Citizen Recreational","type":"dispensary","phone":"810-223-0700","city":"Flint","state":"Michigan","zipcode":"48506","slug":"common-citizen-recreational"},{"name":"Bazonzoes - Medical","type":"dispensary","phone":"517-273-3000","city":"Lansing","state":"Michigan","zipcode":"48917","slug":"bazonzoes-4"},{"name":"Bazonzoes - Recreational","type":"dispensary","phone":"517-273-3000","city":"Lansing","state":"Michigan","zipcode":"48917","slug":"bazonzoes-5"},{"name":"Freddie's Recreational","type":"dispensary","phone":"(810) 547-7276","city":"Clio","state":"Michigan","zipcode":"48420","slug":"freddie-s-3"},{"name":"Pure Options Lansing South","type":"dispensary","phone":"(517) 721-1439","city":"Lansing","state":"Michigan","zipcode":"48911","slug":"pure-options-2"},{"name":"The Barn","type":"dispensary","phone":"810-742-1500","city":"Burton","state":"Michigan","zipcode":"48529","slug":"the-barn"},{"name":"Flow Provisioning","type":"dispensary","phone":"906-273-1406","city":"Marquette","state":"Michigan","zipcode":"49855","slug":"flow-provisioning-llc"},{"name":"Herbology - Ann Arbor (Medical)","type":"dispensary","phone":"734-245-9309","city":"Ann Arbor","state":"Michigan","zipcode":"48103","slug":"herbology-ann-arbor-recreational"},{"name":"Lume Cannabis Co. Petersburg","type":"dispensary","phone":"517-401-6986","city":"Petersburg","state":"Michigan","zipcode":"49270","slug":"lume-cannabis-co-petersburg"},{"name":"Herbal Healing Provisioning (MED)","type":"dispensary","phone":"(313) 451-8007","city":"River Rouge","state":"Michigan","zipcode":"48218","slug":"herbal-healing-3"},{"name":"Green Tree Relief","type":"dispensary","phone":"(517) 901-0163","city":"Reading","state":"Michigan","zipcode":"49274","slug":"green-tree-relief-2"},{"name":"Premiere Provisions-Adult-Use NOW OPEN!","type":"dispensary","phone":"231-629-8188","city":"Big Rapids","state":"Michigan","zipcode":"49307","slug":"premiere-provisions"},{"name":"Dort Hwy Disp","type":"dispensary","phone":"810-337-1420","city":"Burton","state":"Michigan","zipcode":"48529","slug":"dort-hwy-disp"},{"name":"LIV-Medical Delivery","type":"delivery","phone":"(248)326-2100","city":"Macomb County","state":"Michigan","zipcode":"48310","slug":"liv-delivery-3"},{"name":"Exclusive Ann Arbor Medical Delivery","type":"delivery","phone":"734-494-0772","city":"Ann Arbor","state":"Michigan","zipcode":"48108","slug":"exclusive-ann-arbor-medical-delivery-1"},{"name":"New Standard - Recreational","type":"dispensary","phone":"248-873-0420","city":"Hazel Park","state":"Michigan","zipcode":"48030","slug":"new-standard-1"},{"name":"Exclusive Ann Arbor Medical","type":"dispensary","phone":"734-494-0772","city":"Ann Arbor","state":"Michigan","zipcode":"48108","slug":"exclusive-provisioning-center"},{"name":"Bay Area Meds","type":"dispensary","phone":"9897781776","city":"Kawkawlin","state":"Michigan","zipcode":"48631","slug":"bay-area-meds"},{"name":"SOHAI","type":"doctor","phone":"616-719-0441","city":"Grand Rapids","state":"Michigan","zipcode":"49503","slug":"sohai-2"},{"name":"West Michigan Wellness Center","type":"doctor","phone":"269-872-3910","city":"Kalamazoo","state":"Michigan","zipcode":"49001","slug":"west-michigan-wellness-center"},{"name":"Rair Bay City Medical Delivery","type":"delivery","phone":"989-402-1484","city":"Bay City","state":"Michigan","zipcode":"48706","slug":"rair-bay-city-medical-delivery"},{"name":"JARS Mount Pleasant","type":"dispensary","phone":"(989) 572-0400","city":"Mt. Pleasant","state":"Michigan","zipcode":"48858","slug":"jars-mt-pleasant"},{"name":"Oz Cannabis Ypsilanti - Rec Delivery","type":"delivery","phone":"734-328-1155","city":"Ypsilanti","state":"Michigan","zipcode":"48197","slug":"oz-cannabis-leaf-delivery-ypsilanti"},{"name":"HOUSE OF DANK LIVERNOIS","type":"dispensary","phone":"833-746-7463","city":"Detroit","state":"Michigan","zipcode":"48209","slug":"house-of-dank-livernois"},{"name":"HOUSE OF DANK CENTER LINE MED","type":"dispensary","phone":"586-459-5683","city":"Center Line","state":"Michigan","zipcode":"48015","slug":"the-clinic-cannabis-company"},{"name":"Lume Cannabis Co Lowell","type":"dispensary","phone":"(616) 330-3812","city":"Lowell","state":"Michigan","zipcode":"49331","slug":"lume-cannabis-co-lowell"},{"name":"Rair Muskegon Medical Delivery","type":"delivery","phone":"231-747-7939","city":"Muskegon","state":"Michigan","zipcode":"49441","slug":"rair-muskegon-medical-delivery"},{"name":"Skymint Ann Arbor","type":"dispensary","phone":"(734) 627-7360","city":"Ann Arbor","state":"Michigan","zipcode":"48104","slug":"skymint-ann-arbor"},{"name":"Elite Wellness - Mt Morris Recreational","type":"dispensary","phone":"810-687-8888","city":"Mt Morris","state":"Michigan","zipcode":"48458","slug":"elite-wellness-mt-morris"},{"name":"Joyology REC by Holistic Health Wayne","type":"dispensary","phone":"734-725-5343","city":"Wayne","state":"Michigan","zipcode":"48184","slug":"holistic-health-wayne-recreational"},{"name":"20 Past 4 Provisioning Center","type":"dispensary","phone":"517-883-4200","city":"Jackson","state":"Michigan","zipcode":"49202","slug":"20-past-4-provisioning-center"},{"name":"Consume Cannabis Co. - Quincy","type":"dispensary","phone":"517-258-7500","city":"Quincy","state":"Michigan","zipcode":"49082","slug":"consume-cannabis-co-quincy"},{"name":"GLH Cannabis Company","type":"dispensary","phone":"269-223-7733","city":"Battle Creek","state":"Michigan","zipcode":"49014","slug":"great-lakes-holistics"},{"name":"Skymint Bay City","type":"dispensary","phone":"989-272-1745","city":"Bay City","state":"Michigan","zipcode":"48706","slug":"skymintbaycity"},{"name":"Integrity Medicine","type":"doctor","phone":"248-423-4200","city":"Southfield","state":"Michigan","zipcode":"48075","slug":"integrity-medicine"},{"name":"Lume Cannabis Co Jackson","type":"dispensary","phone":"(517) 888-0404","city":"Jackson","state":"Michigan","zipcode":"49202","slug":"lume-cannabis-co-jackson"},{"name":"Skymint Lansing – Cedar St. (REC)","type":"dispensary","phone":"(810) 250-7627","city":"Lansing","state":"Michigan","zipcode":"48910","slug":"skymint-lansing"},{"name":"Lume Cannabis Evart Delivery","type":"delivery","phone":"(231) 202-2323","city":"Evart","state":"Michigan","zipcode":"49631","slug":"lit-provisioning-centers"},{"name":"Michigan Supply & Provisions - Scribner","type":"dispensary","phone":"(616) 330-5501","city":"Grand Rapids","state":"Michigan","zipcode":"49504","slug":"michigan-supply-provisions-79"},{"name":"Greenways Provisioning Center","type":"dispensary","phone":"9893879507","city":"Beaverton","state":"Michigan","zipcode":"48612","slug":"greenways-provisioning-center"},{"name":"Cannamazoo Recreational","type":"dispensary","phone":"(866)226-6262","city":"Kalamazoo","state":"Michigan","zipcode":"49007","slug":"cannamazoo-1"},{"name":"High Quality Provisioning Center Recreational","type":"dispensary","phone":"(989) 200-2500","city":"Pinconning","state":"Michigan","zipcode":"48650","slug":"high-quality-provisioning-center-1"},{"name":"Pure West Compassion Clinic","type":"doctor","phone":"616-741-9107","city":"Holland","state":"Michigan","zipcode":"49424","slug":"pure-west-compassion-clinic"},{"name":"NORTH COAST","type":"dispensary","phone":"517-759-4428","city":"Adrian","state":"Michigan","zipcode":"49221","slug":"north-coast-provisions-1"},{"name":"Exclusive Grand Rapids Rec Marijuana - Delivery","type":"delivery","phone":"6168886753","city":"Grand Rapids","state":"Michigan","zipcode":"49508","slug":"exclusive-grand-rapids-rec-marijuana-delivery"},{"name":"Only by Nature","type":"dispensary","phone":"9062972058","city":"De Tour Village","state":"Michigan","zipcode":"49725","slug":"only-by-nature-1"},{"name":"Michigan Health And Wellness","type":"doctor","phone":"989-443-5850","city":"Saginaw","state":"Michigan","zipcode":"48604","slug":"michigan-health-and-wellness"},{"name":"Sunnies Cannabis Co Delivery","type":"delivery","phone":"517-343-2070","city":"Lansing","state":"Michigan","zipcode":"48933","slug":"sunnies-cannabis-co-delivery-3"},{"name":"HOUSE OF DANK BEL- AIR Delivery","type":"delivery","phone":"313-733-4114","city":"Macomb County","state":"Michigan","zipcode":"48092","slug":"taste-buds-5"},{"name":"EZ MEDZ Delivery","type":"delivery","phone":"(855) 439-6339","city":"Macomb","state":"Michigan","zipcode":"48042","slug":"ez-medz-delivery-1"},{"name":"Lapeer - Pure Lapeer Delivery (REC)","type":"delivery","phone":"810-660-8403","city":"Macomb County","state":"Michigan","zipcode":"48005","slug":"lapeer-pure-lapeer-delivery-rec-1"},{"name":"Michigan's Finest MMD","type":"dispensary","phone":"734-895-8277","city":"Wayne","state":"Michigan","zipcode":"48184","slug":"michigan-s-finest-mmd"},{"name":"Fuel 420","type":"dispensary","phone":"517-748-9326","city":"Jackson","state":"Michigan","zipcode":"49203","slug":"fuel-420"},{"name":"Natures Answer Downtown Detroit","type":"doctor","phone":"313-782-4812","city":"Detroit","state":"Michigan","zipcode":"48207","slug":"natures-answer-detroit"},{"name":"Common Citizen (Medical)","type":"dispensary","phone":"810-223-0700","city":"Flint","state":"Michigan","zipcode":"48506","slug":"common-citizen"},{"name":"Green Pharm","type":"dispensary","phone":"313-914-4323","city":"Detroit","state":"Michigan","zipcode":"48217","slug":"green-pharm-clinic"},{"name":"Green Buddha Cannabis Co Medical- Delivery","type":"delivery","phone":"248-955-1500","city":"Oakland County","state":"Michigan","zipcode":"48363","slug":"green-buddha-cannabis-co-delivery"},{"name":"3Fifteen Grand Rapids Plainfield","type":"dispensary","phone":"(616) 734-6331","city":"Grand Rapids","state":"Michigan","zipcode":"49525","slug":"3fifteen-grand-rapids-plainfield"},{"name":"THE REEF Delivery","type":"delivery","phone":"313-992-4202","city":"Southfield","state":"Michigan","zipcode":"48076","slug":"the-reef-delivery"},{"name":"3Fifteen Delivery Ypsilanti","type":"delivery","phone":"833-315-3155","city":"Ypsilanti","state":"Michigan","zipcode":"48917","slug":"3fifteen-delivery-ypsilanti"},{"name":"Bloom City Club Medical","type":"dispensary","phone":"734-585-0621","city":"Ann Arbor","state":"Michigan","zipcode":"48103","slug":"bloom-city-club"},{"name":"Hayat Cannabis (NOW OPEN)","type":"dispensary","phone":"2482755555","city":"Hazel Park","state":"Michigan","zipcode":"48030","slug":"hayat-cannabis"},{"name":"BREEZE - Hazel Park (REC)","type":"dispensary","phone":"833-927-3393","city":"Hazel Park","state":"Michigan","zipcode":"48030","slug":"breeze"},{"name":"Bloom City Club - Burton","type":"dispensary","phone":"(810) 820-7696","city":"Burton","state":"Michigan","zipcode":"48509","slug":"bloom-city-club-burton-1"},{"name":"Elite Wellness - Bay City - Recreational","type":"dispensary","phone":"989-439-1711","city":"Bay City","state":"Michigan","zipcode":"48706","slug":"elite-wellness-bangor-recreational"},{"name":"Authentic 231","type":"dispensary","phone":"(231) 299-1466","city":"Manistee","state":"Michigan","zipcode":"49660","slug":"heritage-farms-manistee-llc-dba-authentic-231"},{"name":"Humblebee Products- Adult Use","type":"dispensary","phone":"989-745-6575","city":"Frederic","state":"Michigan","zipcode":"49733","slug":"humblebee-products-adult-use"},{"name":"Exclusive Grand Rapids Recreational Marijuana Dispensary","type":"dispensary","phone":"6168886753","city":"Grand Rapids","state":"Michigan","zipcode":"49508","slug":"exclusive-grand-rapids-rec-marijuana"},{"name":"Olswell Cannabis Co","type":"dispensary","phone":"231-252-4543","city":"Traverse City","state":"Michigan","zipcode":"49686","slug":"olswell-cannabis-co"},{"name":"DR. NAVEED - ELITE HEALTH","type":"doctor","phone":"6166441423","city":"GRAND RAPIDS","state":"Michigan","zipcode":"49503","slug":"dr-naveed"},{"name":"Consano","type":"dispensary","phone":"9893170779","city":"Mt Pleasant","state":"Michigan","zipcode":"48858","slug":"consano"},{"name":"The Hempory - CBD","type":"store","phone":"269-459-1840","city":"Kalamazoo","state":"Michigan","zipcode":"49004","slug":"the-hempory"},{"name":"Heads Cannabis Co","type":"dispensary","phone":"517-662-4197","city":"Adrian","state":"Michigan","zipcode":"49221","slug":"heads-cannabis-co"},{"name":"Bloom City Club Recreational","type":"dispensary","phone":"734-585-0621","city":"Ann Arbor","state":"Michigan","zipcode":"48103","slug":"bloom-city-club-recreational"},{"name":"High Profile-Ann Arbor","type":"dispensary","phone":"734-821-9333","city":"Ann Arbor","state":"Michigan","zipcode":"48104","slug":"high-profile-ann-arbor"},{"name":"mood420","type":"dispensary","phone":"313-666-3420","city":"Detroit","state":"Michigan","zipcode":"48223","slug":"mood420"},{"name":"EZ MEDZ","type":"dispensary","phone":"(855) 439-6339","city":"Mt Morris","state":"Michigan","zipcode":"48458","slug":"ez-medz"},{"name":"Plan B Wellness Center","type":"dispensary","phone":"248-470-4638","city":"Detroit","state":"Michigan","zipcode":"48219","slug":"plan-b-wellness-center-detroit"},{"name":"Kinship Cannabis Co.","type":"dispensary","phone":"517-257-7372","city":"Parma Twp","state":"Michigan","zipcode":"49224","slug":"kinship-provisioning"},{"name":"HOUSE OF DANK GRATIOT","type":"dispensary","phone":"313-499-1703","city":"Detroit","state":"Michigan","zipcode":"48205","slug":"hod-gratiot"},{"name":"Dort Hwy Disp - Medical","type":"dispensary","phone":"810-337-1420","city":"Burton","state":"Michigan","zipcode":"48529","slug":"dort-hwy-disp-medical"},{"name":"The Nest","type":"dispensary","phone":"517-797-5275","city":"Camden","state":"Michigan","zipcode":"49232","slug":"the-nest"},{"name":"Oz Cannabis Bay City - Medical Delivery","type":"delivery","phone":"989-671-9999","city":"Bay City","state":"Michigan","zipcode":"48706","slug":"house-of-fire-medical"},{"name":"Nature's Medicines Bay City (Adult Use)","type":"dispensary","phone":"989-301-9718","city":"Bay City","state":"Michigan","zipcode":"48706","slug":"nature-s-medicines-michigan"},{"name":"Green Buddha Cannabis Co Rec Delivery","type":"delivery","phone":"248-955-1500","city":"East Detroit","state":"Michigan","zipcode":"48021","slug":"green-buddha-cannabis-co-medical-delivery"},{"name":"Detroit Herbal Center Delivery - Oakland County","type":"delivery","phone":"313-397-2738","city":"Troy","state":"Michigan","zipcode":"48083","slug":"detroit-herbal-center-2-delivery"},{"name":"Bigfoot Wellness","type":"dispensary","phone":"810-744-0998","city":"Burton","state":"Michigan","zipcode":"48509","slug":"bigfoot-wellness"},{"name":"Oz Cannabis Detroit - Medical","type":"dispensary","phone":"3139245773","city":"Detroit","state":"Michigan","zipcode":"48224","slug":"oz-cannabis"},{"name":"Lapeer - Pure Lapeer Provisioning Center (Rec)","type":"dispensary","phone":"810-660-8403","city":"Lapeer","state":"Michigan","zipcode":"48446","slug":"lapeer-pure-lapeer-provisioning-center-rec"},{"name":"Arcanna","type":"dispensary","phone":"616-755-6656","city":"Ionia","state":"Michigan","zipcode":"48846","slug":"arcanna"},{"name":"Mother Nurtures","type":"dispensary","phone":"231-598-9120","city":"Big Rapids","state":"Michigan","zipcode":"49307","slug":"mother-nurtures"},{"name":"Lume Cannabis Co. Kalamazoo","type":"dispensary","phone":"(269) 888-1200","city":"Kalamazoo","state":"Michigan","zipcode":"49008","slug":"lume-cannabis-co"},{"name":"Cloud Cannabis Traverse City - Medical","type":"dispensary","phone":"(231) 252-1011","city":"Traverse City","state":"Michigan","zipcode":"49686","slug":"cloud-cannabis-3"},{"name":"3Fifteen Grand Rapids- Division Delivery","type":"delivery","phone":"6162598542","city":"Grand Rapids","state":"Michigan","zipcode":"49503","slug":"3fifteen-grand-rapids-delivery"},{"name":"Rair - Bay City (Recreational) Delivery","type":"delivery","phone":"989-402-1484","city":"Bay City","state":"Michigan","zipcode":"48706","slug":"rair-bay-city-recreational-delivery"},{"name":"Premier Provisioning","type":"dispensary","phone":"989-882-9006","city":"Vassar","state":"Michigan","zipcode":"48768","slug":"elite-wellness-vasser"},{"name":"Rize U.P. - Marquette","type":"dispensary","phone":"(906) 936-3531","city":"Marquette","state":"Michigan","zipcode":"49855","slug":"rize-up-marquette"},{"name":"The WellFlower - Manistee","type":"dispensary","phone":"(231) 333-4200","city":"Manistee","state":"Michigan","zipcode":"49660","slug":"the-wellflower-1"},{"name":"Olswell Cannabis Co","type":"dispensary","phone":"(616)288-9434","city":"GRAND RAPIDS","state":"Michigan","zipcode":"49508","slug":"olswell-cannabis-co-3"},{"name":"Bella Sol Wellness Centers","type":"dispensary","phone":"(231) 766-7929","city":"Muskegon","state":"Michigan","zipcode":"49441","slug":"bella-sol-wellness-centers"},{"name":"Chronic Certification Center","type":"doctor","phone":"(231) 421-8000","city":"Traverse City","state":"Michigan","zipcode":"49684","slug":"chronic-cert-center"},{"name":"Intessa","type":"doctor","phone":"5178816905","city":"Ann Arbor","state":"Michigan","zipcode":"48104","slug":"cannacard"},{"name":"Michigan Supply & Provisions - Detroit","type":"dispensary","phone":"(313) 426-0521","city":"Detroit","state":"Michigan","zipcode":"48219","slug":"michigan-supply-provisions-2"},{"name":"Common Citizen- Adult Use","type":"dispensary","phone":"269-719-8500","city":"Battle Creek","state":"Michigan","zipcode":"49014","slug":"common-citizen-adult-use"},{"name":"Pure Roots - Hazel Park Delivery","type":"delivery","phone":"844-325-3900","city":"Hazel Park","state":"Michigan","zipcode":"48030","slug":"pure-roots-hazel-park-delivery"},{"name":"Quality Roots - Battle Creek","type":"delivery","phone":"269-719-8600","city":"Battle Creek","state":"Michigan","zipcode":"49014","slug":"quality-roots"},{"name":"New Standard - Edmore","type":"dispensary","phone":"(989) 304-4064","city":"Edmore","state":"Michigan","zipcode":"48829","slug":"edmore-provisionary"},{"name":"GAGE Ferndale","type":"dispensary","phone":"248-504-0506","city":"Ferndale","state":"Michigan","zipcode":"48220","slug":"gage-usa-ferndale"},{"name":"Oz Cannabis Detroit - Medical Delivery","type":"delivery","phone":"313-924-5773","city":"East Detroit","state":"Michigan","zipcode":"48080","slug":"oz-cannabis-detroit"},{"name":"Joyology Quincy Delivery","type":"delivery","phone":"517-639-1260","city":"Quincy","state":"Michigan","zipcode":"49082","slug":"joyology-quincy-delivery"},{"name":"Gage Adrian Delivery","type":"delivery","phone":"(888) 424-3463","city":"Adrian","state":"Michigan","zipcode":"49221","slug":"gage-adrian"},{"name":"Doja","type":"dispensary","phone":"2693664808","city":"Portage","state":"Michigan","zipcode":"49002","slug":"doja-1"},{"name":"Bud Express","type":"dispensary","phone":"(269) 233-4059","city":"Cassopolis","state":"Michigan","zipcode":"49031","slug":"morenci-brother"},{"name":"Center For Compassion LLC","type":"doctor","phone":"(231) 620-1420","city":"Traverse City","state":"Michigan","zipcode":"49686","slug":"center-for-compassion-llc"},{"name":"The Dude Abides Provisioning Center","type":"dispensary","phone":"269-241-9333","city":"Constantine","state":"Michigan","zipcode":"49042","slug":"the-dude-abides-provisioning-center"},{"name":"The River Provisioning Delivery","type":"delivery","phone":"989-323-2222","city":"St Johns","state":"Michigan","zipcode":"48879","slug":"the-river-provisioning-delivery-1"},{"name":"Bloom City Club -Recreational","type":"dispensary","phone":"269-224-6237","city":"Battle Creek","state":"Michigan","zipcode":"49014","slug":"bloom-city-club-2"},{"name":"Green Stem Provisioning","type":"dispensary","phone":"269-262-4778","city":"Niles","state":"Michigan","zipcode":"49120","slug":"green-stem-provisioning"},{"name":"Nature's Medicines Wayne (Adult Use)","type":"dispensary","phone":"734-881-0008","city":"Wayne","state":"Michigan","zipcode":"48184","slug":"nirvana-wayne"},{"name":"Pure Canna (Recreational)","type":"dispensary","phone":"(517) 897-9496","city":"Lansing","state":"Michigan","zipcode":"48911","slug":"altum-llc"},{"name":"Pharmhouse Wellness Delivery","type":"delivery","phone":"(616) 551-0040","city":"Grand Rapids","state":"Michigan","zipcode":"49507","slug":"pharmhouse-wellness"},{"name":"The MMJ Clinic","type":"doctor","phone":"(517) 787-1206","city":"Jackson","state":"Michigan","zipcode":"49202","slug":"the-mmj-clinic"},{"name":"Liberty Detroit","type":"dispensary","phone":"313-450-1400","city":"Detroit","state":"Michigan","zipcode":"48216","slug":"liberty-detroit"},{"name":"Southwest Medz","type":"dispensary","phone":"313-436-1680","city":"Detroit","state":"Michigan","zipcode":"48209","slug":"southwest-medz-1"},{"name":"Cannaisseur Medical","type":"dispensary","phone":"517-580-7602","city":"Lansing","state":"Michigan","zipcode":"48906","slug":"cannaisseur"},{"name":"Heads Cannabis Co - Lapeer","type":"dispensary","phone":"(810) 356-9141","city":"Lapeer","state":"Michigan","zipcode":"48446","slug":"heads-cannabis-co-1"},{"name":"Remedii Bay City Recreational Provisioning Center (Online Ordering for Curbside Pickup)","type":"dispensary","phone":"989-778-1348","city":"Bay City","state":"Michigan","zipcode":"48706","slug":"roots-dispensaries"},{"name":"Nature's Medicines Wayne (Medical)","type":"dispensary","phone":"734-881-0008","city":"Wayne","state":"Michigan","zipcode":"48184","slug":"nature-s-medicines-wayne-recreational"},{"name":"Constantine Wellness Center","type":"dispensary","phone":"(269)435-1035","city":"Constantine","state":"Michigan","zipcode":"49042","slug":"constantine-wellness-center"},{"name":"Redbud Roots Provisioning Center Acme","type":"dispensary","phone":"231-267-3134","city":"williamsburg","state":"Michigan","zipcode":"49690","slug":"redbud-roots-provisioning-center-acme"},{"name":"BSS Alternative Wellness Center","type":"doctor","phone":"(616) 712-6355","city":"Greenville","state":"Michigan","zipcode":"48838","slug":"kellie-border"},{"name":"The Station Provisioning Center Recreational (Online Ordering for Curbside Pickup)","type":"dispensary","phone":"989-882-9298","city":"Vassar","state":"Michigan","zipcode":"48768","slug":"the-station-provisioning-center"},{"name":"Lume Cannabis Co. Petoskey","type":"dispensary","phone":"(269) 888-1019","city":"Petoskey","state":"Michigan","zipcode":"49770","slug":"lume-cannabis-co-petoskey"},{"name":"Aim High Meds","type":"dispensary","phone":"517-583-1063","city":"Tekonsha","state":"Michigan","zipcode":"49089","slug":"aim-high-meds"},{"name":"Fire Creek Battle Creek - Medical & Recreational","type":"dispensary","phone":"269-753-1200","city":"Battle Creek","state":"Michigan","zipcode":"49014","slug":"fire-creek"},{"name":"Herbology Cannabis Co. (REC)","type":"dispensary","phone":"(313) 757-7684","city":"River Rouge","state":"Michigan","zipcode":"48218","slug":"herbology-cannabis-co-rec"},{"name":"Green Buddha Cannabis Medical Delivery","type":"delivery","phone":"248-955-1500","city":"East Detroit","state":"Michigan","zipcode":"48021","slug":"green-buddha-cannabis-co-recreational-delivery"},{"name":"URB Cannabis - Delivery","type":"delivery","phone":"989-882-9009","city":"Saginaw","state":"Michigan","zipcode":"48602","slug":"urb-cannabis-2"},{"name":"HOUSE OF DANK YPSILANTI REC","type":"dispensary","phone":"734-484-1990","city":"Ypsilanti","state":"Michigan","zipcode":"48198","slug":"green-vitality-adult-use"},{"name":"Motown Meds (Online Ordering for Curbside Pickup)","type":"dispensary","phone":"313-914-2319","city":"Detroit","state":"Michigan","zipcode":"48228","slug":"motown-meds"},{"name":"HOUSE OF DANK CENTER LINE REC - DELIVERY","type":"delivery","phone":"586-459-5683","city":"Macomb County","state":"Michigan","zipcode":"48042","slug":"house-of-dank-center-line-rec-delivery"},{"name":"Teebz of Adrian (Recreational)","type":"dispensary","phone":"517-759-4592","city":"Adrian","state":"Michigan","zipcode":"49221","slug":"teebz-of-adrian-recreational"},{"name":"Nirvana Center Delivery","type":"delivery","phone":"5867824936","city":"Ferndale","state":"Michigan","zipcode":"48220","slug":"nirvana-center-1"},{"name":"Shango Hazel Park - Medical","type":"dispensary","phone":"248-629-9681","city":"Hazel Park","state":"Michigan","zipcode":"48030","slug":"shango-hazel-park-coming-soon"},{"name":"Freddie's Medical","type":"dispensary","phone":"(810) 547-7276","city":"Clio","state":"Michigan","zipcode":"48420","slug":"freddie-s"},{"name":"Lume Cannabis Co Bay City","type":"dispensary","phone":"(989) 259-1307","city":"Bay City","state":"Michigan","zipcode":"48708","slug":"lume-cannabis-co-3"},{"name":"Redbud Roots Provisioning Center Muskegon","type":"dispensary","phone":"231-766-7479","city":"muskegon","state":"Michigan","zipcode":"49441","slug":"redbud-roots-provisioning-center-muskegon"},{"name":"JC3 Provisioning Center","type":"dispensary","phone":"517-962-2564","city":"Jackson","state":"Michigan","zipcode":"49203","slug":"jackson-county-compassion-club"},{"name":"Exclusive Kalamazoo - Recreational","type":"dispensary","phone":"(269)-447-1779","city":"Kalamazoo","state":"Michigan","zipcode":"49048","slug":"exclusive-kalamazoo-recreational"},{"name":"Consume Alma","type":"dispensary","phone":"989-623-9500","city":"Alma","state":"Michigan","zipcode":"48801","slug":"consume-alma"},{"name":"High Quality Provisioning Center","type":"dispensary","phone":"(989) 200-2500","city":"Pinconning","state":"Michigan","zipcode":"48650","slug":"high-quality-provisioning-center"},{"name":"PUFF Traverse City-Delivery (OPEN NOW!)","type":"delivery","phone":"(231) 252-4603","city":"Traverse City","state":"Michigan","zipcode":"49686","slug":"puff-traverse-city-delivery"},{"name":"Liberty Ann Arbor - Medical","type":"dispensary","phone":"734-773-3075","city":"Ann Arbor","state":"Michigan","zipcode":"48104","slug":"greenstone-provisions"},{"name":"Corktown Collective","type":"dispensary","phone":"313-265-3740","city":"Detroit","state":"Michigan","zipcode":"48216","slug":"corktown-collective"},{"name":"CHOICE PAGE AVE","type":"dispensary","phone":"517-513-8342","city":"Jackson","state":"Michigan","zipcode":"49203","slug":"choice-labs"},{"name":"The Flower Pot","type":"dispensary","phone":"517-926-0420","city":"Michigan Center","state":"Michigan","zipcode":"49254","slug":"the-flower-pot-3"},{"name":"Lady Jane Services","type":"doctor","phone":"8109087006","city":"Flint","state":"Michigan","zipcode":"48532","slug":"lady-jane-services-1"},{"name":"LIV- Medical Delivery","type":"delivery","phone":"(248)326-2100","city":"Oakland County","state":"Michigan","zipcode":"48322","slug":"liv-delivery-2"},{"name":"HOUSE OF DANK BEL - AIR","type":"dispensary","phone":"313-733-4114","city":"Detroit","state":"Michigan","zipcode":"48234","slug":"taste-buds-detroit-michigan"},{"name":"Common Citizen (Recreational)","type":"delivery","phone":"810-223-0700","city":"flint","state":"Michigan","zipcode":"48506","slug":"common-citizen"},{"name":"Rair Muskegon Recreational","type":"dispensary","phone":"231-747-7939","city":"Muskegon","state":"Michigan","zipcode":"49441","slug":"rair-muskegon-recreational"},{"name":"Authentic 231 Delivery","type":"delivery","phone":"(231) 299-1466","city":"Manistee","state":"Michigan","zipcode":"49660","slug":"authentic-231-delivery"},{"name":"The House of Mary Jane","type":"dispensary","phone":"(313) 340-9202","city":"Detroit","state":"Michigan","zipcode":"48235","slug":"the-house-of-mary-jane-2"},{"name":"Green Buddha Cannabis Co Recreational Delivery","type":"delivery","phone":"248-955-1500","city":"Royal Oak","state":"Michigan","zipcode":"48009","slug":"green-buddha-cannabis-co-delivery-2"},{"name":"The Card Clinic LLC","type":"doctor","phone":"(517) 706-1309","city":"Haslett","state":"Michigan","zipcode":"48840","slug":"the-card-clinic-llc"},{"name":"Exclusive Muskegon - Medical","type":"dispensary","phone":"2315590204","city":"Muskegon","state":"Michigan","zipcode":"48152","slug":"exclusive-muskegon"},{"name":"3Fifteen Grand Rapids Division -Recreational Delivery","type":"delivery","phone":"6162598542","city":"Grand Rapids","state":"Michigan","zipcode":"49503","slug":"3fifteen-grand-rapids-division-delivery"},{"name":"Pure Options Muskegon","type":"dispensary","phone":"231-457-4940","city":"Muskegon","state":"Michigan","zipcode":"49445","slug":"pure-options-muskegon"},{"name":"LIGHTHOUSE Delivery","type":"delivery","phone":"231-252-4000","city":"Traverse City","state":"Michigan","zipcode":"49686","slug":"lighthouse-delivery-1"},{"name":"Joyology Reading","type":"dispensary","phone":"517-901-0115","city":"Reading","state":"Michigan","zipcode":"49274","slug":"joyology"},{"name":"HOUSE OF DANK FORT ST DELIVERY","type":"delivery","phone":"833-746-7463","city":"Downriver","state":"Michigan","zipcode":"48120","slug":"house-of-dank-e0cd3922-f860-413f-993a-ef5222989905"},{"name":"Nature's Medicines District 7 (Coming Soon)","type":"dispensary","phone":"8888888888","city":"Detroit","state":"Michigan","zipcode":"48228","slug":"nature-s-medicines-district-7"},{"name":"Kai Cannabis Co","type":"dispensary","phone":"517-458-8898","city":"Adrian","state":"Michigan","zipcode":"49221","slug":"kai-cannabis-co"},{"name":"High Factory Certification Clinic","type":"doctor","phone":"248-416-3405","city":"Detroit","state":"Michigan","zipcode":"48213","slug":"high-factory"},{"name":"Gage Battle Creek","type":"dispensary","phone":"269-234-7223","city":"Battle Creek","state":"Michigan","zipcode":"49014","slug":"gage-battle-creek"},{"name":"HOUSE OF DANK YPSILANTI MED - DELIVERY","type":"delivery","phone":"833-746-7463","city":"Ypsilanti","state":"Michigan","zipcode":"48198","slug":"house-of-dank-ypsilanti-rec-delivery"},{"name":"3Fifteen Flint","type":"dispensary","phone":"(810)484-2117","city":"Flint","state":"Michigan","zipcode":"48503","slug":"flint-provisioning"},{"name":"Natural Is Best","type":"doctor","phone":"734-941-3529","city":"Romulus","state":"Michigan","zipcode":"48174","slug":"natural-is-best-2"},{"name":"Rair - Bay City (Recreational)","type":"dispensary","phone":"989-402-1484","city":"Bay City","state":"Michigan","zipcode":"48706","slug":"rair-co"},{"name":"Green Koi Provisioning Center Delivery","type":"delivery","phone":"269-206-3305","city":"Douglas","state":"Michigan","zipcode":"49406","slug":"green-koi-provisioning-center"},{"name":"Green Shore Clinic","type":"doctor","phone":"586-335-2393","city":"St. Clair Shores","state":"Michigan","zipcode":"48080","slug":"green-shore-clinic"},{"name":"Light'N Up Provisioning & Microbuddery","type":"delivery","phone":"810-391-2180","city":"Flint","state":"Michigan","zipcode":"48504","slug":"light-n-up-microbuddery"},{"name":"Michigan Supply & Provisions - Ann Arbor","type":"dispensary","phone":"(734) 794-3416","city":"Ann Arbor","state":"Michigan","zipcode":"48103","slug":"michigan-supply-provisions-078b6b02-a244-4554-89aa-eb458728a0da"},{"name":"Cloud Cannabis Ann Arbor - Medical","type":"dispensary","phone":"(734) 619-1204","city":"Ann Arbor","state":"Michigan","zipcode":"48105","slug":"cloud-cannabis-ann-arbor-medical"},{"name":"Addison Wellness Center","type":"dispensary","phone":"517-252-5490","city":"Addison","state":"Michigan","zipcode":"49220","slug":"addison-wellness-center-1"},{"name":"The Botanical Co Lansing - Recreational","type":"dispensary","phone":"517-679-1170","city":"Lansing","state":"Michigan","zipcode":"48906","slug":"botanical-co-lansing"},{"name":"Symponia Farms Inc","type":"dispensary","phone":"2698836383","city":"Battle Creek","state":"Michigan","zipcode":"49037","slug":"symponia-farms-inc"},{"name":"Sunnies Cannabis Co Delivery","type":"delivery","phone":"517-343-2070","city":"Ann Arbor","state":"Michigan","zipcode":"48109","slug":"sunnies-cannabis-co-delivery-2"},{"name":"Liberty Delivery","type":"delivery","phone":"734-773-3075","city":"Ann Arbor","state":"Michigan","zipcode":"48104","slug":"liberty-ann-arbor"},{"name":"Compassionate Care by Design","type":"dispensary","phone":"(269) 222-4133","city":"Watervliet","state":"Michigan","zipcode":"49098","slug":"compassionate-care-by-design-1"},{"name":"Arbors Wellness Recreational","type":"dispensary","phone":"734-929-2602","city":"Ann Arbor","state":"Michigan","zipcode":"48104","slug":"arbors-wellness"},{"name":"Skymint Hazel Park","type":"dispensary","phone":"3133795369","city":"Hazel Park","state":"Michigan","zipcode":"48030","slug":"skymint-hazel-park"},{"name":"The Fire Station Wellness Center","type":"dispensary","phone":"810-835-4400","city":"MT Morris","state":"Michigan","zipcode":"48458","slug":"the-fire-station-wellness-center"},{"name":"HOUSE OF DANK YPSILANTI MED","type":"dispensary","phone":"734 484-1990","city":"Ypsilanti","state":"Michigan","zipcode":"48198","slug":"cannacure"},{"name":"Shango Lapeer - Medical","type":"dispensary","phone":"810-969-4488","city":"Lapeer","state":"Michigan","zipcode":"48446","slug":"shango-lapeer"},{"name":"HOUSE OF DANK FORT ST DELIVERY","type":"delivery","phone":"833-746-7463","city":"Detroit","state":"Michigan","zipcode":"48219","slug":"house-of-dank-990e60d9-0bed-40d3-94d5-5db08d27a049"},{"name":"Pleasantrees - Recreational","type":"dispensary","phone":"517-237-3050","city":"East Lansing","state":"Michigan","zipcode":"48823","slug":"pleasantrees"},{"name":"Allen Park Certifications","type":"doctor","phone":"3138413310","city":"Allen Park","state":"Michigan","zipcode":"48101","slug":"allen-park-certifications-1"},{"name":"GAGE Lansing","type":"dispensary","phone":"517-489-3350","city":"Lansing","state":"Michigan","zipcode":"48910","slug":"gage-lansing"},{"name":"HOUSE OF DANK CENTER LINE REC - DELIVERY","type":"delivery","phone":"586-459-5683","city":"Oakland County","state":"Michigan","zipcode":"48363","slug":"house-of-dank-center-line-rec-delivery-1"},{"name":"The Botanical Co Lansing - Medical","type":"dispensary","phone":"517-679-1170","city":"Lansing","state":"Michigan","zipcode":"48906","slug":"the-botanical-co-lansing-medical"},{"name":"Exclusive Kalamazoo","type":"dispensary","phone":"(269)-447-1779","city":"Kalamazoo","state":"Michigan","zipcode":"49048","slug":"exclusive-kalamazoo"},{"name":"Michigan Organic Consulting and Certifications","type":"doctor","phone":"989-778-3131","city":"Bay City","state":"Michigan","zipcode":"48708","slug":"michigan-organic-consulting-and-certifications-1"},{"name":"HOUSE OF DANK TRAVERSE CITY","type":"dispensary","phone":"231-421-1417","city":"Traverse City","state":"Michigan","zipcode":"49686","slug":"hod-traverse-city"},{"name":"Lume Cannabis Co. Delivery","type":"delivery","phone":"(947) 214-2700","city":"Walled Lake","state":"Michigan","zipcode":"48390","slug":"lume-cannabis-co-delivery-1"},{"name":"Healing Leaf Wellness Center","type":"doctor","phone":"810-969-4710","city":"Lapeer","state":"Michigan","zipcode":"48446","slug":"healing-leaf-medical-center"},{"name":"The Refinery","type":"dispensary","phone":"269-203-2564","city":"Kalamazoo","state":"Michigan","zipcode":"49001","slug":"the-refinery"},{"name":"NOBO","type":"dispensary","phone":"231-383-8100","city":"Muskegon","state":"Michigan","zipcode":"49442","slug":"nobo-muskegon"},{"name":"Evergreen Wellness Group","type":"dispensary","phone":"(313) 766-5138","city":"Detroit","state":"Michigan","zipcode":"48219","slug":"amplified-alternative-relief"},{"name":"Green Cross","type":"dispensary","phone":"888-420-2790","city":"Detroit","state":"Michigan","zipcode":"48239","slug":"green-cross-3-5"},{"name":"Common Citizen Hazel Park","type":"dispensary","phone":"248-776-0100","city":"Hazel Park","state":"Michigan","zipcode":"48030","slug":"common-citizen-hazel-park-1"},{"name":"Lake Effect Recreational","type":"dispensary","phone":"269-459-8488","city":"Portage","state":"Michigan","zipcode":"49002","slug":"lake-effect-1"},{"name":"Dank on Arrival (D.O.A) Recreational Provisioning Center (Online Ordering for Curbside Pickup)","type":"dispensary","phone":"989-778-1461","city":"Bangor Township","state":"Michigan","zipcode":"48706","slug":"d-o-a-dank-on-arrival"},{"name":"Elite Wellness - Jackson (Recreational)","type":"dispensary","phone":"517-395-4728","city":"Jackson","state":"Michigan","zipcode":"49201","slug":"elite-wellness-jackson-medical"},{"name":"Five & Dime Delivery","type":"delivery","phone":"313-733-6006","city":"Detroit","state":"Michigan","zipcode":"48234","slug":"five-dime-delivery"},{"name":"Oz Cannabis Ann Arbor - Recreational Delivery","type":"delivery","phone":"734-328-1155","city":"Ann Arbor","state":"Michigan","zipcode":"48103","slug":"oz-cannabis-delivery-ann-arbor"},{"name":"Herbana","type":"dispensary","phone":"(734) 212-1040","city":"Ann Arbor","state":"Michigan","zipcode":"48104","slug":"herbana-1"},{"name":"Cannabis Lupus Cafe - Recreational","type":"dispensary","phone":"9062730095","city":"Marquette","state":"Michigan","zipcode":"49855","slug":"cannabis-lupus-cafe"},{"name":"Healthy Partners","type":"doctor","phone":"800-644-5019","city":"Grand Rapids","state":"Michigan","zipcode":"49507","slug":"healthy-partners"},{"name":"3Fifteen 8 Mile & Gratiot","type":"dispensary","phone":"(313) 466-3366","city":"Detroit","state":"Michigan","zipcode":"48205","slug":"healing-tree-wellness-center"},{"name":"HOUSE OF DANK 8 MILE DELIVERY","type":"delivery","phone":"833-746-7463","city":"Detroit","state":"Michigan","zipcode":"48126","slug":"house-of-dank-fort-st"},{"name":"Green Buddha Cannabis Co- Medical","type":"dispensary","phone":"248-955-1500","city":"Ferndale","state":"Michigan","zipcode":"48220","slug":"green-buddha-cannabis-co"},{"name":"Elevation Wellness","type":"doctor","phone":"734-879-0970","city":"Ypsilanti","state":"Michigan","zipcode":"48197","slug":"the-elevation-station"},{"name":"Herbology - Battle Creek","type":"dispensary","phone":"269-841-5025","city":"Battle Creek","state":"Michigan","zipcode":"49014","slug":"herbology-battle-creek"},{"name":"Elite Wellness - Mt Morris Medical","type":"dispensary","phone":"810-687-8888","city":"Mt Morris","state":"Michigan","zipcode":"48458","slug":"elite-wellness"},{"name":"Vibe Inkster","type":"dispensary","phone":"3134203027","city":"Inkster","state":"Michigan","zipcode":"48141","slug":"vibe-consulting-llc"},{"name":"GAGE Adrian","type":"dispensary","phone":"517-366-2527","city":"Adrian","state":"Michigan","zipcode":"49221","slug":"gage-usa"},{"name":"THC Detroit","type":"dispensary","phone":"3132667738","city":"Detroit","state":"Michigan","zipcode":"48228","slug":"advanced-wellness-downtown"},{"name":"High Level Health - East Tawas","type":"dispensary","phone":"(989) 984-5113","city":"East Tawas","state":"Michigan","zipcode":"48730","slug":"high-level-health-4"},{"name":"High Level Health - Vassar","type":"dispensary","phone":"989-882-9101","city":"Vassar","state":"Michigan","zipcode":"48768","slug":"high-level-health-7"},{"name":"Dank on Arrival (D.O.A) Medical Provisioning (Online Ordering for Curbside Pickup)","type":"dispensary","phone":"989-778-1461","city":"Bangor Township","state":"Michigan","zipcode":"48706","slug":"dank-on-arrival-d-o-a"},{"name":"Oz Cannabis Bay City - Recreational","type":"dispensary","phone":"989-671-9999","city":"Bay City","state":"Michigan","zipcode":"48706","slug":"oz-cannabis-bay-city"},{"name":"Pincanna","type":"dispensary","phone":"231-384-6220","city":"Kalkaska","state":"Michigan","zipcode":"49646","slug":"pincanna"},{"name":"Green Cross Partners - Medical Marijuana Doctor Clinic","type":"doctor","phone":"616-755-8966","city":"Grand Rapids","state":"Michigan","zipcode":"49546","slug":"green-cross-partners-medical-marijuana-doctor-clinic"},{"name":"HOUSE OF DANK FORT ST","type":"dispensary","phone":"833-746-7463","city":"Detroit","state":"Michigan","zipcode":"48217","slug":"house-of-dank-fort-st"},{"name":"1st Quality Medz","type":"dispensary","phone":"(313) 406-4688","city":"River Rouge","state":"Michigan","zipcode":"48218","slug":"1st-quality-medz"},{"name":"Pinnacle Emporium Delivery","type":"delivery","phone":"517-252-5547","city":"Addison","state":"Michigan","zipcode":"49220","slug":"pinnacle-emporium-delivery"},{"name":"THE REEF Delivery","type":"delivery","phone":"313-992-4202","city":"Fraser","state":"Michigan","zipcode":"48026","slug":"the-reef-delivery-1"},{"name":"Sunnies Cannabis Co Delivery","type":"delivery","phone":"517-343-2070","city":"Kalamazoo","state":"Michigan","zipcode":"49007","slug":"sunnies-cannabis-co-delivery-4"},{"name":"3Fifteen Grand Rapids- Plainfield Delivery","type":"delivery","phone":"833-315-3155","city":"Grand Rapids","state":"Michigan","zipcode":"49501","slug":"3fifteen-plainfield"},{"name":"Higher Love - Marquette","type":"dispensary","phone":"9062267285","city":"Marquette","state":"Michigan","zipcode":"49855-5238","slug":"higher-love-corporation"},{"name":"Pied Pfeifer Certification Center","type":"doctor","phone":"734-929-4230","city":"Ann Arbor","state":"Michigan","zipcode":"48108","slug":"gateways-certification-center"},{"name":"Joyology Quincy","type":"dispensary","phone":"517-639-1260","city":"Quincy","state":"Michigan","zipcode":"49082","slug":"joyology-quincy"},{"name":"JARS Owosso","type":"dispensary","phone":"989-494-5155","city":"Owosso","state":"Michigan","zipcode":"48867","slug":"jars-owosso"},{"name":"Hyde Cannabis","type":"dispensary","phone":"3133054999","city":"Detroit","state":"Michigan","zipcode":"48234","slug":"hyde-cannabis"},{"name":"Breaking Bud","type":"dispensary","phone":"(269) 224-6146","city":"Battle Creek","state":"Michigan","zipcode":"49017","slug":"pure-x"},{"name":"Dr A's Releaf Center","type":"dispensary","phone":"269-414-4661","city":"EDWARDSBURG","state":"Michigan","zipcode":"49112","slug":"dr-a-s-releaf-center"},{"name":"King of Budz","type":"dispensary","phone":"313-571-3558","city":"Detroit","state":"Michigan","zipcode":"48213","slug":"king-of-budz"},{"name":"Cloud Cannabis Utica OPEN NOW","type":"dispensary","phone":"(586) 788-7501","city":"Utica","state":"Michigan","zipcode":"48317","slug":"cloud-cannabis-utica-rec"},{"name":"Lapeer - Pure Lapeer Delivery (MED)","type":"delivery","phone":"810-660-8403","city":"Macomb","state":"Michigan","zipcode":"48044","slug":"pure-lapeer-delivery-6"},{"name":"Skymint Lansing – Saginaw St. (Recreational)","type":"dispensary","phone":"8103790090","city":"Lansing,","state":"Michigan","zipcode":"48906","slug":"skymint-lansing-1"},{"name":"Premier Provisioning Delivery","type":"delivery","phone":"989-882-9006","city":"Huron County","state":"Michigan","zipcode":"48413","slug":"premier-provisioning-delivery-1"},{"name":"The River Provisioning Delivery","type":"delivery","phone":"989-323-2222","city":"Saginaw","state":"Michigan","zipcode":"48602","slug":"the-river-provisioning-delivery-2"},{"name":"Northern Roots - Delivery","type":"delivery","phone":"989-569-3828","city":"Oscoda","state":"Michigan","zipcode":"48750","slug":"northern-roots-delivery"},{"name":"Elite Wellness Recreational Delivery","type":"delivery","phone":"810-687-8888","city":"Freeland","state":"Michigan","zipcode":"48623","slug":"elite-wellness-bay-city-delivery"},{"name":"New Standard - Grand Haven","type":"dispensary","phone":"616-422-4420","city":"Grand Haven","state":"Michigan","zipcode":"49417","slug":"new-standard-grand-haven"},{"name":"Skymint – Nunica (Recreational)","type":"dispensary","phone":"616-512-3280","city":"Nunica","state":"Michigan","zipcode":"49448","slug":"skymint-nunica"},{"name":"Lume Cannabis Co. Negaunee","type":"dispensary","phone":"(906) 242-4970","city":"Negaunee","state":"Michigan","zipcode":"49866","slug":"lume-cannabis-co-1"},{"name":"The Hempire Collective","type":"dispensary","phone":"9894246665","city":"Clare","state":"Michigan","zipcode":"48617","slug":"the-hempire-collective-2"},{"name":"Northern Roots - Delivery","type":"delivery","phone":"989-569-3828","city":"Alpena","state":"Michigan","zipcode":"49707","slug":"northern-roots-delivery-1"},{"name":"Redbud Roots Kalamazoo Provisioning Center - Now Open!","type":"dispensary","phone":"269-459-6315","city":"Kalamazoo","state":"Michigan","zipcode":"49001","slug":"redbud-roots-kalamazoo-provisioning-center"},{"name":"Oz Cannabis Ypsilanti - Recreational","type":"dispensary","phone":"(734) 328-1155","city":"Ypsilanti","state":"Michigan","zipcode":"48197","slug":"oz-cannabis-ypsilanti-1"},{"name":"Greenpath Holistic Medicine","type":"doctor","phone":"(248) 607-9535","city":"Carsonville","state":"Michigan","zipcode":"48419","slug":"greenpath-holistic-medicine-14619895-0074-4e9d-b829-796e61fca1e5"},{"name":"Planet 313 Cannabis Co","type":"dispensary","phone":"3137665390","city":"Detroit","state":"Michigan","zipcode":"48219","slug":"apollo-cannabis-co"},{"name":"Leaf and Bud","type":"dispensary","phone":"833-532-3283","city":"Detroit","state":"Michigan","zipcode":"48238","slug":"leaf-and-bud"},{"name":"Lume Cannabis Co. Owosso","type":"dispensary","phone":"(989) 494-4527","city":"Owosso","state":"Michigan","zipcode":"48867","slug":"lume-owosso"},{"name":"Entourage Effect CBD","type":"store","phone":"616-325-8061","city":"Grand Rapids","state":"Michigan","zipcode":"49525","slug":"entourage-effect-cbd"},{"name":"Shango Bay City - Medical","type":"dispensary","phone":"989-778-1114","city":"Bay City","state":"Michigan","zipcode":"48706","slug":"shango-bay-city-medical"},{"name":"Joyology Center Line","type":"dispensary","phone":"586-838-1010","city":"Center Line","state":"Michigan","zipcode":"48015","slug":"joyology-center-line"},{"name":"Pinnacle Emporium - Addison","type":"dispensary","phone":"517-252-5547","city":"Addison","state":"Michigan","zipcode":"49220","slug":"pinnacle-emporium-addison"},{"name":"PUFF Delivery (Rec\/Med)","type":"delivery","phone":"(989)778-1144","city":"Bay City","state":"Michigan","zipcode":"48706","slug":"puff-delivery-1"},{"name":"7ENGINES Dispensary (NOW OPEN!)","type":"dispensary","phone":"269-695-2122","city":"Buchanan","state":"Michigan","zipcode":"49107","slug":"7engines-dispensary"},{"name":"3Fifteen Delivery Flint","type":"delivery","phone":"833-315-3155","city":"Flint","state":"Michigan","zipcode":"48503","slug":"3fifteen-delivery-flint"},{"name":"Lumberjacks Provisioning Center","type":"dispensary","phone":"269-721-8708","city":"Dowling","state":"Michigan","zipcode":"49050","slug":"lumberjacks-provisioning-center"},{"name":"Oz Cannabis Bay City - Medical","type":"dispensary","phone":"989-671-9999","city":"Bay City","state":"Michigan","zipcode":"48706","slug":"oz-cannabis-bay-city-medical"},{"name":"Fire Creek Bay City - Medical & Recreational","type":"dispensary","phone":"989-439-1311","city":"Bay City","state":"Michigan","zipcode":"48706","slug":"fire-creek-bay-city"},{"name":"Apothecare Delivery","type":"delivery","phone":"734-800-2007","city":"Ann Arbor","state":"Michigan","zipcode":"48105","slug":"apothecare-delivery"},{"name":"THE REEF Delivery","type":"delivery","phone":"313-992-4202","city":"Pleasant Ridge","state":"Michigan","zipcode":"48069","slug":"the-reef-delivery-2"},{"name":"3Fifteen 8 Mile and Hoover Delivery","type":"delivery","phone":"833-315-3155","city":"Warren","state":"Michigan","zipcode":"48089","slug":"3fifteen-east-delivery"},{"name":"Chronic City","type":"dispensary","phone":"3137334031","city":"Detroit","state":"Michigan","zipcode":"48212","slug":"chronic-city"},{"name":"Lume Cannabis Co Sault Ste Marie","type":"dispensary","phone":"(906) 275-4302","city":"Sault Ste Marie","state":"Michigan","zipcode":"49783","slug":"lume-cannabis-co-sault-ste-marie"},{"name":"Sticky Bush Farms","type":"dispensary","phone":"231-363-0186","city":"Onaway","state":"Michigan","zipcode":"49765","slug":"sticky-bush-farms-1"},{"name":"Dunegrass Co. - Big Rapids","type":"dispensary","phone":"2316298069","city":"Big Rapids","state":"Michigan","zipcode":"49307","slug":"dune-grass-big-rapids"},{"name":"The Cured Leaf Delivery","type":"delivery","phone":"231-943-1403","city":"Traverse City","state":"Michigan","zipcode":"49684","slug":"the-cured-leaf-delivery"},{"name":"Cookies Kalamazoo","type":"dispensary","phone":"269-359-0420","city":"Kalamazoo","state":"Michigan","zipcode":"49001","slug":"cookies-kalamazoo"},{"name":"Lume Cannabis Co. Mackinaw City","type":"dispensary","phone":"(231) 268-0590","city":"Mackinaw City","state":"Michigan","zipcode":"49701","slug":"lume-cannabis-co-mackinaw-city-1"},{"name":"Huron View Dispensary","type":"dispensary","phone":"734-882-2970","city":"Ann Arbor","state":"Michigan","zipcode":"48108","slug":"the-huron-view-center"},{"name":"Green Buddha Cannabis Co- Recreational","type":"dispensary","phone":"248-955-1500","city":"Ferndale","state":"Michigan","zipcode":"48220","slug":"green-buddha-cannabis-co-adult-use"},{"name":"NOBO","type":"dispensary","phone":"269-635-6621","city":"Edwardsburg","state":"Michigan","zipcode":"49112","slug":"nobo"},{"name":"Apothecare Delivery","type":"delivery","phone":"734-800-2007","city":"Ypsilanti","state":"Michigan","zipcode":"48197","slug":"apothecare-delivery-1"},{"name":"Om of Medicine (Recreational Delivery)","type":"delivery","phone":"734-369-8255","city":"Ann Arbor","state":"Michigan","zipcode":"48104","slug":"om-of-medicine"},{"name":"MOS Certifications","type":"doctor","phone":"(810) 820-8953","city":"Flint","state":"Michigan","zipcode":"48507","slug":"mos-certifications-1"},{"name":"Green Galaxy Meds","type":"dispensary","phone":"810-407-7472","city":"Flint","state":"Michigan","zipcode":"48506","slug":"gb-meds-the-green-bean"},{"name":"Joyology MED by Holistic Health Wayne","type":"delivery","phone":"734-725-5343","city":"Wayne","state":"Michigan","zipcode":"48184","slug":"holistic-health-wayne"},{"name":"GreenCare Recreational","type":"dispensary","phone":"(313) 406-5617","city":"River Rouge","state":"Michigan","zipcode":"48218","slug":"greencare-medical"},{"name":"The Green Door","type":"dispensary","phone":"(269) 427-1435","city":"Bangor","state":"Michigan","zipcode":"49013","slug":"the-green-door-8"},{"name":"One On One Rehab","type":"doctor","phone":"2489683844","city":"Eastpointe","state":"Michigan","zipcode":"48021","slug":"one-on-one-rehab"},{"name":"Lume Cannabis Co. Walled Lake","type":"dispensary","phone":"(947) 214-2700","city":"Walled Lake","state":"Michigan","zipcode":"48390","slug":"lume-cannabis-co-walled-lake"},{"name":"URB Cannabis","type":"dispensary","phone":"989-882-9009","city":"Vassar","state":"Michigan","zipcode":"48768","slug":"urb-cannabis"},{"name":"Spark Cannabis Co","type":"dispensary","phone":"989-286-3676","city":"Caro","state":"Michigan","zipcode":"48723","slug":"spark-cannabis-co"},{"name":"The Station Provisioning Center Medical (Online Ordering for Curbside Pickup)","type":"dispensary","phone":"989-882-9298","city":"Vassar","state":"Michigan","zipcode":"48768","slug":"the-station"},{"name":"3Fifteen 8 Mile & Gratiot","type":"delivery","phone":"(313) 466-3366","city":"Detroit","state":"Michigan","zipcode":"48205","slug":"3fifteen-8-mile-gratiot"},{"name":"New Standard - Exit 9","type":"dispensary","phone":"616-384-3161","city":"Nunica","state":"Michigan","zipcode":"49448","slug":"exit-9-provisionary"},{"name":"Common Citizen","type":"dispensary","phone":"(313) 228-0250","city":"Detroit","state":"Michigan","zipcode":"48215","slug":"common-citizen-3"},{"name":"The Patient Station - Recreational","type":"dispensary","phone":"(734) 544-9999","city":"Ypsilanti","state":"Michigan","zipcode":"48197","slug":"the-patient-station-recreational"},{"name":"Stash Detroit","type":"delivery","phone":"313-551-5751","city":"detroit","state":"Michigan","zipcode":"48217","slug":"sticky-detroit-delivery"},{"name":"High Profile Buchanan- Recreational","type":"dispensary","phone":"269-409-8427","city":"Buchanan","state":"Michigan","zipcode":"49107","slug":"high-profile-buchanan"},{"name":"Remedii Stateline Recreational Provisioning Center (Online Ordering for Curbside Pickup)","type":"dispensary","phone":"(517) 458-3800","city":"Morenci","state":"Michigan","zipcode":"49256","slug":"state-line-wellness"},{"name":"3Fifteen Michigan Ave - Recreational","type":"dispensary","phone":"(269) 719-2360","city":"Battle Creek","state":"Michigan","zipcode":"49037","slug":"3fifteen-battle-creek-michigan-and-bedford-recreational"},{"name":"Nirvana Center - Bay City","type":"dispensary","phone":"3135555555","city":"Bay City","state":"Michigan","zipcode":"48706","slug":"nirvana-center-1"},{"name":"Exclusive Kalamazoo Delivery - Recreational","type":"delivery","phone":"(269)-447-1779","city":"Kalamazoo","state":"Michigan","zipcode":"49048","slug":"kalamazoo"},{"name":"Michigan Medical Marijuana Certification Center","type":"doctor","phone":"(989) 705-9991","city":"Gaylord","state":"Michigan","zipcode":"49735","slug":"mmmcc-gaylord"},{"name":"Dr. Robert Townsend","type":"doctor","phone":"(231) 468-2945","city":"Cadillac","state":"Michigan","zipcode":"49601","slug":"cadillac-area-compassion-center"},{"name":"Teebz of Adrian (Medical)","type":"dispensary","phone":"517-759-4592","city":"Adrian","state":"Michigan","zipcode":"49221","slug":"teebz-llc-1"},{"name":"Sticky Battle Creek (MED)","type":"dispensary","phone":"269-339-3057","city":"Battle Creek","state":"Michigan","zipcode":"49017","slug":"sticky-battle-creek-1"},{"name":"Liberty Ann Arbor - Recreational","type":"dispensary","phone":"734-773-3075","city":"Ann Arbor","state":"Michigan","zipcode":"48104","slug":"liberty-ann-arbor"},{"name":"Nature's Medicines Bay City (Medical)","type":"dispensary","phone":"989-301-9718","city":"Bay City","state":"Michigan","zipcode":"48706","slug":"nature-s-medicines-bay-city"},{"name":"URB Cannabis - Delivery","type":"delivery","phone":"989-882-9009","city":"Vassar","state":"Michigan","zipcode":"48768","slug":"urb-cannabis"},{"name":"LIV Delivery-Recreational","type":"delivery","phone":"(248) 420-4200","city":"Macomb County","state":"Michigan","zipcode":"48310","slug":"liv-delivery-4"},{"name":"Green Buddha Cannabis Co Rec Delivery","type":"delivery","phone":"248-955-1500","city":"Macomb County","state":"Michigan","zipcode":"48042","slug":"green-buddha-cannabis-co-medical-delivery-1"},{"name":"Cannaisseur Recreational","type":"dispensary","phone":"517-580-7602","city":"Lansing","state":"Michigan","zipcode":"48906","slug":"cannaisseur-recreational"},{"name":"3Fifteen Grand Rapids Division - Recreational","type":"delivery","phone":"6162598542","city":"48002","state":"Michigan","zipcode":"48002","slug":"3fifteen-grand-rapids-division"},{"name":"Elite Wellness Medical Delivery","type":"delivery","phone":"989-439-1711","city":"Saginaw","state":"Michigan","zipcode":"48603","slug":"elite-wellness-bay-city"},{"name":"PUFF-Medical","type":"dispensary","phone":"989-778-1144","city":"Bay City","state":"Michigan","zipcode":"48706","slug":"j-elias-management"},{"name":"Natures Holiday","type":"dispensary","phone":"989-402-1519","city":"Bay City","state":"Michigan","zipcode":"48706","slug":"natures-holiday"},{"name":"GreenCare Medical","type":"dispensary","phone":"(313) 406-5617","city":"River Rouge","state":"Michigan","zipcode":"48218","slug":"green-care-2-2"},{"name":"3Fifteen 8 Mile & Lahser","type":"dispensary","phone":"313-977-9911","city":"Detroit","state":"Michigan","zipcode":"48219","slug":"far-west"},{"name":"LIV- Medical Delivery","type":"delivery","phone":"(248)326-2100","city":"West Detroit","state":"Michigan","zipcode":"48067","slug":"liv-delivery-1"},{"name":"The Pier Provisioning Center (Recreational)","type":"dispensary","phone":"810-660-7908","city":"Lapeer","state":"Michigan","zipcode":"48446","slug":"the-pier-provisioning-center-1"},{"name":"Meds Cafe Delivery","type":"delivery","phone":"616-260-3098","city":"Lowell","state":"Michigan","zipcode":"49331","slug":"meds-cafe-delivery"},{"name":"Lake & Leaf","type":"dispensary","phone":"231-882-6310","city":"Benzonia","state":"Michigan","zipcode":"49616","slug":"lake-leaf"},{"name":"KKIND - Big Rapids","type":"dispensary","phone":"2314606111","city":"Big Rapids","state":"Michigan","zipcode":"49307","slug":"kkind-big-rapids"},{"name":"3Fifteen Grand Rapids Division","type":"dispensary","phone":"6162598542","city":"Grand Rapids","state":"Michigan","zipcode":"49503","slug":"3fifteen-grand-rapids"},{"name":"Cloud Cannabis Muskegon - Medical","type":"dispensary","phone":"231-737-4161","city":"muskegon","state":"Michigan","zipcode":"49445","slug":"cloud-cannabis-1"},{"name":"HOUSE OF DANK TRAVERSE CITY - DELIVERY","type":"delivery","phone":"833-746-7463","city":"Traverse City","state":"Michigan","zipcode":"49686","slug":"house-of-dank-traverse-city-delivery"},{"name":"Five & Dime","type":"dispensary","phone":"3137336006","city":"Detroit","state":"Michigan","zipcode":"48234","slug":"fiveanddimedetroit"},{"name":"First Class Cannabis Company","type":"dispensary","phone":"517-993-6490","city":"Lansing","state":"Michigan","zipcode":"48912","slug":"first-class-canabis-company"},{"name":"Strongest Medz","type":"delivery","phone":"586-801-9828","city":"Monroe","state":"Michigan","zipcode":"48161","slug":"strongest-medz-3"},{"name":"Agronomos","type":"dispensary","phone":"313-516-9651","city":"Detroit","state":"Michigan","zipcode":"48216","slug":"agronomos"},{"name":"Pinnacle Emporium - Buchanan","type":"dispensary","phone":"269-409-8571","city":"Buchanan","state":"Michigan","zipcode":"49107","slug":"pinnacle-emporium-2"},{"name":"EZ MEDZ Delivery","type":"delivery","phone":"(855) 439-6339","city":"Casco","state":"Michigan","zipcode":"48064","slug":"ez-medz-delivery-2"},{"name":"Hashish Boyz","type":"delivery","phone":"9894391972","city":"Bay City","state":"Michigan","zipcode":"48706","slug":"hashish-boyz"},{"name":"The Green Door - Baldwin","type":"dispensary","phone":"(231) 745-3667","city":"Baldwin","state":"Michigan","zipcode":"49304","slug":"the-green-door-7"},{"name":"Green Pharm Traverse City","type":"dispensary","phone":"231-252-8416","city":"Traverse City","state":"Michigan","zipcode":"49686","slug":"green-pharm-tc"},{"name":"LIGHTHOUSE","type":"dispensary","phone":"231-252-4000","city":"Traverse City","state":"Michigan","zipcode":"49686","slug":"the-lighthouse"},{"name":"Lume Cannabis Co. Honor","type":"dispensary","phone":"(231) 383-6771","city":"Honor","state":"Michigan","zipcode":"49617","slug":"lume-cannabis-co-honor"},{"name":"Burton Cannabis Company","type":"dispensary","phone":"8107159584","city":"Burton","state":"Michigan","zipcode":"48529","slug":"burton-cannabis-company"},{"name":"Oz Cannabis Adrian - Recreational Delivery","type":"delivery","phone":"734-328-1155","city":"Adrian","state":"Michigan","zipcode":"49221","slug":"oz-cannabis-delivery-adrian"},{"name":"Shango Lapeer - Recreational","type":"dispensary","phone":"810-969-4488","city":"Lapeer","state":"Michigan","zipcode":"48446","slug":"shango-lapeer-recreational"},{"name":"Michigan Marijuana Institute","type":"doctor","phone":"313-757-5427","city":"Detroit","state":"Michigan","zipcode":"48221","slug":"michigan-marijuana-institute"},{"name":"LIV - Medical","type":"dispensary","phone":"(248)420-4200","city":"West Detroit","state":"Michigan","zipcode":"48220","slug":"liv-ferndale"},{"name":"Pure Lapeer Delivery (MED)","type":"delivery","phone":"810-660-8403","city":"Lapeer","state":"Michigan","zipcode":"48446","slug":"pure-lapeer-delivery"},{"name":"Lake Effect Medical","type":"dispensary","phone":"269-459-8488","city":"Portage","state":"Michigan","zipcode":"49002","slug":"lake-effect"},{"name":"HOUSE OF DANK GRATIOT - MACOMB DELIVERY","type":"delivery","phone":"833-746-7463","city":"Macomb","state":"Michigan","zipcode":"48042","slug":"hod-gratiot-delivery-1"},{"name":"Golden Greens Provisioning Center","type":"dispensary","phone":"269-539-9000","city":"Lawrence","state":"Michigan","zipcode":"49079","slug":"golden-greens-provisioning-center"},{"name":"Highwire Farms LLC","type":"dispensary","phone":"517-292-4420","city":"Adrian","state":"Michigan","zipcode":"49221","slug":"highwire-farms-llc"},{"name":"Pinnacle Emporium - Morenci","type":"dispensary","phone":"517-458-3040","city":"Morenci","state":"Michigan","zipcode":"49256","slug":"pinnacle-emporium"},{"name":"Michigan Holistic Health of Niles","type":"doctor","phone":"855-420-8100","city":"Niles","state":"Michigan","zipcode":"49120","slug":"michigan-holistic-health-of-niles"},{"name":"Meds Cafe","type":"dispensary","phone":"(989) 734-3114","city":"Rogers City","state":"Michigan","zipcode":"49779","slug":"meds-cafe"},{"name":"LIV- Recreational","type":"dispensary","phone":"(248)420-4200","city":"Ferndale","state":"Michigan","zipcode":"48220","slug":"liv-1"},{"name":"Lapeer - Pure Lapeer Provisioning Center (MED)","type":"dispensary","phone":"810-660-8403","city":"Lapeer","state":"Michigan","zipcode":"48446","slug":"pure-lapeer"},{"name":"Amazing Budz Delivery- Recreational","type":"delivery","phone":"517-759-4012","city":"Adrian","state":"Michigan","zipcode":"49221","slug":"amazing-budz-delivery-recreational"},{"name":"Dort Hwy Disp Delivery","type":"delivery","phone":"810-337-1420","city":"Flint","state":"Michigan","zipcode":"48501","slug":"dort-hwy-disp"},{"name":"Remedii Bay City Medical Provisioning Center (Online Ordering for Curbside Pickup)","type":"dispensary","phone":"989-778-1348","city":"Bay City","state":"Michigan","zipcode":"48706","slug":"roots-provisioning-center"},{"name":"Oz Cannabis Bay City - Recreational Delivery","type":"delivery","phone":"989-671-9999","city":"Bay City","state":"Michigan","zipcode":"48706","slug":"house-of-fire-recreational"},{"name":"Green Door","type":"dispensary","phone":"313-254-9468","city":"Detroit","state":"Michigan","zipcode":"48210","slug":"green-door-alternative"},{"name":"Helping Hand","type":"dispensary","phone":"313-733-6693","city":"Detroit","state":"Michigan","zipcode":"48234","slug":"helping-hand-detroit"},{"name":"The Patient Station Delivery","type":"delivery","phone":"(734) 544-9999","city":"Canton","state":"Michigan","zipcode":"48187","slug":"the-patient-station-delivery"},{"name":"3Fifteen 8 Mile & Lahser Delivery","type":"delivery","phone":"833-315-3155","city":"Detroit","state":"Michigan","zipcode":"48219","slug":"3fifteen-detroit-8-mile-and-lahser-delivery"},{"name":"Highwire Farms Delivery","type":"delivery","phone":"517-292-4420","city":"Adrian","state":"Michigan","zipcode":"49221","slug":"highwire-farms-delivery"},{"name":"Fresh Water Cannabis Co - REC","type":"dispensary","phone":"906-259-0028","city":"Sault Ste. Marie","state":"Michigan","zipcode":"49783","slug":"fresh-water-cannabis-co"},{"name":"Green Pharm Bay City Medical","type":"dispensary","phone":"(989) 316-2833","city":"Bay City","state":"Michigan","zipcode":"48706","slug":"medical-woods-provisioning-center"},{"name":"CannaBay","type":"dispensary","phone":"989-402-9011","city":"Bay City","state":"Michigan","zipcode":"48708","slug":"cannabay"},{"name":"Xplore Cannabis Co (MED)","type":"dispensary","phone":"810-969-4141","city":"Lapeer","state":"Michigan","zipcode":"48446","slug":"xplore-cannabis-co"},{"name":"High Profile – Grant (REC)","type":"dispensary","phone":"231-282-7170","city":"Grant","state":"Michigan","zipcode":"49327","slug":"high-profile-grant"},{"name":"Cloud Cannabis Muskegon","type":"dispensary","phone":"231-737-4161","city":"Muskegon","state":"Michigan","zipcode":"49445","slug":"cloud-cannabis"},{"name":"LIV Delivery- Recreational","type":"delivery","phone":"(248)420-4200","city":"Oakland County","state":"Michigan","zipcode":"48322","slug":"liv-delivery-recreational"},{"name":"Amazing Budz","type":"dispensary","phone":"517-759-4012","city":"Adrian","state":"Michigan","zipcode":"49221","slug":"amazing-budz"},{"name":"Sunnies Cannabis Co Delivery","type":"delivery","phone":"517-343-2070","city":"Albion","state":"Michigan","zipcode":"49224","slug":"sunnies-cannabis-co-delivery"},{"name":"The Tree House Clinic","type":"doctor","phone":"517-278-2420","city":"Coldwater","state":"Michigan","zipcode":"49036","slug":"the-tree-house-clinic"},{"name":"HOUSE OF DANK CENTER LINE MED - DELIVERY","type":"delivery","phone":"586-459-5683","city":"East Detroit","state":"Michigan","zipcode":"48015","slug":"house-of-dank-center-line-med"},{"name":"3Fifteen Macomb County Delivery","type":"delivery","phone":"833-315-3155","city":"Macomb","state":"Michigan","zipcode":"48042","slug":"3fifteen-macomb-county-delivery"},{"name":"Thrive","type":"dispensary","phone":"517-858-9300","city":"Jackson","state":"Michigan","zipcode":"49201","slug":"thrive"},{"name":"Michigan Supply & Provisions - Battle Creek","type":"dispensary","phone":"2692342807","city":"Battle Creek","state":"Michigan","zipcode":"49014","slug":"michigan-supply-provisions-battle-creek"},{"name":"Herbal Healing Provisioning (REC)","type":"dispensary","phone":"(313) 451-8007","city":"River Rouge","state":"Michigan","zipcode":"48218","slug":"herbal-healing-provisioning-rec"},{"name":"Inhale Detroit NOW OPEN!","type":"dispensary","phone":"3134991078","city":"Detroit","state":"Michigan","zipcode":"48205","slug":"inhale-detroit"},{"name":"Exclusive Ypsilanti Medical Delivery","type":"delivery","phone":"734-494-0772","city":"Livonia","state":"Michigan","zipcode":"48150","slug":"exclusive-ann-arbor-medical-delivery"},{"name":"Elite Wellness - Jackson (Medical)","type":"dispensary","phone":"517-395-4728","city":"Jackson","state":"Michigan","zipcode":"49201","slug":"elite-wellness-jackson"},{"name":"3Fifteen Oakland County Delivery","type":"delivery","phone":"833-315-3155","city":"Bloomfield Twp","state":"Michigan","zipcode":"48301","slug":"3fifteen-oakland-county-delivery"},{"name":"Stash Detroit","type":"dispensary","phone":"313-551-5751","city":"Detroit","state":"Michigan","zipcode":"48209","slug":"sticky-detroit"},{"name":"HOUSE OF DANK 8 MILE","type":"dispensary","phone":"833-746-7463","city":"Detroit","state":"Michigan","zipcode":"48234","slug":"house-of-dank-313"},{"name":"Sunnies Cannabis Co","type":"dispensary","phone":"517-343-2070","city":"Albion","state":"Michigan","zipcode":"49224","slug":"sunnies-cannabis-co"},{"name":"Lume Cannabis Co Escanaba","type":"dispensary","phone":"906-205-4318","city":"Escanaba","state":"Michigan","zipcode":"49829","slug":"lume-cannabis-co-2"},{"name":"3Fifteen Ann Arbor","type":"dispensary","phone":"(734) 436-4017","city":"Ann Arbor","state":"Michigan","zipcode":"48104","slug":"ann-arbor-healing"},{"name":"Herbology - Ann Arbor (recreational)","type":"dispensary","phone":"734-245-9309","city":"Ann Arbor","state":"Michigan","zipcode":"48103","slug":"herbology-ann-arbor"},{"name":"Shango Bay City - Recreational","type":"dispensary","phone":"989-778-1114","city":"Bay City","state":"Michigan","zipcode":"48706","slug":"shango-bay-city"},{"name":"Elite Wellness - Bay City","type":"dispensary","phone":"989-439-1711","city":"Bay City","state":"Michigan","zipcode":"48706","slug":"elite-bay-city"},{"name":"HOUSE OF DANK 8 MILE DELIVERY MACOMB COUNTY","type":"delivery","phone":"833-746-7463","city":"Macomb County","state":"Michigan","zipcode":"48315","slug":"house-of-dank-8-mile-delivery-1"},{"name":"AMMP Medical Marijuana Certification Center","type":"doctor","phone":"810 499-1775","city":"Roseville","state":"Michigan","zipcode":"48066","slug":"ammp-medical-marijuana-certification-center"},{"name":"Consume Cannabis Harrisville","type":"dispensary","phone":"989-623-9700","city":"Harrisville","state":"Michigan","zipcode":"48740","slug":"consume-cannabis-harrisville"},{"name":"Detroit Herbal Center","type":"dispensary","phone":"(313) 397-2738","city":"Detroit","state":"Michigan","zipcode":"48238","slug":"detroit-herbal-center"},{"name":"High Level Health - Omer","type":"dispensary","phone":"989-646-2374","city":"Omer","state":"Michigan","zipcode":"48749","slug":"high-level-health-6"},{"name":"The Flower Bowl","type":"dispensary","phone":"734-895-8753","city":"Inkster","state":"Michigan","zipcode":"48141","slug":"the-flower-bowl"},{"name":"The Flower Bowl Delivery - Recreational","type":"delivery","phone":"734-895-8753","city":"Inkster","state":"Michigan","zipcode":"48141","slug":"the-flower-bowl-recreational"},{"name":"Five & Dime Detroit Delivery","type":"delivery","phone":"313-733-6006","city":"Detroit","state":"Michigan","zipcode":"48234","slug":"five-dime-detroit-delivery"},{"name":"Cloud Cannabis Ann Arbor","type":"dispensary","phone":"(734) 619-1204","city":"Ann Arbor","state":"Michigan","zipcode":"48105","slug":"cloud-cannabis-2"},{"name":"JARS East Detroit","type":"dispensary","phone":"5862986440","city":"Detroit","state":"Michigan","zipcode":"48205","slug":"district-3"},{"name":"Om of Medicine (Medical)","type":"dispensary","phone":"734-369-8255","city":"Ann Arbor","state":"Michigan","zipcode":"48104","slug":"om-of-medicine-ann-arbor"},{"name":"Sunnies Cannabis Co Delivery","type":"delivery","phone":"517-343-2070","city":"Oakland","state":"Michigan","zipcode":"48342","slug":"sunnies-cannabis-co-delivery-5"},{"name":"Common Citizen","type":"dispensary","phone":"269-719-8500","city":"Battle Creek","state":"Michigan","zipcode":"49014","slug":"common-citizen-2"},{"name":"Sunnies Cannabis Co Delivery","type":"delivery","phone":"517-343-2070","city":"Battle Creek","state":"Michigan","zipcode":"49017","slug":"sunnies-cannabis-co-delivery-1"},{"name":"The Botanical Co Tawas – Medical","type":"dispensary","phone":"989-305-6899","city":"East Tawas","state":"Michigan","zipcode":"48730","slug":"the-botanical-co"},{"name":"M.DOT Powered by Joyology","type":"delivery","phone":"586-838-1010","city":"Sterling heights","state":"Michigan","zipcode":"48310","slug":"m-dot-2"},{"name":"Michigan Supply & Provisions- Recreational Morenci","type":"dispensary","phone":"(517) 458-3002","city":"Morenci","state":"Michigan","zipcode":"49256","slug":"michigan-supply-provisions-recreational"},{"name":"Skymint Flint","type":"dispensary","phone":"810-275-1805","city":"Flint","state":"Michigan","zipcode":"48504","slug":"skymintflint"},{"name":"Dr Mark Neumann","type":"doctor","phone":"734-847-4700","city":"Temperance","state":"Michigan","zipcode":"48182","slug":"dr-mark-neumann-1"},{"name":"Riverside Provisioning","type":"dispensary","phone":"989 745-6757","city":"Grayling","state":"Michigan","zipcode":"49738","slug":"riverside-provisioning"},{"name":"Gatsby Cannabis Co","type":"dispensary","phone":"269-443-7096","city":"Portage","state":"Michigan","zipcode":"49002","slug":"gatsby-cannabis-co"},{"name":"Rair - Big Rapids (Medical)","type":"dispensary","phone":"1234567890","city":"Big Rapids","state":"Michigan","zipcode":"49307","slug":"rair-big-rapids-medical"},{"name":"The Green Mile","type":"dispensary","phone":"(313) 826-1479","city":"Detroit","state":"Michigan","zipcode":"48234","slug":"green-field-collective"},{"name":"Herbology- Kalamazoo","type":"dispensary","phone":"269-201-2955","city":"Kalamazoo","state":"Michigan","zipcode":"49048","slug":"herbology-kalamazoo-coming-soon"},{"name":"Grow Mart Medical Marijuana Certifications","type":"doctor","phone":"989-799-6330","city":"Saginaw","state":"Michigan","zipcode":"48602","slug":"grow-mart-medical-marijuana-certifications"},{"name":"Pharmhouse Wellness","type":"dispensary","phone":"(616) 551-0040","city":"Grand Rapids","state":"Michigan","zipcode":"49504","slug":"pharmhouse-wellness"},{"name":"Cannamazoo Medical","type":"dispensary","phone":"(866)226-6262","city":"Kalamazoo","state":"Michigan","zipcode":"49007","slug":"cannamazoo"},{"name":"Exclusive Kalamazoo Delivery - Medical","type":"delivery","phone":"(269)-447-1779","city":"Kalamazoo","state":"Michigan","zipcode":"49048","slug":"exclusive-kalamazoo"},{"name":"Quality Roots - Hamtramck","type":"dispensary","phone":"3132630360","city":"Hamtramck","state":"Michigan","zipcode":"48212","slug":"quality-roots-hamtramck"},{"name":"Lume Cannabis Co. Delivery","type":"delivery","phone":"2313836571","city":"Honor","state":"Michigan","zipcode":"49617","slug":"lume-cannabis-co-delivery"},{"name":"The Green Bean - GB Meds","type":"dispensary","phone":"810-232-4400","city":"Flint","state":"Michigan","zipcode":"48507","slug":"gb-meds"},{"name":"Premier Provisioning Delivery","type":"delivery","phone":"989-882-9006","city":"Flint","state":"Michigan","zipcode":"48768","slug":"premier-provisioning-delivery"},{"name":"AMC- American Medical Consultants","type":"doctor","phone":"313-465-9952","city":"Dearborn","state":"Michigan","zipcode":"48124","slug":"amc-american-medical-consultants"},{"name":"Nirvana Center Delivery","type":"delivery","phone":"5867824936","city":"Warren","state":"Michigan","zipcode":"48093","slug":"nirvana-center-2"},{"name":"Green Culture","type":"dispensary","phone":"810-742-2000","city":"Flint","state":"Michigan","zipcode":"48506","slug":"green-culture-2"},{"name":"Edgewood Wellness","type":"dispensary","phone":"(517) 580-7078","city":"Lansing","state":"Michigan","zipcode":"48911","slug":"edgewood-wellness-01"},{"name":"Oz Cannabis Ypsilanti - Med Delivery","type":"delivery","phone":"734-328-1155","city":"Ypsilanti","state":"Michigan","zipcode":"48197","slug":"oz-cannabis-ypsilanti-med-delivery"},{"name":"The Sweet Leaf","type":"dispensary","phone":"810-259-2571","city":"Flint","state":"Michigan","zipcode":"48503","slug":"the-sweet-leaf-llc"},{"name":"The Botanical Co Tawas - Adult Use","type":"dispensary","phone":"989-305-6899","city":"East Tawas","state":"Michigan","zipcode":"48730","slug":"the-botanical-co-adult-use"},{"name":"3Fifteen Columbia Ave- Recreational","type":"dispensary","phone":"(269) 589-6726","city":"Battle Creek","state":"Michigan","zipcode":"49015","slug":"3fifteen-battle-creek-columbia-recreational"},{"name":"Om of Medicine (Medical Delivery)","type":"delivery","phone":"734-369-8255","city":"Ann Arbor","state":"Michigan","zipcode":"48104","slug":"om-of-medicine-medical-delivery"},{"name":"420 Factory Delivery","type":"delivery","phone":"3138087171","city":"Dearborn","state":"Michigan","zipcode":"48124","slug":"420-factory-delivery-422"},{"name":"Med Leaf","type":"dispensary","phone":"269-308-3111","city":"Hartford","state":"Michigan","zipcode":"49057","slug":"med-leaf"},{"name":"Sozo Cheboygan","type":"dispensary","phone":"231-751-7696","city":"Cheboygan","state":"Michigan","zipcode":"49721","slug":"sozo-health"},{"name":"PUFF- Recreational","type":"dispensary","phone":"(989)778-1144","city":"Bay City","state":"Michigan","zipcode":"48706","slug":"puff-recreational"},{"name":"Olswell Cannabis Co - Delivery","type":"delivery","phone":"(616)288-9434","city":"GRAND RAPIDS","state":"Michigan","zipcode":"49508","slug":"olswell-cannabis-co-1"},{"name":"Timber Cannabis Co","type":"dispensary","phone":"231-246-8085","city":"Muskegon","state":"Michigan","zipcode":"49441","slug":"timber-cannabis-co-1"},{"name":"3Fifteen 8 Mile & Hoover","type":"dispensary","phone":"313-924-8942","city":"Detroit","state":"Michigan","zipcode":"48205","slug":"detroit-dispensing-company"},{"name":"Mood Cannabis Company - Jackson (NOW OPEN!)","type":"dispensary","phone":"517 705 6663","city":"Jackson","state":"Michigan","zipcode":"49203","slug":"mood-jackson"},{"name":"Rair Big Rapids Recreational","type":"dispensary","phone":"1234567890","city":"Big Rapids","state":"Michigan","zipcode":"49307","slug":"rair-big-rapids"},{"name":"Compassionate Care by Design","type":"dispensary","phone":"269-762-8038","city":"Kalamazoo","state":"Michigan","zipcode":"49006","slug":"compassionate-care-by-design"},{"name":"Breaking Bud Delivery","type":"delivery","phone":"(269) 224-6146","city":"Battle Creek","state":"Michigan","zipcode":"49017","slug":"breaking-bud-1"},{"name":"Information Entropy","type":"dispensary","phone":"(734) 929-4207","city":"Ann Arbor","state":"Michigan","zipcode":"48105","slug":"information-entropy"},{"name":"KAHN Cannabis","type":"dispensary","phone":"313-474-2592","city":"East Detroit","state":"Michigan","zipcode":"48211","slug":"kahn-cannabis"},{"name":"The River Provisioning Medical","type":"dispensary","phone":"989-323-2222","city":"Chesaning","state":"Michigan","zipcode":"48616","slug":"the-river-provisioning-1"},{"name":"Cross Street Services","type":"dispensary","phone":"734-961-2770","city":"Ypsilanti","state":"Michigan","zipcode":"48198","slug":"cross-street-services-1"},{"name":"Bazonzoes - Recreational","type":"dispensary","phone":"2489261518","city":"Walled Lake","state":"Michigan","zipcode":"48390","slug":"bazonzoes-6"},{"name":"Livity Rasta","type":"doctor","phone":"586-339-0754","city":"Mount Clemens","state":"Michigan","zipcode":"48043","slug":"livity-rasta"},{"name":"JARS Lansing","type":"dispensary","phone":"517-997-8223","city":"Lansing","state":"Michigan","zipcode":"48911","slug":"jars-lansing"},{"name":"Lapeer - The Pier Provisioning Center (Medical)","type":"dispensary","phone":"810-660-7908","city":"Lapeer","state":"Michigan","zipcode":"48446","slug":"the-pier-provisioning-center"},{"name":"The Patient Station","type":"dispensary","phone":"(734) 544-9999","city":"Ypsilanti","state":"Michigan","zipcode":"48197","slug":"the-patient-station-5"},{"name":"HOUSE OF DANK 8 MILE DELIVERY","type":"delivery","phone":"833-746-7463","city":"Detroit","state":"Michigan","zipcode":"48203","slug":"house-of-dank-84e09a72-e717-43d8-9027-feafc814efb1"},{"name":"Green Buddha Cannabis Co Recreational Delivery","type":"delivery","phone":"248-955-1500","city":"Ferndale","state":"Michigan","zipcode":"48220","slug":"green-buddha-cannabis-co-delivery-1"},{"name":"M.DOT Powered by Joyology","type":"delivery","phone":"586-838-1010","city":"Oakland County","state":"Michigan","zipcode":"48071","slug":"m-dot-3"},{"name":"Uncle Buds","type":"dispensary","phone":"989-564-7040","city":"Linwood","state":"Michigan","zipcode":"48634","slug":"uncle-buds"},{"name":"Fresh Water Cannabis Co - MED","type":"dispensary","phone":"906-259-0028","city":"Sault Ste. Marie","state":"Michigan","zipcode":"49783","slug":"freshwater-cannabis"},{"name":"GAGE TRAVERSE","type":"dispensary","phone":"231-668-9029","city":"Traverse City","state":"Michigan","zipcode":"49686","slug":"gage-traverse"},{"name":"Dunegrass Co. - Cadillac","type":"dispensary","phone":"2314682486","city":"Cadillac","state":"Michigan","zipcode":"49601","slug":"dunegrass-co-cadillac"},{"name":"MMJ Certifications - Medical Marijuana Card Doctor","type":"doctor","phone":"(616) 888-6420","city":"Grand Rapids","state":"Michigan","zipcode":"49505","slug":"certification-center-msd-referrals"},{"name":"Dunegrass Co. - Manistee","type":"dispensary","phone":"231-299-1066","city":"Manistee","state":"Michigan","zipcode":"49660","slug":"dunegrass-co"},{"name":"Skymint Portage","type":"dispensary","phone":"6163303076","city":"Portage","state":"Michigan","zipcode":"49024","slug":"skymint"},{"name":"Highly Cannaco (Provisioning and Delivery)","type":"dispensary","phone":"(231) 642-2624","city":"Traverse City","state":"Michigan","zipcode":"49686","slug":"highly-cannaco-1"},{"name":"Humblebee Products- Medical","type":"dispensary","phone":"989-745-6575","city":"Frederic","state":"Michigan","zipcode":"49733","slug":"humblebee-products-llc"},{"name":"Wayne Releaf","type":"dispensary","phone":"(734) 600-0420","city":"Wayne","state":"Michigan","zipcode":"48184","slug":"wayne-releaf"},{"name":"Homegrown Cannabis Company - Recreational","type":"dispensary","phone":"(517) 708-7729","city":"Lansing","state":"Michigan","zipcode":"48910","slug":"homegrown-cannabis-company-recreational"},{"name":"3Fifteen Ann Arbor - Recreational","type":"dispensary","phone":"(734) 436-4017","city":"Ann Arbor","state":"Michigan","zipcode":"48104","slug":"3fifteen-ann-arbor-recreational"},{"name":"The Curing Corner","type":"dispensary","phone":"313-436-5616","city":"River Rouge","state":"Michigan","zipcode":"48218","slug":"the-curing-corner"},{"name":"Joyology REC by Holistic Health Wayne","type":"delivery","phone":"734-725-5343","city":"Livonia","state":"Michigan","zipcode":"48152","slug":"joyology-by-holistic-health-wayne-rec"},{"name":"Light 'N Up Provisioning","type":"dispensary","phone":"8103912180","city":"Flint","state":"Michigan","zipcode":"48504","slug":"light-n-up-provisioning"},{"name":"3Fifteen Columbia Ave Delivery","type":"delivery","phone":"833-315-3155","city":"Battle Creek","state":"Michigan","zipcode":"49014","slug":"3fifteen-columbia-ave-delivery"},{"name":"Oz Cannabis Ypsilanti - Medical","type":"dispensary","phone":"(734) 328-1155","city":"Ypsilanti","state":"Michigan","zipcode":"48197","slug":"oz-cannabis-ypsilanti"},{"name":"URB Cannabis - Delivery","type":"delivery","phone":"989-882-9009","city":"Lapeer","state":"Michigan","zipcode":"48446","slug":"urb-cannabis-1"},{"name":"Doja (Recreational)","type":"dispensary","phone":"2693664808","city":"Portage","state":"Michigan","zipcode":"49002","slug":"doja-2"},{"name":"Zen Leaf Buchanan","type":"dispensary","phone":"269-448-0390","city":"Buchanan","state":"Michigan","zipcode":"49107","slug":"zen-leaf-provisioning"},{"name":"Southwest Medz Delivery","type":"delivery","phone":"313-436-1680","city":"Detroit","state":"Michigan","zipcode":"48209","slug":"southwest-medz-delivery"},{"name":"Pure Options Lansing North","type":"dispensary","phone":"(517) 708-7090","city":"Lansing","state":"Michigan","zipcode":"48906","slug":"old-27-wellness-2"},{"name":"H.O.D. Medical Marijuana Certification Center","type":"doctor","phone":"313-826-0414","city":"Detroit","state":"Michigan","zipcode":"48234","slug":"hod-medical-marijuana-certification-center"},{"name":"Herbology - Battle Creek (Recreational)","type":"dispensary","phone":"269-841-5025","city":"Battle Creek","state":"Michigan","zipcode":"49014","slug":"herbology-battle-creek-recreational"},{"name":"Exclusive Ann Arbor Recreational","type":"dispensary","phone":"734-494-0772","city":"Ann Arbor","state":"Michigan","zipcode":"48108","slug":"exclusive-ann-arbor-recreational"},{"name":"Detroit Herbal Center Delivery - Macomb County","type":"delivery","phone":"(313) 397-2738","city":"Utica","state":"Michigan","zipcode":"48317","slug":"detroit-herbal-center-1-delivery"},{"name":"Breedsville Provision Center","type":"dispensary","phone":"269-427-2200","city":"Breedsville","state":"Michigan","zipcode":"49027","slug":"breedsville-provision-center-2"},{"name":"StoneDepot NOW OPEN!","type":"dispensary","phone":"517-955-FIRE","city":"Jackson","state":"Michigan","zipcode":"49202","slug":"stonedepot"},{"name":"Utopia Gardens Delivery","type":"delivery","phone":"313-332-0544","city":"Detroit","state":"Michigan","zipcode":"48207","slug":"utopia-gardens-delivery"},{"name":"Remedii - Battle Creek (Online Ordering for Curbside Pickup)","type":"dispensary","phone":"269-223-7744","city":"Battle Creek","state":"Michigan","zipcode":"49015","slug":"remedii"},{"name":"Michigan Pure Green","type":"dispensary","phone":"269-254-8826","city":"Portage","state":"Michigan","zipcode":"49002","slug":"michigan-pure-green"},{"name":"The Cured Leaf","type":"dispensary","phone":"231-943-1403","city":"Traverse City","state":"Michigan","zipcode":"49686","slug":"the-cured-leaf"},{"name":"Exclusive Grand Rapids Medical Marijuana Dispensary","type":"dispensary","phone":"6168886753","city":"Grand Rapids","state":"Michigan","zipcode":"49508","slug":"exclusive-grand-rapids-rec-marijuana-1"},{"name":"Joyology Grand Rapids","type":"delivery","phone":"(616) 330-1111","city":"Grand Rapids","state":"Michigan","zipcode":"49507","slug":"joyology-grand-rapids"},{"name":"GAGE Grand Rapids","type":"dispensary","phone":"(616) 327-2440","city":"Grand Rapids","state":"Michigan","zipcode":"49505","slug":"gage-grand-rapids"},{"name":"Lume Cannabis Co. Houghton","type":"dispensary","phone":"(906) 275-4304","city":"Houghton","state":"Michigan","zipcode":"49931","slug":"lume-cannabis-co-4"},{"name":"Higher Love - Crystal Falls","type":"dispensary","phone":"9068753076","city":"Crystal Falls","state":"Michigan","zipcode":"48326","slug":"higher-love-3"},{"name":"Green Koi Provisioning Center","type":"dispensary","phone":"269-206-3305","city":"Douglas","state":"Michigan","zipcode":"49406","slug":"koi-holdings-llc-dba-green-koi-douglas"},{"name":"3Fifteen Ann Arbor Delivery","type":"delivery","phone":"8333153155","city":"Ann Arbor","state":"Michigan","zipcode":"48104","slug":"3fifteen-ann-arbor-delivery"},{"name":"3Fifteen Metro Detroit Recreational Delivery","type":"delivery","phone":"3138266037","city":"Detroit","state":"Michigan","zipcode":"48219","slug":"detroit-metro-recreational-delivery-2"},{"name":"Pleasantrees","type":"dispensary","phone":"313-774-0700","city":"Hamtramck","state":"Michigan","zipcode":"48212","slug":"pleasantrees-1"},{"name":"Quality Roots - Battle Creek","type":"dispensary","phone":"269-719-8600","city":"Battle Creek","state":"Michigan","zipcode":"49014","slug":"quality-roots-1"},{"name":"Green Planet Patient Collective","type":"dispensary","phone":"734-845-2172","city":"Ann Arbor","state":"Michigan","zipcode":"48104","slug":"green-planet-patient-collective"},{"name":"From The Earth","type":"dispensary","phone":"5175242275","city":"Hanover","state":"Michigan","zipcode":"49241","slug":"from-the-earth-hanover"},{"name":"Nirvana Center - Center Line (REC)","type":"dispensary","phone":"5867824936","city":"Center Line","state":"Michigan","zipcode":"48015","slug":"nirvana-center-center-line-rec"},{"name":"HOUSE OF DANK BEL AIR - DELIVERY","type":"delivery","phone":"833-746-7463","city":"Detroit","state":"Michigan","zipcode":"48234","slug":"taste-buds-4"},{"name":"Lapeer - Pure Lapeer Delivery (MED)","type":"delivery","phone":"810-660-8403","city":"Oakland County","state":"Michigan","zipcode":"48371","slug":"pure-lapeer-delivery-4"},{"name":"Green Light District","type":"dispensary","phone":"(810) 547-7031","city":"MT Morris","state":"Michigan","zipcode":"48420","slug":"green-light-district-10"},{"name":"PUFF Hamtramck - RECREATIONAL 21+","type":"dispensary","phone":"3135524200","city":"Hamtramck","state":"Michigan","zipcode":"48212","slug":"puff-cannabis-company"},{"name":"Michigan Medical Marijuana Certification Center","type":"doctor","phone":"248-932-6400","city":"Grand Rapids","state":"Michigan","zipcode":"49503","slug":"mmmcc-grand-rapids"},{"name":"Houghton Lake Provisioning Center","type":"dispensary","phone":"989-202-2167","city":"Prudenville","state":"Michigan","zipcode":"48651","slug":"houghton-lake-provisioning-center"},{"name":"Skymint Newaygo","type":"dispensary","phone":"(231)-282-9985","city":"Newaygo","state":"Michigan","zipcode":"49337","slug":"skymint-newaygo"},{"name":"Exclusive Grand Rapids Med Marijuana - Delivery","type":"delivery","phone":"6168886753","city":"Grand Rapids","state":"Michigan","zipcode":"49508","slug":"exclusive-grand-rapids-rec-marijuana-delivery-1"},{"name":"Green Pharm Kalkaska","type":"dispensary","phone":"2313846614","city":"Kalkaska","state":"Michigan","zipcode":"49646","slug":"green-pharm-kalkaska"},{"name":"Canna Klub","type":"dispensary","phone":"9898268000","city":"Luzerne","state":"Michigan","zipcode":"48636","slug":"canna-klub-1"},{"name":"Cannabis Lupus Cafe - Medical","type":"dispensary","phone":"9062730095","city":"Marquette","state":"Michigan","zipcode":"49855","slug":"cannabis-lupus-cafe-1"},{"name":"Higher Love - Munising","type":"dispensary","phone":"(906) 387-5683","city":"Munising","state":"Michigan","zipcode":"49862","slug":"higher-love-munising"},{"name":"Glazed and Confused","type":"dispensary","phone":"906-875-4201","city":"Crystal Falls","state":"Michigan","zipcode":"49920","slug":"glazed-and-confused-1"},{"name":"Arcanna","type":"delivery","phone":"616-755-6656","city":"Lansing","state":"Michigan","zipcode":"48911","slug":"arcanna"},{"name":"Dispo Delivery","type":"delivery","phone":"989-671-9333","city":"Bay City","state":"Michigan","zipcode":"48706","slug":"dispo-delivery-1"},{"name":"Northern Roots","type":"dispensary","phone":"989-569-3828","city":"Oscoda","state":"Michigan","zipcode":"48750","slug":"northern-roots"},{"name":"Lume Cannabis Co. Cedar Springs","type":"dispensary","phone":"6164201350","city":"Cedar Springs","state":"Michigan","zipcode":"49319","slug":"lume-cannabis-co-5"},{"name":"New Standard - Sand Lake","type":"dispensary","phone":"(616)327-0420","city":"Sand Lake","state":"Michigan","zipcode":"49343","slug":"new-standard-2"},{"name":"Avalon Certification Center","type":"doctor","phone":"(269) 340-0834","city":"Allegan","state":"Michigan","zipcode":"49010","slug":"avalon-certification-center"},{"name":"Pure Roots - Lansing Delivery","type":"delivery","phone":"844-325-3900","city":"Lansing","state":"Michigan","zipcode":"48823","slug":"pure-roots-lansing-delivery"},{"name":"Skymint East Lansing","type":"dispensary","phone":"(517) 376-4640","city":"East Lansing","state":"Michigan","zipcode":"48823","slug":"skymint-east-lansing"},{"name":"Five & Dime Detroit Delivery Macomb County","type":"delivery","phone":"313-733-6006","city":"Macomb County","state":"Michigan","zipcode":"48038","slug":"five-dime-detroit-delivery-2"},{"name":"Amsterdam Premium Cannabis Company","type":"dispensary","phone":"(269) 339-3379","city":"Battle Creek","state":"Michigan","zipcode":"49014","slug":"amsterdam-premium-cannabis-company"},{"name":"Michigan Wellness Center","type":"doctor","phone":"(810) 820-8555","city":"Flint","state":"Michigan","zipcode":"48507","slug":"michigan-wellness-center"},{"name":"Shango Hazel Park - Recreational","type":"dispensary","phone":"248-629-9681","city":"Hazel Park","state":"Michigan","zipcode":"48030","slug":"shango-hazel-park"},{"name":"Pure Lapeer Delivery (REC)","type":"delivery","phone":"810-660-8403","city":"Flint","state":"Michigan","zipcode":"48768","slug":"pure-lapeer-delivery-7"},{"name":"The Woods Cheboygan","type":"dispensary","phone":"231-268-3007","city":"Cheboygan","state":"Michigan","zipcode":"49721","slug":"the-woods-cheboygan"},{"name":"PUFF Traverse City-OPEN NOW!","type":"dispensary","phone":"(231) 252-4603","city":"Traverse City","state":"Michigan","zipcode":"49686","slug":"puff-traverse-city"},{"name":"Lucky Buds","type":"dispensary","phone":"9894363221","city":"Crystal","state":"Michigan","zipcode":"48818","slug":"lucky-buds"},{"name":"3Fifteen Grand Rapids Division -Recreational","type":"dispensary","phone":"6162598542","city":"Grand Rapids","state":"Michigan","zipcode":"49503","slug":"3fifteen-grand-rapids-division"},{"name":"MCC of Grand Rapids LLC","type":"doctor","phone":"(855) 622-6337","city":"Grand Rapids","state":"Michigan","zipcode":"49508","slug":"mcc-of-grand-rapids-michigan-certification-center"},{"name":"Pure Options Mt. Pleasant","type":"dispensary","phone":"989-444-5115","city":"Mt Pleasant","state":"Michigan","zipcode":"48858","slug":"mt-pleasant-dispensary"},{"name":"Essence on I75","type":"dispensary","phone":"(989)879-4000","city":"Pinconning","state":"Michigan","zipcode":"48650","slug":"essence-provisioning-center"},{"name":"Pure Roots - Ann Arbor Delivery","type":"delivery","phone":"844-325-3900","city":"Ann Arbor","state":"Michigan","zipcode":"48105","slug":"pure-roots-ann-arbor-delivery"},{"name":"Lume Cannabis Co. Adrian","type":"dispensary","phone":"(517) 759-1015","city":"Adrian","state":"Michigan","zipcode":"49221","slug":"lume-adrian"},{"name":"HOUSE OF DANK YPSILANTI REC - DELIVERY","type":"delivery","phone":"833-746-7463","city":"Ypsilanti","state":"Michigan","zipcode":"48198","slug":"house-of-dank-ypsilanti-rec"},{"name":"Bloom City Club","type":"dispensary","phone":"269-224-6237","city":"Battle Creek","state":"Michigan","zipcode":"49014","slug":"bloom-city-club-1"}]}}