{"meta":{"total_listings":17},"data":{"listings":[{"name":"Liv-On Family Care","type":"doctor","phone":"(651) 207-8372","city":"White Bear Lake","state":"Minnesota","zipcode":"55127","slug":"liv-on-family-care"},{"name":"Miracle Leaf Minnesota","type":"doctor","phone":"8332603624","city":"Minneapolis","state":"Minnesota","zipcode":"55401","slug":"miracle-leaf-minnesota"},{"name":"Green Goods - Burnsville","type":"dispensary","phone":"(952) 856-8603","city":"Burnsville","state":"Minnesota","zipcode":"55306","slug":"green-goods-burnsville"},{"name":"Life Medical","type":"doctor","phone":"(952) 933-8900","city":"St. Louis Park","state":"Minnesota","zipcode":"55416","slug":"life-medical"},{"name":"Green Goods - Blaine","type":"dispensary","phone":"(763) 400-4777","city":"Blaine","state":"Minnesota","zipcode":"55434","slug":"green-goods-blaine"},{"name":"Green Goods- Moorhead","type":"dispensary","phone":"(218) 206-6600","city":"Moorhead","state":"Minnesota","zipcode":"56560","slug":"minnesota-medical-solutions-moorhead"},{"name":"Green Goods - Rochester","type":"dispensary","phone":"507-481-3140","city":"Rochester","state":"Minnesota","zipcode":"55906","slug":"minnesota-medical-solutions-rochester"},{"name":"Dodson Pain Consultants, PA","type":"doctor","phone":"(763) 588-7099","city":"Robbinsdale","state":"Minnesota","zipcode":"55422","slug":"dodson-pain-consultants-pa"},{"name":"Green Goods - Minneapolis","type":"dispensary","phone":"(612)999-1615","city":"Minneapolis","state":"Minnesota","zipcode":"55402","slug":"minnesota-medical-solutions"},{"name":"Green Goods - Bloomington","type":"dispensary","phone":"952-800-4404","city":"Bloomington","state":"Minnesota","zipcode":"55431","slug":"minnesota-medical-solutions-bloomington"},{"name":"Green Goods - Duluth","type":"dispensary","phone":"(218) 260-2665","city":"Hermantown","state":"Minnesota","zipcode":"55811","slug":"green-goods-duluth"},{"name":"Green Goods - Woodbury","type":"dispensary","phone":"(612) 260-1222","city":"Woodbury","state":"Minnesota","zipcode":"55125","slug":"green-goods-woodbury"},{"name":"LeafLine Labs - St. Cloud","type":"dispensary","phone":"(844) 532-3546","city":"St. Cloud","state":"Minnesota","zipcode":"56301","slug":"leafline-labs-st-cloud"},{"name":"LeafLine Labs - Hibbing","type":"dispensary","phone":"(844) 532-3546","city":"Hibbing","state":"Minnesota","zipcode":"55746","slug":"leafline-labs-hibbing"},{"name":"LeafLine Labs - St. Paul","type":"dispensary","phone":"(844) 532-3546","city":"Saint Paul","state":"Minnesota","zipcode":"55114","slug":"leafline-labs-st-paul"},{"name":"Advanced Spine & Pain Clinics of MN","type":"doctor","phone":"(612) 207-7463","city":"Edina","state":"Minnesota","zipcode":"55435","slug":"advanced-spine-pain-clinics-of-mn"},{"name":"LeafLine Labs - Eagan","type":"dispensary","phone":"(844) 532-3546","city":"Eagan","state":"Minnesota","zipcode":"55121","slug":"leafline-labs-eagan"}]}}