{"meta":{"total_listings":141},"data":{"listings":[{"name":"Ganja Goddess - Missoula","type":"dispensary","phone":"(406) 204-2204","city":"Missoula","state":"Montana","zipcode":"59801","slug":"ganja-goddess-missoula"},{"name":"Remedy","type":"dispensary","phone":"(406) 541-8253","city":"Missoula","state":"Montana","zipcode":"59808","slug":"remedy-missoula"},{"name":"Modern Meds MT - Kalispell","type":"delivery","phone":"(406) 261-8848","city":"Kalispell","state":"Montana","zipcode":"59901","slug":"modern-meds-mt-kalispell"},{"name":"FIREHOUSE","type":"delivery","phone":"(406) 499-2731","city":"Kalispell","state":"Montana","zipcode":"59901","slug":"firehouse-1"},{"name":"Abilene","type":"delivery","phone":"406-210-5370","city":"Valier","state":"Montana","zipcode":"59486","slug":"abilene"},{"name":"Central Montana Cannabis Care","type":"delivery","phone":"(406) 590-4639","city":"Gibson Flats","state":"Montana","zipcode":"59405","slug":"central-montana-cannabis-care"},{"name":"Sleeping Giant Gardens","type":"delivery","phone":"(406) 459-0753","city":"Missoula","state":"Montana","zipcode":"59801","slug":"sleeping-giant-gardens-missoula"},{"name":"Lighthouse Organics - Billings","type":"dispensary","phone":"(406) 371-7289","city":"Billings","state":"Montana","zipcode":"59101","slug":"lighthouse-organics-billings-dispensary"},{"name":"MT Reef","type":"delivery","phone":"(406) 880-5606","city":"Missoula","state":"Montana","zipcode":"59808","slug":"mt-reef"},{"name":"Chronic Caregivers","type":"dispensary","phone":"(406) 672-8860","city":"Billings","state":"Montana","zipcode":"59106","slug":"chronic-caregivers"},{"name":"Spark1 - Missoula","type":"dispensary","phone":"(406) 926-6611","city":"Missoula","state":"Montana","zipcode":"59802","slug":"spark1-missoula"},{"name":"Holistic Relief by Design","type":"dispensary","phone":" (406) 969-1127","city":"Billings","state":"Montana","zipcode":"59101","slug":"holistic-relief-by-design-2"},{"name":"Top Shelf Botanicals - Kalispell","type":"dispensary","phone":"406-249-8915 ","city":"Kalispell","state":"Montana","zipcode":"59901","slug":"top-shelf-botanicals-kalispell"},{"name":"Green Alternatives","type":"dispensary","phone":"(406) 926-2580","city":"Missoula","state":"Montana","zipcode":"59802","slug":"green-alternatives-missoula"},{"name":"Lil Amsterdam USA - Kalispell","type":"dispensary","phone":"(406) 756-4372","city":"Kalispell","state":"Montana","zipcode":"59901","slug":"lil-amsterdam-usa"},{"name":"Elevated - Billings West End","type":"dispensary","phone":"406-998-9330","city":"Billings","state":"Montana","zipcode":"59101","slug":"elevated-billings-west-end"},{"name":"Michael Shirleys Medical","type":"dispensary","phone":"206-851-5295","city":"Big Timber","state":"Montana","zipcode":"59011","slug":"michael-shirleys-medical"},{"name":"Western Path Healing Center","type":"doctor","phone":"(406) 616-3627","city":"Kalispell","state":"Montana","zipcode":"59901","slug":"western-path-healing-center"},{"name":"Elevated","type":"delivery","phone":"(406) 601-1166","city":"Billings","state":"Montana","zipcode":"59101","slug":"elevated-billings"},{"name":"Rosebud Remedies","type":"dispensary","phone":"(406) 290-5138","city":"Absarokee","state":"Montana","zipcode":"59001","slug":"rosebud-remedies"},{"name":"Medicine Creek Caregivers - Billings","type":"dispensary","phone":"406-598-9534","city":"BILLINGS","state":"Montana","zipcode":"59101","slug":"medicine-creek-caregivers-billings"},{"name":"Grizzly Creek Farms","type":"delivery","phone":"(406) 214-0589","city":"Missoula","state":"Montana","zipcode":"59801","slug":"grizzly-creek-medical-cannabis-missoula"},{"name":"iDeal Naturals","type":"dispensary","phone":"406-601-1191","city":"Billings","state":"Montana","zipcode":"59101","slug":"ideal-naturals"},{"name":"Urban Farmer","type":"dispensary","phone":"(406) 926-1485","city":"Missoula","state":"Montana","zipcode":"59801","slug":"urban-farmer"},{"name":"Firehouse Cannabis","type":"dispensary","phone":"(406) 499-2731","city":"Kalispell","state":"Montana","zipcode":"59901","slug":"firehouse-cannabis-1"},{"name":"Top Shelf Botanicals","type":"dispensary","phone":"(406) 493-0375","city":"Missoula","state":"Montana","zipcode":"59801","slug":"top-shelf-botanicals-6"},{"name":"Sleeping Giant Gardens","type":"delivery","phone":"(406) 459-0753","city":"Great Falls","state":"Montana","zipcode":"59401","slug":"sleeping-giant-gardens-great-falls"},{"name":"Uncle Bucks","type":"delivery","phone":"(406) 860-1091","city":"Laurel","state":"Montana","zipcode":"59044","slug":"uncle-bucks"},{"name":"Montana Preferred Provider","type":"dispensary","phone":"(406)540-4147","city":"Missoula","state":"Montana","zipcode":"59802","slug":"montana-preferred-provider-1"},{"name":"Tamarack Cannabis","type":"dispensary","phone":"(406) 755-7227","city":"Kalispell","state":"Montana","zipcode":"59901","slug":"tamarack-cannabis"},{"name":"The Green Lid","type":"dispensary","phone":"(406) 752-4247","city":"Columbia Falls","state":"Montana","zipcode":"59912","slug":"the-green-lid"},{"name":"Bloom - Lolo","type":"dispensary","phone":"(406) 273-9823","city":"Lolo","state":"Montana","zipcode":"59847","slug":"bloom-lolo"},{"name":"Big Sky Herbals and Edibles","type":"dispensary","phone":"(406) 926-1222","city":"Missoula","state":"Montana","zipcode":"59801","slug":"big-sky-herbals-and-edibles"},{"name":"Nectar 406","type":"delivery","phone":"(406) 261-5509","city":"Kalispell","state":"Montana","zipcode":"59901","slug":"nectar-406"},{"name":"Silverleaf Cannabis Co. - Missoula","type":"dispensary","phone":"406-830-3420","city":"Missoula","state":"Montana","zipcode":"59801","slug":"silverleaf-cannabis-co-missoula"},{"name":"Ember","type":"dispensary","phone":"(406) 404-6470","city":"Columbia Falls","state":"Montana","zipcode":"59912","slug":"ember-montana"},{"name":"710 Montana - Florence","type":"dispensary","phone":"406-830-4013","city":"Florence","state":"Montana","zipcode":"59833","slug":"710-montana-florence"},{"name":"MontanaBliss Dispensary","type":"dispensary","phone":"(406) 752-0067","city":"Kalispell","state":"Montana","zipcode":"59901","slug":"montanabliss-dispensary"},{"name":"Dancing Goat Gardens","type":"dispensary","phone":"(406) 420-6979","city":"Missoula","state":"Montana","zipcode":"59801","slug":"dancing-goat-gardens"},{"name":"Grizzly Creek Farms","type":"delivery","phone":"(406) 214-0589","city":"Kalispell","state":"Montana","zipcode":"59901","slug":"grizzly-creek-medical-cannabis-kalispell"},{"name":"The Green Bee","type":"dispensary","phone":"(406) 272-4007","city":"Billings","state":"Montana","zipcode":"59106","slug":"the-green-bee-1"},{"name":"Top Shelf Botanicals","type":"dispensary","phone":"(406) 249-8915","city":"Kalispell","state":"Montana","zipcode":"59901","slug":"top-shelf-botanicals-2"},{"name":"Alternative Wellness Montana","type":"doctor","phone":"(406) 249-1304","city":"Kalispell","state":"Montana","zipcode":"59901","slug":"alternative-wellness-montana"},{"name":"Holistic Relief by Design - Roberts","type":"dispensary","phone":"(406) 445-9831","city":"Roberts","state":"Montana","zipcode":"59070","slug":"holistic-relief-by-design-roberts"},{"name":"First Class Grass Farm","type":"dispensary","phone":"406-250-0040","city":"Kalispell","state":"Montana","zipcode":"59901","slug":"first-class-grass-farm-1"},{"name":"Flower - Brooks St.","type":"dispensary","phone":"406-541-0420","city":"Missoula","state":"Montana","zipcode":"59801","slug":"flower-brooks-st"},{"name":"Top Shelf Botanicals - Missoula","type":"dispensary","phone":"406-493-0375","city":"Missoula","state":"Montana","zipcode":"59801","slug":"top-shelf-botanicals-missoula"},{"name":"Ember","type":"delivery","phone":"(406) 404-6470","city":"Kalispell","state":"Montana","zipcode":"59901","slug":"ember-kalispell"},{"name":"The Green Haus","type":"dispensary","phone":"(406) 755-4287","city":"Kalispell","state":"Montana","zipcode":"59901","slug":"the-green-haus-kalispell"},{"name":"Alternative ReLeaf - Libby","type":"dispensary","phone":"(406) 293-6555","city":"Libby","state":"Montana","zipcode":"59923","slug":"alternative-releaf-libby"},{"name":"Mountain Heights","type":"dispensary","phone":"(406) 926-1688","city":"Missoula","state":"Montana","zipcode":"59808","slug":"mountain-heights"},{"name":"Magic City ReLeaf","type":"dispensary","phone":"(406) 633-1916","city":"Billings","state":"Montana","zipcode":"59101","slug":"magic-city-releaf"},{"name":"Bloom - West Billings","type":"dispensary","phone":"(406) 969-1199","city":"Billings","state":"Montana","zipcode":"59101","slug":"bloom-6"},{"name":"Lucid Leaf","type":"dispensary","phone":"(406) 253.6559","city":"Kalispell","state":"Montana","zipcode":"59901","slug":"lucid-leaf-1"},{"name":"Elevated - Great Falls","type":"dispensary","phone":"406-799-9989","city":"Great Falls","state":"Montana","zipcode":"59414","slug":"elevated-great-falls"},{"name":"Fruit Factory","type":"dispensary","phone":"(406) 293-9330","city":"Libby","state":"Montana","zipcode":"59923","slug":"fruit-factory"},{"name":"Mile High Missoula","type":"dispensary","phone":"(406) 926-1177","city":"Missoula","state":"Montana","zipcode":"59801","slug":"mile-high-cannabis"},{"name":"Seed of Life Labs","type":"delivery","phone":"(406) 702-7655","city":"Billings","state":"Montana","zipcode":"59106","slug":"seed-of-life-labs"},{"name":"Awesome Blossoms","type":"dispensary","phone":"(406) 890-2420","city":"Kalispell","state":"Montana","zipcode":"59901","slug":"awesome-blossoms"},{"name":"Infinity Wellness","type":"dispensary","phone":"406-402-9484","city":"Vaughn","state":"Montana","zipcode":"59487","slug":"infinity-wellness"},{"name":"Stokes","type":"dispensary","phone":"(406) 303-0725","city":"Missoula","state":"Montana","zipcode":"59801","slug":"stokes"},{"name":"Zen Medicine","type":"dispensary","phone":"(406) 396-4134","city":"Missoula","state":"Montana","zipcode":"59801","slug":"zen-medicine"},{"name":"Garden Mother","type":"dispensary","phone":"(406) 529-3834","city":"Missoula","state":"Montana","zipcode":"59801","slug":"garden-mother-herbs-missoula"},{"name":"Bloom - Havre","type":"dispensary","phone":"406-400-2747","city":"Havre","state":"Montana","zipcode":"59501","slug":"bloom-5"},{"name":"Flower - Montana","type":"dispensary","phone":"(406) 541-0420","city":"Missoula","state":"Montana","zipcode":"59802","slug":"flower"},{"name":"Stink Blossom","type":"dispensary","phone":"(406) 591-9233","city":"Billings","state":"Montana","zipcode":"59101","slug":"stink-blossom"},{"name":"Euphoria Wellness - Missoula","type":"dispensary","phone":"(406) 317-1419","city":"Missoula","state":"Montana","zipcode":"59801","slug":"euphoria-wellness-missoula"},{"name":"Urban Farmer","type":"delivery","phone":"(406) 926-1485","city":"Missoula","state":"Montana","zipcode":"59801","slug":"urban-farmer-missoula"},{"name":"Bloom - Kalispell","type":"dispensary","phone":"(406) 300-1002","city":"Kalispell","state":"Montana","zipcode":"59901","slug":"bloom-kalispell"},{"name":"Glacier Green Cross","type":"dispensary","phone":"(406) 890-2237","city":"Kalispell","state":"Montana","zipcode":"59901","slug":"glacier-green-cross"},{"name":"Rosebud Remedies - Columbus","type":"delivery","phone":"(406) 290-5138","city":"Columbus","state":"Montana","zipcode":"59019","slug":"rosebud-remedies-2"},{"name":"Glacier View Providers","type":"dispensary","phone":"(406) 257-4500","city":"Columbia Falls","state":"Montana","zipcode":"59912","slug":"glacier-view-providers"},{"name":"Top Shelf Botanicals","type":"delivery","phone":"(406) 624-6706","city":"Kalispell","state":"Montana","zipcode":"59901","slug":"top-shelf-botanicals"},{"name":"Montana Medicinals","type":"dispensary","phone":"(406) 926-1777","city":"Missoula","state":"Montana","zipcode":"59802","slug":"montana-medicinals"},{"name":"Sleeping Giant Gardens","type":"delivery","phone":"(406) 459-0753","city":"Kalispell","state":"Montana","zipcode":"59901","slug":"sleeping-giant-gardens-kalispell"},{"name":"Around the Clock Cannabis - Glendive","type":"dispensary","phone":"406-377-9333","city":"Glendive","state":"Montana","zipcode":"59330","slug":"around-the-clock-cannabis-glendive"},{"name":"Modern Medicinal MT LLC","type":"dispensary","phone":"(406) 261-8848","city":"Columbia Falls","state":"Montana","zipcode":"59912","slug":"modern-meds-mt"},{"name":"Lionheart Caregiving - Missoula","type":"dispensary","phone":"(406) 944-4311","city":"Missoula","state":"Montana","zipcode":"59801","slug":"lionheart-caregiving-missoula"},{"name":"Big Sky Herbals and Edibles","type":"delivery","phone":"(406) 926-1222","city":"Missoula","state":"Montana","zipcode":"59801","slug":"big-sky-herbals-and-edibles-superior"},{"name":"The Coffee Joint","type":"dispensary","phone":"(406) 848-4420","city":"Missoula","state":"Montana","zipcode":"59801","slug":"the-coffee-joint"},{"name":"Rosebud Remedies","type":"delivery","phone":"(406) 647-4560","city":"Absarokee","state":"Montana","zipcode":"59001","slug":"rosebud-remedies"},{"name":"Montana Cannabis Company","type":"delivery","phone":"(406) 544-9135","city":"Missoula","state":"Montana","zipcode":"59801","slug":"montana-cannabis-company"},{"name":"Fenceline","type":"delivery","phone":"4062095088","city":"Shepherd","state":"Montana","zipcode":"59079","slug":"fenceline"},{"name":"Montana Kush - Missoula","type":"dispensary","phone":"4069261273","city":"Missoula","state":"Montana","zipcode":"59808","slug":"montana-kush-1"},{"name":"Lionheart Caregiving - Billings","type":"dispensary","phone":"(406) 652-5513","city":"Billings","state":"Montana","zipcode":"59101","slug":"lionheart-caregiving-billings"},{"name":"Olympus Incendias","type":"dispensary","phone":"406-829-9333","city":"Missoula","state":"Montana","zipcode":"59808","slug":"olympus-incendias"},{"name":"CannaOrganics","type":"dispensary","phone":" (406) 228-4202","city":"Glasgow","state":"Montana","zipcode":"59230","slug":"cannaorganics"},{"name":"Bloom - Lewistown","type":"dispensary","phone":"(406) 535-7843","city":"Lewiston","state":"Montana","zipcode":"59457","slug":"bloom-4"},{"name":"Around the Clock Cannabis - Sidney","type":"dispensary","phone":"406-480-7959","city":"Sidney","state":"Montana","zipcode":"59270","slug":"around-the-clock-cannabis-sidney"},{"name":"We'd - Missoula","type":"dispensary","phone":"406-603-0528","city":"Missoula","state":"Montana","zipcode":"59808","slug":"we-d-missoula"},{"name":"Greenhouse Farmacy - South 3rd Street West","type":"dispensary","phone":"(406) 203-2263","city":"Missoula","state":"Montana","zipcode":"59801","slug":"greenhouse-farmacy-1"},{"name":"Sunnyside Medicals","type":"dispensary","phone":"(406) 252-3569","city":"Billings","state":"Montana","zipcode":"59101","slug":"sunnyside-medicals"},{"name":"710 Montana - Missoula","type":"dispensary","phone":"(406) 241-9733","city":"Missoula","state":"Montana","zipcode":"59802","slug":"710-montana-2"},{"name":"Greener Pastures","type":"dispensary","phone":"(406) 370-7186","city":"Missoula","state":"Montana","zipcode":"59718","slug":"greener-pastures-missoula"},{"name":"Around the Clock Cannabis - Plentywood","type":"dispensary","phone":"406-765-1283","city":"Plentywood","state":"Montana","zipcode":"59254","slug":"around-the-clock-cannabis-plentywood"},{"name":"Magic City ReLeaf - Delivery","type":"delivery","phone":"(406) 633-1916","city":"Billings","state":"Montana","zipcode":"59102","slug":"magic-city-releaf-delivery"},{"name":"All TLO Providers","type":"delivery","phone":"(406) 212-3205","city":"Kalispell","state":"Montana","zipcode":"59901","slug":"all-tlo-providers"},{"name":"Missoula Cannabis Caregivers","type":"dispensary","phone":"(406) 359-1420","city":"Missoula","state":"Montana","zipcode":"59808","slug":"missoula-cannabis-caregivers"},{"name":"Kanopli","type":"delivery","phone":"(406) 530-5041","city":"Billings","state":"Montana","zipcode":"59106","slug":"kanopli"},{"name":"New Hope Medicine","type":"doctor","phone":"(406) 393-2098","city":"Kalispell","state":"Montana","zipcode":"59901","slug":"green-cross-chronic-pain-and-illness-center"},{"name":"Flower - Kalispell","type":"dispensary","phone":"406-541-0420","city":"Kalispell","state":"Montana","zipcode":"59901","slug":"flower-kalispell"},{"name":"Lionheart Caregiving - Great Falls (Herbal Bliss)","type":"dispensary","phone":"(406) 965-2241","city":"Great Falls","state":"Montana","zipcode":"59404","slug":"lionheart-caregiving-great-falls-herbal-bliss"},{"name":"Delta 9 Collective","type":"dispensary","phone":"(406) 257-1545","city":"Kalispell","state":"Montana","zipcode":"59901","slug":"miracle-medicine-caregivers-m-m-c"},{"name":"Laughing Loon Delivery","type":"delivery","phone":"702-439-8581","city":"Trego","state":"Montana","zipcode":"59934","slug":"laughing-loon"},{"name":"Comfort Care Cannabliss Co","type":"dispensary","phone":"(406) 671-4736","city":"Bearcreek","state":"Montana","zipcode":"59007","slug":"comfort-care-cannabliss-co"},{"name":"Mommaz Kalispell and Cut Bank","type":"dispensary","phone":"(406) 309-2380","city":"Kalispell","state":"Montana","zipcode":"59901","slug":"mommaz-kalispell-and-cut-bank"},{"name":"Hometree - Hesper Rd","type":"dispensary","phone":"4066564161","city":"Billings","state":"Montana","zipcode":"59102","slug":"hometree-hesper-rd"},{"name":"Montana Medicine Man","type":"delivery","phone":"(406) 696-1812","city":"Billings","state":"Montana","zipcode":"59102","slug":"montana-medicine-man-1"},{"name":"We'd - Ronan","type":"dispensary","phone":"(406) 603-05","city":"Ronan","state":"Montana","zipcode":"59864","slug":"we-d-ronan"},{"name":"Montana Dispensary","type":"dispensary","phone":"4062197220","city":"Great Falls","state":"Montana","zipcode":"59405","slug":"montana-dispensary"},{"name":"Elevated","type":"dispensary","phone":"(406) 601-1166","city":"Billings","state":"Montana","zipcode":"59101","slug":"elevated-billings"},{"name":"Bloom - Billings","type":"dispensary","phone":"(406) 252-3116","city":"Billings","state":"Montana","zipcode":"59101","slug":"bloom-billings"},{"name":"Bloom - Hardin","type":"dispensary","phone":"(406) 665-1500","city":"Hardin","state":"Montana","zipcode":"59034","slug":"bloom-hardin"},{"name":"Modern Meds MT - Columbia Falls","type":"delivery","phone":"(406) 261-8848","city":"Columbia Falls","state":"Montana","zipcode":"59912","slug":"modern-meds-mt-columbia-falls"},{"name":"Abilene","type":"delivery","phone":"406-210-5370","city":"Kalispell","state":"Montana","zipcode":"59901","slug":"abilene-2"},{"name":"Double Dogs Cannabis - Missoula","type":"dispensary","phone":"406-926-1218","city":"Missoula","state":"Montana","zipcode":"59802","slug":"double-dogs-cannabis-higgins-ave"},{"name":"Rosebud Remedies - Columbus","type":"dispensary","phone":"(406) 290-5138","city":"Columbus","state":"Montana","zipcode":"59019","slug":"rosebud-remedies-2"},{"name":"Holistic Relief by Design - Great Falls","type":"dispensary","phone":"(406) 591-0660","city":"Great Falls","state":"Montana","zipcode":"59404","slug":"holistic-relief-by-design"},{"name":"Rocky Mountain Relief","type":"dispensary","phone":"(406) 544-0995","city":"Missoula","state":"Montana","zipcode":"59802","slug":"rocky-mountain-relief"},{"name":"Nectar 406","type":"dispensary","phone":"(406) 261-5509","city":"Kalispell","state":"Montana","zipcode":"59901","slug":"nectar-406"},{"name":"STARRBUDS","type":"dispensary","phone":"(406) 926-2092","city":"Missoula","state":"Montana","zipcode":"59802","slug":"starrbuds"},{"name":"Flathead Valley Holistic Care CBD","type":"delivery","phone":"(406) 885-3019","city":"Whitefish","state":"Montana","zipcode":"59937","slug":"flathead-valley-holistic-care"},{"name":"Nature’s Fix","type":"delivery","phone":"(406) 894-0797","city":"Joliet","state":"Montana","zipcode":"59041","slug":"nature-s-fix"},{"name":"Uncle Bucks","type":"dispensary","phone":"(406) 860-1091","city":"Billings","state":"Montana","zipcode":"59101","slug":"uncle-bucks-billings"},{"name":"Apogee Gardens LLC","type":"delivery","phone":"(406) 647-2128","city":"Missoula","state":"Montana","zipcode":"59801","slug":"apogee-gardens-llc-missoula"},{"name":"Bloom - Libby","type":"dispensary","phone":"(406) 291-6638","city":"Libby","state":"Montana","zipcode":"59923","slug":"bloom-libby"},{"name":"Mountain Heights","type":"delivery","phone":"(406) 926-1688","city":"Billings","state":"Montana","zipcode":"59105","slug":"mountain-heights"},{"name":"Sensicare","type":"dispensary","phone":"(406) 794-8425","city":"Billings","state":"Montana","zipcode":"59101","slug":"sensicare"},{"name":"Yellowstone Cannabis (Now Open)","type":"dispensary","phone":"(406) 373-0968","city":"Billings","state":"Montana","zipcode":"59101","slug":"yellowstone-cannabis-billings"},{"name":"The Higher Standard - Missoula","type":"dispensary","phone":"(406) 926-3272","city":"Missoula","state":"Montana","zipcode":"59801","slug":"the-marijuana-company-3"},{"name":"Apogee Gardens LLC","type":"delivery","phone":"(406) 647-2128","city":"Billings","state":"Montana","zipcode":"59102","slug":"apogee-gardens-llc-billings"},{"name":"Mountain Organics","type":"delivery","phone":"4068393872","city":"Billings","state":"Montana","zipcode":"59105","slug":"mountain-organics-billings"},{"name":"Selective Strains","type":"delivery","phone":"(406) 647-4029","city":"Billings","state":"Montana","zipcode":"59088","slug":"selective-strains"},{"name":"Alternative Wellness Montana","type":"doctor","phone":"(406) 249-1304","city":"Billings","state":"Montana","zipcode":"59101","slug":"alternative-wellness-montana-2"},{"name":"77 North (Coming Soon)","type":"dispensary","phone":"Coming soon","city":"Sidney","state":"Montana","zipcode":"59270","slug":"77-north"},{"name":"Greenhouse Farmacy - West Front Street","type":"dispensary","phone":"(406) 317-1792","city":"Missoula","state":"Montana","zipcode":"59802","slug":"greenhouse-farmacy-west-front-street"},{"name":"Fat hippie","type":"dispensary","phone":"4062075672","city":"Seeley Lake","state":"Montana","zipcode":"59868","slug":"fat-hippie"},{"name":"Abilene","type":"delivery","phone":"406-210-5370","city":"Ronan","state":"Montana","zipcode":"59864","slug":"abilene-1"},{"name":"Grizzly Creek Farms","type":"delivery","phone":"(406) 214-0589","city":"Ronan","state":"Montana","zipcode":"59864","slug":"grizzly-creek-medical-cannabis-lake-county"},{"name":"Hometree - Industry St","type":"dispensary","phone":"(406) 544-9135","city":"Missoula","state":"Montana","zipcode":"59808","slug":"hometree-industry-st"},{"name":"Seed of Life Labs","type":"dispensary","phone":"(406) 702-7655","city":"Billings","state":"Montana","zipcode":"59101","slug":"seed-of-life-labs"}]}}