{"meta":{"total_listings":150},"data":{"listings":[{"name":"Mynt Cannabis | Reno Downtown","type":"dispensary","phone":"(775) 686-6968","city":"Reno","state":"Nevada","zipcode":"89501","slug":"mynt-cannabis"},{"name":"Reef Dispensaries - Sun Valley","type":"dispensary","phone":"775-238-3145","city":"Sun Valley","state":"Nevada","zipcode":"89433","slug":"reef-dispensaries-sun-valley"},{"name":"Sierra Well - Carson City","type":"dispensary","phone":"(775) 800-9355","city":"Carson City","state":"Nevada","zipcode":"89701","slug":"sierra-wellness-connection-2"},{"name":"Reef Dispensaries - Las Vegas North","type":"dispensary","phone":"702-410-8032","city":"North Las Vegas","state":"Nevada","zipcode":"89030","slug":"reef-dispensaries-north-las-vegas"},{"name":"MedMen Las Vegas - Spring Valley","type":"dispensary","phone":"(702) 659-7316","city":"Las Vegas","state":"Nevada","zipcode":"89118","slug":"medmen-las-vegas-spring-valley"},{"name":"The Grove","type":"dispensary","phone":"(702) 463-5777","city":"Las Vegas","state":"Nevada","zipcode":"89119","slug":"the-grove-2-2"},{"name":"SoL Cannabis","type":"dispensary","phone":"775-451-7290","city":"Washoe Valley","state":"Nevada","zipcode":"89704","slug":"sol-cannabis"},{"name":"Kanna Reno","type":"dispensary","phone":"(775) 674-0420","city":"Sun Valley","state":"Nevada","zipcode":"89433","slug":"kanna-reno"},{"name":"The Apothecarium","type":"dispensary","phone":"702-778-7987","city":"Las Vegas","state":"Nevada","zipcode":"89117","slug":"the-apothecarium-2"},{"name":"Nabodoka Dispensary","type":"dispensary","phone":"(775) 273-0420","city":"Lovelock","state":"Nevada","zipcode":"89419","slug":"nabodoka-dispensary"},{"name":"Sierra Wellness Reno Delivery","type":"delivery","phone":"775-473-9994","city":"Reno","state":"Nevada","zipcode":"89502","slug":"sierra-wellness-connection"},{"name":"Pisos - West Las Vegas","type":"delivery","phone":"(702) 367-9333","city":"Las Vegas","state":"Nevada","zipcode":"89135","slug":"pisos-west-las-vegas-6"},{"name":"Jardin Premium Cannabis Dispensary","type":"dispensary","phone":"702-331-6511","city":"Las Vegas","state":"Nevada","zipcode":"89121","slug":"jardin-dispensary"},{"name":"THRIVE Cannabis Marketplace - Cactus Ave.","type":"dispensary","phone":"702-776-4144","city":"Las Vegas","state":"Nevada","zipcode":"89141","slug":"thrive-cannabis-marketplace-cactus-ave"},{"name":"NuLeaf NV","type":"dispensary","phone":"(775) 404-5323","city":"Incline Village","state":"Nevada","zipcode":"89451","slug":"nuleaf-2-2"},{"name":"Medizin","type":"dispensary","phone":"(702) 248-0346","city":"Las Vegas","state":"Nevada","zipcode":"89118","slug":"planet-13"},{"name":"Pisos - West Las Vegas","type":"delivery","phone":"(702) 367-9333","city":"Las Vegas","state":"Nevada","zipcode":"89147","slug":"pisos-west-las-vegas-5"},{"name":"Community Outreach Medical Center","type":"doctor","phone":"702-657-3873","city":"Las Vegas","state":"Nevada","zipcode":"89104","slug":"community-outreach-medical-center"},{"name":"Las Vegas ReLeaf | Las Vegas Strip","type":"dispensary","phone":"702-209-2400","city":"Las Vegas","state":"Nevada","zipcode":"89104","slug":"las-vegas-releaf"},{"name":"The Apothecary Shoppe Delivery - West Las Vegas","type":"delivery","phone":"702-740-4372","city":"Las Vegas","state":"Nevada","zipcode":"89103","slug":"the-apothecary-shoppe-delivery"},{"name":"Jardín Premium Cannabis Delivery (No Delivery to Hotels & Casinos)","type":"delivery","phone":"702-331-6511","city":"The Strip","state":"Nevada","zipcode":"89109","slug":"jardin-premium-cannabis-delivery"},{"name":"ShowGrow | 215 & Tropicana","type":"delivery","phone":"(702) 227-0511","city":"Las Vegas","state":"Nevada","zipcode":"89113","slug":"showgrow-las-vegas-5"},{"name":"The Dispensary NV - Henderson","type":"delivery","phone":"(702) 827-4982","city":"henderson","state":"Nevada","zipcode":"89014","slug":"the-dispensary-nv-henderson"},{"name":"CannaStarz","type":"dispensary","phone":"702-982-6244","city":"North Las Vegas","state":"Nevada","zipcode":"89101","slug":"cannastarz"},{"name":"RISE Dispensaries Carson City","type":"dispensary","phone":"(775) 461-3909","city":"Carson City","state":"Nevada","zipcode":"89701","slug":"rise"},{"name":"The Dispensary NV - Reno","type":"delivery","phone":"(775) 204-2192","city":"Reno","state":"Nevada","zipcode":"89502","slug":"the-dispensary-nv-reno"},{"name":"The Sanctuary","type":"dispensary","phone":"702-420-2902","city":"Las Vegas","state":"Nevada","zipcode":"89104","slug":"the-sanctuary-1"},{"name":"NuLeaf","type":"delivery","phone":"702-297-5323","city":"Las Vegas","state":"Nevada","zipcode":"89121","slug":"nuleaf-las-vegas-2"},{"name":"Wallflower Cannabis House Delivery","type":"delivery","phone":"7252052714","city":"Henderson","state":"Nevada","zipcode":"89052","slug":"wallflower-delivery"},{"name":"The Sanctuary - West Las Vegas","type":"delivery","phone":"702-420-2902","city":"las vegas","state":"Nevada","zipcode":"92651","slug":"the-sanctuary-west-las-vegas-6"},{"name":"RISE Dispensaries Spanish Springs","type":"dispensary","phone":"775-501-5457","city":"Spanish Springs","state":"Nevada","zipcode":"89441","slug":"rise-spanish-springs"},{"name":"NuLeaf","type":"delivery","phone":"702-297-5323","city":"Las Vegas","state":"Nevada","zipcode":"89117","slug":"nuleaf-las-vegas-3"},{"name":"Top Notch THC","type":"dispensary","phone":"(702) 418-0420","city":"Las Vegas","state":"Nevada","zipcode":"89122","slug":"top-notch-thc-2"},{"name":"Green Cannabis Co.","type":"dispensary","phone":"702-805-1927","city":"Las Vegas","state":"Nevada","zipcode":"89103","slug":"green-cannabis-co"},{"name":"Planet 13","type":"dispensary","phone":"702-815-1313","city":"Las Vegas","state":"Nevada","zipcode":"89109","slug":"planet-13-las-vegas-strip"},{"name":"Nevada Made Marijuana - Henderson","type":"dispensary","phone":"(702) 298-4820","city":"Henderson","state":"Nevada","zipcode":"89052","slug":"nevada-medical-marijuana"},{"name":"Sahara Wellness | West Las Vegas","type":"delivery","phone":"702-478-5533","city":"West Las Vegas","state":"Nevada","zipcode":"89113","slug":"sahara-wellness-west-las-vegas"},{"name":"Lyfe Cann","type":"doctor","phone":"844-399-9420","city":"Las Vegas","state":"Nevada","zipcode":"89120","slug":"lyfe-cann"},{"name":"Nevada Made Marijuana - West Las Vegas","type":"dispensary","phone":"702-298-4840","city":"Las Vegas","state":"Nevada","zipcode":"89117","slug":"nevada-made-marijuana"},{"name":"Jenny's Dispensary - Henderson","type":"dispensary","phone":"(702) 718-0420","city":"Henderson","state":"Nevada","zipcode":"89052","slug":"jenny-s-dispensary-3"},{"name":"The Apothecary Shoppe Delivery - Henderson","type":"delivery","phone":"702-740-4372","city":"Henderson","state":"Nevada","zipcode":"89074","slug":"the-apothecary-shoppe-2"},{"name":"The Source - North Las Vegas","type":"dispensary","phone":"7027573911","city":"North Las Vegas","state":"Nevada","zipcode":"89084","slug":"the-source-dispensary"},{"name":"Pisos - West Las Vegas","type":"delivery","phone":"(702) 367-9333","city":"Las Vegas","state":"Nevada","zipcode":"89113","slug":"pisos-west-las-vegas-4"},{"name":"Las Vegas ReLeaf","type":"delivery","phone":"702-209-2400","city":"Las Vegas","state":"Nevada","zipcode":"89134","slug":"las-vegas-releaf-2-3"},{"name":"Mynt Cannabis - Delivery","type":"delivery","phone":"(775) 686-6968","city":"Reno","state":"Nevada","zipcode":"89501","slug":"mynt-cannabis-delivery"},{"name":"The Sanctuary - West Las Vegas","type":"delivery","phone":"702-420-2902","city":"Las Vegas","state":"Nevada","zipcode":"92651","slug":"the-sanctuary-west-las-vegas-8"},{"name":"The Dispensary NV - Henderson","type":"dispensary","phone":"(702) 476-0420","city":"Henderson","state":"Nevada","zipcode":"89014","slug":"thedispensarynv-henderson"},{"name":"Shango - LAS VEGAS","type":"delivery","phone":"(702) 444-4824","city":"Las Vegas","state":"Nevada","zipcode":"89074","slug":"shango-las-vegas-3"},{"name":"Pisos","type":"delivery","phone":"(702) 367-9333","city":"Las Vegas","state":"Nevada","zipcode":"89119","slug":"pisos-8"},{"name":"Get Legal Vegas - Vegas Reefer Lawyer","type":"doctor","phone":"7029665310","city":"Las Vegas","state":"Nevada","zipcode":"89169","slug":"get-legal-vegas-vegas-reefer-lawyer"},{"name":"The Grove Delivery","type":"delivery","phone":"(702) 463-5777","city":"Las Vegas","state":"Nevada","zipcode":"89123","slug":"the-grove-delivery-2"},{"name":"Shango - LAS VEGAS","type":"dispensary","phone":"(702) 444-4824","city":"Las Vegas","state":"Nevada","zipcode":"89121","slug":"shango-las-vegas"},{"name":"Wallflower Cannabis House Delivery","type":"delivery","phone":"7252052714","city":"Las Vegas","state":"Nevada","zipcode":"89149","slug":"wallflower-cannabis-house-delivery"},{"name":"The Source - Henderson","type":"dispensary","phone":"702-708-2222","city":"Henderson","state":"Nevada","zipcode":"89052","slug":"the-source-2-4"},{"name":"Deep Roots Harvest","type":"dispensary","phone":"(775) 418-5560","city":"West Wendover","state":"Nevada","zipcode":"89883","slug":"deep-roots-harvest-1"},{"name":"Las Vegas ReLeaf","type":"delivery","phone":"702-209-2400","city":"Henderson","state":"Nevada","zipcode":"89074","slug":"las-vegas-releaf-2-2"},{"name":"THRIVE Cannabis Marketplace West Sahara","type":"dispensary","phone":"(702) 690-2997","city":"Las Vegas","state":"Nevada","zipcode":"89102","slug":"thrive-cannabis-marketplace-downtown"},{"name":"Inyo Fine Cannabis Dispensary | Las Vegas","type":"dispensary","phone":"(702) 707-8888","city":"Las Vegas","state":"Nevada","zipcode":"89109","slug":"inyo-fine-cannabis-dispensary"},{"name":"Nevada Made Marijuana - Warm Springs","type":"dispensary","phone":"(702) 298-4830","city":"Las Vegas","state":"Nevada","zipcode":"89119","slug":"nevada-made-marijuana-warm-springs"},{"name":"PMG Medical Consulting","type":"doctor","phone":"702-920-6548","city":"Las Vegas","state":"Nevada","zipcode":"89106","slug":"pmg-medical-consulting"},{"name":"MedMen Las Vegas – Paradise (Paradise & Harmon)","type":"dispensary","phone":"(702) 405-8597","city":"Las Vegas","state":"Nevada","zipcode":"89169","slug":"medmen-las-vegas-the-strip"},{"name":"Top Notch THC","type":"delivery","phone":"(702) 418-0420","city":"Las Vegas","state":"Nevada","zipcode":"89122","slug":"top-notch-thc-1"},{"name":"Sahara Wellness | Las Vegas","type":"dispensary","phone":"702-478-5533","city":"Las Vegas","state":"Nevada","zipcode":"89104","slug":"sahara-wellness"},{"name":"The Sanctuary - West Las Vegas","type":"delivery","phone":"702-420-2902","city":"Las Vegas","state":"Nevada","zipcode":"92651","slug":"the-sanctuary-west-las-vegas-4"},{"name":"Shango - LAS VEGAS","type":"delivery","phone":"(702) 444-4824","city":"Las Vegas","state":"Nevada","zipcode":"89117","slug":"shango-las-vegas-4"},{"name":"NuLeaf","type":"delivery","phone":"702-297-5323","city":"Las Vegas","state":"Nevada","zipcode":"89032","slug":"nuleaf-las-vegas-1"},{"name":"THRIVE Cannabis Marketplace Reno","type":"dispensary","phone":"775-525-3955","city":"Reno","state":"Nevada","zipcode":"89511","slug":"thrive-cannabis-marketplace-reno"},{"name":"Pisos - The Strip","type":"delivery","phone":"(702) 367-9333","city":"Las Vegas","state":"Nevada","zipcode":"89119","slug":"pisos"},{"name":"Reef Dispensaries | Las Vegas Strip","type":"dispensary","phone":"702-475-6520","city":"Las Vegas","state":"Nevada","zipcode":"89109","slug":"reef-dispensaries"},{"name":"Jenny's Dispensary - North Las Vegas","type":"dispensary","phone":"702-718-0420","city":"Las Vegas","state":"Nevada","zipcode":"89030","slug":"jenny-s-dispensary-2-2"},{"name":"Dr. Reefer Is Cheaper!","type":"doctor","phone":"702-420-0420","city":"Henderson","state":"Nevada","zipcode":"89014","slug":"dr-reefer"},{"name":"Wallflower Cannabis House Delivery","type":"delivery","phone":"7252052714","city":"Las Vegas","state":"Nevada","zipcode":"89134","slug":"wallflower-cannabis-house-delivery-2"},{"name":"Newe Cannabis","type":"dispensary","phone":"775-389-2705","city":"Elko","state":"Nevada","zipcode":"89801","slug":"newe-cannabis"},{"name":"The Dispensary NV - Reno","type":"dispensary","phone":"(775) 244-1420","city":"Reno","state":"Nevada","zipcode":"89509","slug":"thedispensarynv-reno"},{"name":"The Sanctuary - North Las Vegas","type":"dispensary","phone":"702-420-2113","city":"Las Vegas","state":"Nevada","zipcode":"89030","slug":"the-sanctuary-north-las-vegas"},{"name":"Wallflower Cannabis House Delivery","type":"delivery","phone":"7252052714","city":"Las Vegas","state":"Nevada","zipcode":"89104","slug":"wallflower-cannabis-house-delivery-1"},{"name":"Nevada Made Marijuana","type":"dispensary","phone":"(702) 298-4810","city":"Laughlin","state":"Nevada","zipcode":"89029","slug":"nevada-medical-marijuana-2"},{"name":"Pisos - The Strip","type":"delivery","phone":"(702) 367-9333","city":"Las Vegas","state":"Nevada","zipcode":"89119","slug":"pisos-7"},{"name":"Pisos - Henderson","type":"delivery","phone":"(702) 367-9333","city":"Henderson","state":"Nevada","zipcode":"89014","slug":"pisos-4"},{"name":"Pisos - West Las Vegas","type":"delivery","phone":"(702) 367-9333","city":"Las vegas","state":"Nevada","zipcode":"89118","slug":"pisos-west-las-vegas-3"},{"name":"Jardin Premium Cannabis Delivery","type":"delivery","phone":"702-331-6511","city":"East Las Vegas","state":"Nevada","zipcode":"89120","slug":"jardin-premium-cannabis-dispensary-2"},{"name":"Essence Cannabis Dispensary | Henderson","type":"dispensary","phone":"(702) 978-7687","city":"Henderson","state":"Nevada","zipcode":"89014","slug":"essence"},{"name":"Inyo Fine Cannabis Dispensary | Las Vegas","type":"delivery","phone":"(702) 707-8888","city":"Las Vegas","state":"Nevada","zipcode":"89121","slug":"inyo-fine-cannabis-dispensary-las-vegas"},{"name":"Pisos - North Las Vegas","type":"delivery","phone":"(702) 367-9333","city":"Las Vegas","state":"Nevada","zipcode":"89030","slug":"pisos-3"},{"name":"The Dispensary NV - West Las Vegas","type":"delivery","phone":"(702) 489-0385","city":"Las Vegas","state":"Nevada","zipcode":"89118","slug":"the-dispensary-nv-west-las-vegas"},{"name":"LUCID - Winnemucca","type":"dispensary","phone":"775-421-1358","city":"Winnemucca","state":"Nevada","zipcode":"89445","slug":"lucid-winnemucca-1"},{"name":"Curaleaf - Las Vegas","type":"dispensary","phone":"(702) 727-3187","city":"Las Vegas","state":"Nevada","zipcode":"89104","slug":"curaleaf-las-vegas"},{"name":"Exhale","type":"dispensary","phone":"(702) 447-1250","city":"Las Vegas","state":"Nevada","zipcode":"89103","slug":"exhale-nevada"},{"name":"NuWu North","type":"dispensary","phone":"702-844-2438","city":"Las Vegas","state":"Nevada","zipcode":"89124","slug":"nuwu-north-2"},{"name":"Mynt Cannabis | Reno North","type":"dispensary","phone":"7756866968","city":"Reno","state":"Nevada","zipcode":"89506","slug":"mynt-cannabis-north"},{"name":"Pisos - West Las Vegas","type":"delivery","phone":"(702) 367-9333","city":"Las Vegas","state":"Nevada","zipcode":"89118","slug":"pisos-west-las-vegas"},{"name":"The Dispensary - Eastern Express","type":"dispensary","phone":"7024760420","city":"Las Vegas","state":"Nevada","zipcode":"89123","slug":"the-dispensary-eastern-express"},{"name":"The Sanctuary - Henderson \/ East Las Vegas","type":"delivery","phone":"702-420-2902","city":"Las Vegas","state":"Nevada","zipcode":"89103","slug":"the-sanctuary-east-las-vegas"},{"name":"Cultivate Las Vegas","type":"dispensary","phone":"702-778-1173","city":"Las Vegas","state":"Nevada","zipcode":"89102","slug":"cultivate-las-vegas"},{"name":"Pisos - West Las Vegas","type":"delivery","phone":"(702) 367-9333","city":"Las Vegas","state":"Nevada","zipcode":"89103","slug":"pisos-2"},{"name":"NuLeaf Las Vegas","type":"dispensary","phone":"702-297-5323","city":"Las Vegas","state":"Nevada","zipcode":"89169","slug":"nuleaf-clark-dispensary"},{"name":"The Sanctuary - The Strip (No Casino Delivery)","type":"delivery","phone":"702-420-2902","city":"Las Vegas","state":"Nevada","zipcode":"89103","slug":"the-sanctuary-906"},{"name":"Zen Leaf Las Vegas","type":"dispensary","phone":"725-217-3020","city":"Las Vegas","state":"Nevada","zipcode":"89148","slug":"zen-leaf"},{"name":"Vegas Treehouse","type":"dispensary","phone":"7025659333","city":"Las Vegas","state":"Nevada","zipcode":"89103","slug":"vegas-treehouse"},{"name":"NuLeaf","type":"delivery","phone":"702-297-5323","city":"Las Vegas","state":"Nevada","zipcode":"89169","slug":"nuleaf-las-vegas"},{"name":"Dr. Green Relief Las Vegas Marijuana Doctors","type":"doctor","phone":"702-998-2838","city":"Las Vegas","state":"Nevada","zipcode":"89128","slug":"dr-green-relief"},{"name":"Deep Roots Harvest","type":"dispensary","phone":"(702) 345-2854","city":"Mesquite","state":"Nevada","zipcode":"89034","slug":"deep-roots-harvest"},{"name":"Jade Cannabis Co.","type":"dispensary","phone":"(775) 437-1491","city":"Reno","state":"Nevada","zipcode":"89502","slug":"blum-reno"},{"name":"Silver Sage Wellness","type":"dispensary","phone":"(702) 802-3757","city":"Las Vegas","state":"Nevada","zipcode":"89102","slug":"silver-sage-wellness"},{"name":"Euphoria Wellness - Marijuana Dispensary","type":"dispensary","phone":"(702) 960-7200","city":"Las Vegas","state":"Nevada","zipcode":"89139-6489","slug":"euphoria-wellness"},{"name":"THRIVE Cannabis Marketplace","type":"dispensary","phone":"702-776-4144","city":"North Las Vegas","state":"Nevada","zipcode":"89032","slug":"thrive-cannabis-marketplace"},{"name":"ShowGrow | 215 & Tropicana","type":"delivery","phone":"(702) 227-0511","city":"Las Vegas","state":"Nevada","zipcode":"89120","slug":"showgrow-las-vegas-7"},{"name":"The Sanctuary - West Las Vegas","type":"delivery","phone":"702-420-2902","city":"Las Vegas","state":"Nevada","zipcode":"92651","slug":"thesanctuary"},{"name":"Sahara Wellness | The Strip","type":"delivery","phone":"702-478-5533","city":"Las Vegas","state":"Nevada","zipcode":"89109","slug":"sahara-wellness-delivery"},{"name":"THRIVE Cannabis Marketplace Downtown","type":"dispensary","phone":"702-776-4144","city":"Las Vegas","state":"Nevada","zipcode":"89102","slug":"thrive-cannabis-marketplace-downtown-353c910c-9dfa-49fb-a72c-1df5c481634e"},{"name":"Kind Releaf Consultants","type":"doctor","phone":"775-224-2344","city":"Reno","state":"Nevada","zipcode":"89502","slug":"kind-releaf-consultants"},{"name":"Pisos - Flamingo & S Maryland","type":"dispensary","phone":"(702) 367-9333","city":"Las Vegas","state":"Nevada","zipcode":"89119","slug":"pisos"},{"name":"Acres Cannabis | Las Vegas","type":"dispensary","phone":"702-399-4200","city":"Las Vegas","state":"Nevada","zipcode":"89102","slug":"acres-cannabis"},{"name":"ShowGrow | 215 & Tropicana","type":"dispensary","phone":"(702) 227-0511","city":"Las Vegas","state":"Nevada","zipcode":"89147","slug":"show-grow-las-vegas"},{"name":"Oasis Cannabis | Las Vegas","type":"dispensary","phone":"(702) 420-2405","city":"Las Vegas","state":"Nevada","zipcode":"89102","slug":"oasis-medical-cannabis"},{"name":"NuWu Cannabis Marketplace","type":"dispensary","phone":"(702) 844-2707","city":"Las Vegas","state":"Nevada","zipcode":"89106","slug":"nuwu-cannabis-marketplace"},{"name":"Zen Leaf North Las Vegas (Now Open!)","type":"dispensary","phone":"7252067937","city":"North Las Vegas","state":"Nevada","zipcode":"89032","slug":"zen-leaf-north-las-vegas"},{"name":"Las Vegas ReLeaf - Summerlin","type":"delivery","phone":"702-209-2400","city":"Las Vegas","state":"Nevada","zipcode":"89147","slug":"las-vegas-releaf-2"},{"name":"Inyo Fine Cannabis Dispensary | Las Vegas","type":"delivery","phone":"(702) 707-8888","city":"Las Vegas","state":"Nevada","zipcode":"89103","slug":"inyo-fine-cannabis-dispensary-las-vegas-1"},{"name":"The Source","type":"dispensary","phone":"702-708-2000","city":"Las Vegas","state":"Nevada","zipcode":"89146","slug":"the-source-2-3"},{"name":"Las Vegas ReLeaf","type":"delivery","phone":"702-209-2400","city":"Las Vegas","state":"Nevada","zipcode":"89104","slug":"las-vegas-releaf"},{"name":"Cohen Medical Centers (Las Vegas)","type":"doctor","phone":"(702) 564-6420","city":"Las Vegas","state":"Nevada","zipcode":"89103","slug":"cohen-medical-centers-las-vegas"},{"name":"MedMen Las Vegas - Downtown","type":"dispensary","phone":"(725) 333-7404","city":"Las Vegas","state":"Nevada","zipcode":"89101","slug":"medmen-las-vegas-downtown-arts-district"},{"name":"Elements Cannabis Center","type":"doctor","phone":"775-378-2894","city":"Reno","state":"Nevada","zipcode":"89502","slug":"elements-cannabis-center-2"},{"name":"Sierra Well - Reno","type":"dispensary","phone":"(775) 800-9355","city":"Reno","state":"Nevada","zipcode":"89502","slug":"sierra-wellness-connection"},{"name":"Pisos - The Strip","type":"delivery","phone":"(702) 367-9333","city":"Las Vegas","state":"Nevada","zipcode":"89119","slug":"pisos-5"},{"name":"Deep Roots Harvest","type":"dispensary","phone":"702-899-4060","city":"North Las Vegas","state":"Nevada","zipcode":"89032","slug":"deep-roots-harvest-2"},{"name":"The Grove","type":"dispensary","phone":"(775) 556-0100","city":"Pahrump","state":"Nevada","zipcode":"89048","slug":"the-grove-3"},{"name":"THRIVE Cannabis Marketplace","type":"delivery","phone":"702-776-4144","city":"Las Vegas","state":"Nevada","zipcode":"89141","slug":"thrive-cannabis-marketplace-1"},{"name":"Oasis Cannabis Delivery","type":"delivery","phone":"(702) 420-2405","city":"Las Vegas","state":"Nevada","zipcode":"89149","slug":"oasis-medical-cannabis"},{"name":"Essence Cannabis Dispensary South Rainbow","type":"dispensary","phone":"725-206-6911","city":"Las Vegas","state":"Nevada","zipcode":"89119","slug":"essence-cannabis-dispensary-rainbow-warm-springs"},{"name":"Ultimate \"U\" Medical LLC","type":"doctor","phone":"702-353-9777","city":"Las Vegas","state":"Nevada","zipcode":"89117","slug":"ultimate-quq-medical-llc"},{"name":"Wallflower Cannabis House","type":"dispensary","phone":"7252052714","city":"Las Vegas","state":"Nevada","zipcode":"89139","slug":"wallflower"},{"name":"Sahara Wellness | East Las Vegas","type":"delivery","phone":"702-478-5533","city":"East Las Vegas","state":"Nevada","zipcode":"89015","slug":"sahara-wellness-east-las-vegas"},{"name":"The Apothecary Shoppe - Las Vegas Strip","type":"dispensary","phone":"702-740-4372","city":"Las Vegas","state":"Nevada","zipcode":"89103","slug":"the-apothecary-shoppe"},{"name":"ShowGrow | 215 & Tropicana","type":"delivery","phone":"(702) 227-0511","city":"Las Vegas","state":"Nevada","zipcode":"89149","slug":"showgrow-las-vegas-6"},{"name":"Essence Cannabis Dispensary | West","type":"dispensary","phone":"(702) 500-1714","city":"Las Vegas","state":"Nevada","zipcode":"89103","slug":"essence-west"},{"name":"Pisos - The Strip","type":"delivery","phone":"(702) 367-9333","city":"Las Vegas","state":"Nevada","zipcode":"89119","slug":"pisos-6"},{"name":"Nevada Wellness Center","type":"dispensary","phone":"(702) 470-2077","city":"Las Vegas","state":"Nevada","zipcode":"89102","slug":"nevada-wellness-center"},{"name":"Greenleaf Wellness","type":"dispensary","phone":"(775) 470-5255","city":"Sparks","state":"Nevada","zipcode":"89431","slug":"greenleaf-wellness"},{"name":"Reef Dispensaries - Sparks","type":"dispensary","phone":"775-293-4643","city":"Sparks","state":"Nevada","zipcode":"89431","slug":"reef-dispensaries-2"},{"name":"The Source","type":"dispensary","phone":"775-473-2555","city":"Reno","state":"Nevada","zipcode":"89511","slug":"the-source-4"},{"name":"The Sanctuary - North Las Vegas","type":"delivery","phone":"702-420-2902","city":"Las Vegas","state":"Nevada","zipcode":"92651","slug":"thesanctuary-1"},{"name":"Sahara Wellness | North Las Vegas","type":"delivery","phone":"702-478-5533","city":"North Las Vegas","state":"Nevada","zipcode":"89032","slug":"sahara-wellness-north-las-vegas"},{"name":"Cookies Las Vegas","type":"dispensary","phone":"(702) 978-7591","city":"Las Vegas","state":"Nevada","zipcode":"89104","slug":"essence-dispensary-the-strip"},{"name":"Wildflower Medical Consultants","type":"doctor","phone":"(702) 773-1144","city":"Las Vegas","state":"Nevada","zipcode":"89120","slug":"wildflower-medical-consultants"},{"name":"Essence Cannabis Dispensary I South Durango","type":"dispensary","phone":"(775) 877-9367","city":"Las Vegas","state":"Nevada","zipcode":"89113","slug":"essence-cannabis-dispensary-i-south-durango"},{"name":"Paradise Clinic","type":"doctor","phone":"702 255-6272","city":"Las Vegas","state":"Nevada","zipcode":"89146","slug":"paradise-clinic"},{"name":"The Dispensary NV - West Las Vegas","type":"dispensary","phone":"7024760420","city":"Las Vegas","state":"Nevada","zipcode":"89118","slug":"thedispensarynv"},{"name":"Jade Cannabis Co.","type":"dispensary","phone":"(702) 536-2586","city":"Las Vegas","state":"Nevada","zipcode":"89109","slug":"blum-las-vegas-2"}]}}