{"meta":{"total_listings":98},"data":{"listings":[{"name":"RA Pain Services","type":"doctor","phone":"(856) 228-7246","city":"Blackwood","state":"New Jersey","zipcode":"08012","slug":"ra-pain-services"},{"name":"Dr. Joel Meer","type":"doctor","phone":"(973) 622-0888","city":"Newark","state":"New Jersey","zipcode":"07105","slug":"dr-j-meer"},{"name":"West Hudson Medical Group","type":"doctor","phone":"(201) 991-4544","city":"Kearny","state":"New Jersey","zipcode":"07032","slug":"west-hudson-medical-group"},{"name":"Dr. Bernard Spier","type":"doctor","phone":"(973) 763-2203","city":"South Orange","state":"New Jersey","zipcode":"07079","slug":"dr-b-spier"},{"name":"Dr. Alexander Goldberg","type":"doctor","phone":"(732) 577-1066","city":"Manalapan","state":"New Jersey","zipcode":"07726","slug":"dr-a-goldberg"},{"name":"The Botanist - Atlantic City","type":"dispensary","phone":"609-454-6846","city":"Atlantic City","state":"New Jersey","zipcode":"08401","slug":"the-botanist-atlantic-city"},{"name":"Dr. M. Ingber","type":"doctor","phone":"(973) 537-5557","city":"Denville","state":"New Jersey","zipcode":"07834","slug":"dr-m-ingber"},{"name":"Dr. Ofer Wellisch","type":"doctor","phone":"201-894-3595","city":"Englewood","state":"New Jersey","zipcode":"07624","slug":"dr-o-wellisch"},{"name":"Dr. G. Klingsberg","type":"doctor","phone":"(201) 503-0007","city":"Englewood","state":"New Jersey","zipcode":"07631","slug":"dr-g-klingsberg"},{"name":"Dr. P. Stein","type":"doctor","phone":"(201) 343-2769","city":"Montclair","state":"New Jersey","zipcode":"07042","slug":"dr-p-stein"},{"name":"North American Spine & Pain - Blackwood","type":"doctor","phone":"8565164566","city":"Blackwood","state":"New Jersey","zipcode":"08012","slug":"naspac-blackwood-nj"},{"name":"Dr. Trevor Layne","type":"doctor","phone":"(973) 731-2201","city":"West Orange","state":"New Jersey","zipcode":"07052","slug":"dr-t-layne"},{"name":"Relievus","type":"doctor","phone":"888-985-2727","city":"Toms River","state":"New Jersey","zipcode":"08753","slug":"relievus-84a50c20-27de-4a7d-a13a-d0e80143dcfc"},{"name":"Dr. Robin Iverson","type":"doctor","phone":"(201) 634-5555","city":"Paramus","state":"New Jersey","zipcode":"07652","slug":"dr-r-iverson"},{"name":"Dr. R. Tikoo","type":"doctor","phone":"(201) 869-2707","city":"North Bergen","state":"New Jersey","zipcode":"07047","slug":"dr-r-tikoo"},{"name":"Julius Mingroni DO","type":"doctor","phone":"856-506-6565","city":"Sewell","state":"New Jersey","zipcode":"08080","slug":"julius-mingroni"},{"name":"Center For Alternative Medicine","type":"doctor","phone":"856-343-4028","city":"Mt Laurel","state":"New Jersey","zipcode":"08054","slug":"center-for-alternative-medicine"},{"name":"Dr. Sanjay Jain","type":"doctor","phone":"(908) 852-0107","city":"Hackettstown","state":"New Jersey","zipcode":"07840","slug":"dr-s-jain"},{"name":"Amazing Grace Medical center","type":"doctor","phone":"609-582-0899","city":"Phillipsburg","state":"New Jersey","zipcode":"08865","slug":"amazing-grace-medical-center-1"},{"name":"The Apothecarium - Phillipsburg","type":"dispensary","phone":"908-777-7420","city":"Phillipsburg","state":"New Jersey","zipcode":"08865","slug":"the-apothecarium-phillipsburg-1"},{"name":"Dr. Brian Shaffer","type":"doctor","phone":"(609) 436-5900","city":"Lawrenceville","state":"New Jersey","zipcode":"08648","slug":"dr-b-shaffer"},{"name":"Dr. Leslie Linet","type":"doctor","phone":"(609) 430-9099","city":"Princeton","state":"New Jersey","zipcode":"08540","slug":"dr-l-linet"},{"name":"Dr. Radu Kramer","type":"doctor","phone":"(201) 967-0800","city":"Oradell","state":"New Jersey","zipcode":"07649","slug":"dr-r-kramer"},{"name":"Dr. W. Gluckman","type":"doctor","phone":"(862) 242-8053","city":"Morris Plains","state":"New Jersey","zipcode":"07950","slug":"dr-w-gluckman"},{"name":"Dr. Anthony Cioce","type":"doctor","phone":"(973) 267-1010","city":"Morristown","state":"New Jersey","zipcode":"07960","slug":"dr-a-cioce"},{"name":"Canna Care Docs - Linwood","type":"doctor","phone":"(856) 637-2204","city":"Linwood","state":"New Jersey","zipcode":"08221","slug":"canna-care-docs-5956"},{"name":"Mira Shin, M.D.","type":"doctor","phone":"201-261-1000","city":"Fort Lee","state":"New Jersey","zipcode":"07024","slug":"mira-shin-m-d"},{"name":"Dr. Isaak Halegoua","type":"doctor","phone":"(609) 599-5050","city":"Trenton","state":"New Jersey","zipcode":"08625","slug":"dr-i-halegoua"},{"name":"Dr. Boris Furman","type":"doctor","phone":"(732) 851-5546","city":"Manalapan","state":"New Jersey","zipcode":"07726","slug":"dr-b-furman"},{"name":"North American Spine & Pain - Princeton","type":"doctor","phone":"6093560744","city":"Princeton","state":"New Jersey","zipcode":"08540","slug":"naspac-princeton-nj"},{"name":"North American Spine & Pain - Tom's River","type":"doctor","phone":"7325034373","city":"Tom's River","state":"New Jersey","zipcode":"08755","slug":"naspac-tom-s-river"},{"name":"Valley Medical Group","type":"doctor","phone":"(201) 930-0900","city":"Park Ridge","state":"New Jersey","zipcode":"07656","slug":"dr-j-hyon"},{"name":"Dr. Maged Ghattas","type":"doctor","phone":"(732) 336-1806","city":"Freehold","state":"New Jersey","zipcode":"07728","slug":"dr-m-ghattas"},{"name":"Dr. David D'Ambrosio","type":"doctor","phone":"(732) 557-8148","city":"Toms River","state":"New Jersey","zipcode":"08755","slug":"dr-d-d-ambrosio"},{"name":"Dr. Anselm Igbanugo","type":"doctor","phone":"(732) 281-3100","city":"Toms River","state":"New Jersey","zipcode":"08755","slug":"dr-a-igbanugo"},{"name":"The Green Alternative Doctor","type":"doctor","phone":"8563184100","city":"Turnersville","state":"New Jersey","zipcode":"08012","slug":"the-green-alternative-doctor-2"},{"name":"Dr. Byong Park","type":"doctor","phone":"(201) 460-0063","city":"Lyndhurst","state":"New Jersey","zipcode":"07071","slug":"dr-b-park"},{"name":"Ascend - Montclair","type":"dispensary","phone":"973-337-5670","city":"Montclair","state":"New Jersey","zipcode":"07042","slug":"ascend-montclair"},{"name":"Dr. Paul Kostoulakos","type":"doctor","phone":"(732) 774-8282","city":"Neptune","state":"New Jersey","zipcode":"07753","slug":"dr-p-kostoulakos"},{"name":"Garden State Dispensary - Union","type":"dispensary","phone":"(848) 999-2005","city":"Union","state":"New Jersey","zipcode":"07083","slug":"garden-state-dispensary-union"},{"name":"Alternative Weed Therapy","type":"doctor","phone":"973-761-3820","city":"West Orange","state":"New Jersey","zipcode":"07052","slug":"alternative-weed-therapy"},{"name":"Relievus","type":"doctor","phone":"888-985-2727","city":"Hamilton Township","state":"New Jersey","zipcode":"08619","slug":"relievus-4"},{"name":"Wyckoff Wellness Center","type":"doctor","phone":"201-848-7700","city":"Wyckoff","state":"New Jersey","zipcode":"07481","slug":"wyckoff-wellness-center"},{"name":"Dr. Joseph Jimenez M.D.","type":"doctor","phone":"(609) 588-8600","city":"Lawrenceville","state":"New Jersey","zipcode":"08648","slug":"dr-joseph-jimenez-md"},{"name":"RISE Dispensaries Paterson","type":"dispensary","phone":"973-440-2717","city":"Paterson","state":"New Jersey","zipcode":"07514","slug":"rise-paterson"},{"name":"Dr. D. Blady","type":"doctor","phone":"(973) 743-9555","city":"Glen Ridge","state":"New Jersey","zipcode":"07028","slug":"dr-d-blady"},{"name":"Dr. S. Akhtar","type":"doctor","phone":"(201) 339-1685","city":"Bayonne","state":"New Jersey","zipcode":"07002","slug":"dr-s-akhtar"},{"name":"Dr. M. Abbasi","type":"doctor","phone":"(973) 316-1701","city":"Denville","state":"New Jersey","zipcode":"07834","slug":"dr-m-abbasi"},{"name":"Dr. Richard Kang","type":"doctor","phone":"(201) 729-0001","city":"Lyndhurst","state":"New Jersey","zipcode":"07071","slug":"dr-r-kang"},{"name":"North American Spine & Pain - Hainesport","type":"doctor","phone":"6098453988","city":"Hainesport","state":"New Jersey","zipcode":"08036","slug":"north-american-spine-pain-2"},{"name":"Zen Leaf Lawrence","type":"dispensary","phone":"(609) 212-4351","city":"Lawrence Township","state":"New Jersey","zipcode":"08648","slug":"zen-leaf-lawrence-coming-soon"},{"name":"Dr. Brandon Howard","type":"doctor","phone":"(201) 336-0095","city":"Hackensack","state":"New Jersey","zipcode":"07601","slug":"dr-b-howard"},{"name":"Dr. Moshe Rothkopf M.D.","type":"doctor","phone":"(732) 363-2244","city":"Lakewood","state":"New Jersey","zipcode":"08701","slug":"moshe-rothkopf-md"},{"name":"Curaleaf - Bellmawr","type":"dispensary","phone":"(856) 933-8700","city":"Bellmawr","state":"New Jersey","zipcode":"08031","slug":"curaleaf-bellmawr"},{"name":"Dr. R. Patitucci","type":"doctor","phone":"(856) 455-6770","city":"Bridgeton","state":"New Jersey","zipcode":"08302","slug":"dr-r-patitucci"},{"name":"Sami Yasin, MD","type":"doctor","phone":"(973) 875-7121","city":"Wantage","state":"New Jersey","zipcode":"07461","slug":"sami-yasin"},{"name":"Dr. Steven Gillon","type":"doctor","phone":"(201) 569-0555","city":"Englewood","state":"New Jersey","zipcode":"07631","slug":"dr-s-gillon"},{"name":"Relievus","type":"doctor","phone":"888-985-2727","city":"Neptune","state":"New Jersey","zipcode":"07753","slug":"relievus-6"},{"name":"The Botanist - Williamstown","type":"dispensary","phone":"8564783530","city":"Williamstown","state":"New Jersey","zipcode":"08094","slug":"the-botanist-williamstown"},{"name":"Dr. Marc Cantillon","type":"doctor","phone":"(973) 462-0496","city":"Livingston","state":"New Jersey","zipcode":"07039","slug":"dr-m-cantillon"},{"name":"Dr. William Onwuka","type":"doctor","phone":"(201) 342-2212","city":"Hackensack","state":"New Jersey","zipcode":"07601","slug":"dr-w-onwuka"},{"name":"Dr. D. Roth","type":"doctor","phone":"(973) 379-4496","city":"Short Hills","state":"New Jersey","zipcode":"07078","slug":"dr-d-roth"},{"name":"Canna Care Docs - Princeton","type":"doctor","phone":"(856) 637-3305","city":"Princeton","state":"New Jersey","zipcode":"08540","slug":"canna-care-docs-5958"},{"name":"Dr. Samuel Schenker","type":"doctor","phone":"(732) 341-2822","city":"Toms River","state":"New Jersey","zipcode":"08755","slug":"dr-s-schenker"},{"name":"Dr. Louis Tsarouhas","type":"doctor","phone":"(609) 882-9333","city":"Lawrenceville","state":"New Jersey","zipcode":"08648","slug":"dr-l-tsarouhas"},{"name":"Canna Care Doc - New Jersey","type":"doctor","phone":"866-846-2420","city":"Sommerville","state":"New Jersey","zipcode":"08876","slug":"canna-care-doc-new-jersey"},{"name":"North American Spine & Pain - East Orange","type":"doctor","phone":"9084256574","city":"East Orange","state":"New Jersey","zipcode":"07018","slug":"naspac-east-orange-nj"},{"name":"Dr. Syed Zaidi","type":"doctor","phone":"(732) 761-1900","city":"Freehold","state":"New Jersey","zipcode":"07728","slug":"dr-s-zaidi"},{"name":"Relievus","type":"doctor","phone":"888-985-2727","city":"Woodbury","state":"New Jersey","zipcode":"08097","slug":"relievus-9"},{"name":"Dr. Howard Weiss","type":"doctor","phone":"(973) 898-1770","city":"Morristown","state":"New Jersey","zipcode":"07960","slug":"dr-h-weiss"},{"name":"Dr. James Fischkoff","type":"doctor","phone":"(732) 780-7650","city":"Freehold","state":"New Jersey","zipcode":"07728","slug":"dr-j-fischkoff"},{"name":"Zen Leaf Elizabeth","type":"dispensary","phone":"908-280-8642","city":"Elizabeth","state":"New Jersey","zipcode":"07201","slug":"zen-leaf-elizabeth"},{"name":"RISE Dispensaries Paramus","type":"dispensary","phone":"973-996-4570","city":"Paramus","state":"New Jersey","zipcode":"07652","slug":"rise-dispensaries-paramus"},{"name":"Princeton Integrative Health","type":"doctor","phone":"609-512-1468","city":"Lawrenceville","state":"New Jersey","zipcode":"08648","slug":"princeton-integrative-health-2"},{"name":"Relievus","type":"doctor","phone":"888-985-2727","city":"Jackson","state":"New Jersey","zipcode":"08527","slug":"relievus-5"},{"name":"Dr. Thomas Bellavia","type":"doctor","phone":"(201) 375-6016","city":"Hasbrouck Heights","state":"New Jersey","zipcode":"07604","slug":"dr-t-bellavia"},{"name":"Relievus","type":"doctor","phone":" 888-985-2727","city":"Cherry Hill","state":"New Jersey","zipcode":"08034","slug":"relievus"},{"name":"Dr. Philippe Douyon","type":"doctor","phone":"(201) 343-6676","city":"Hackensack","state":"New Jersey","zipcode":"07601","slug":"dr-p-douyon"},{"name":"The Apothecarium Maplewood","type":"dispensary","phone":"267-570-6229","city":"Maplewood","state":"New Jersey","zipcode":"07040","slug":"apothecarium-maplewood"},{"name":"Zen Leaf Neptune","type":"dispensary","phone":"7328601492","city":"Neptune Township","state":"New Jersey","zipcode":"07753","slug":"zen-leaf-neptune"},{"name":"Dr. Heather Robberson","type":"doctor","phone":"(732) 886-6002","city":"Lakewood","state":"New Jersey","zipcode":"08701","slug":"dr-h-robberson"},{"name":"Relievus","type":"doctor","phone":"888-985-2727","city":"Sewell","state":"New Jersey","zipcode":"08080","slug":"relievus-7"},{"name":"Herbal MD","type":"doctor","phone":"609-301-8635","city":"Princeton","state":"New Jersey","zipcode":"08540","slug":"herbal-md"},{"name":"Dr. Pierre Guibor","type":"doctor","phone":"(201) 392-3438","city":"Secaucus","state":"New Jersey","zipcode":"07094","slug":"dr-p-guibor"},{"name":"Dr. J. Kelly","type":"doctor","phone":"(973) 338-1900","city":"Bloomfield","state":"New Jersey","zipcode":"07003","slug":"dr-j-kelly"},{"name":"Harmony Dispensary","type":"dispensary","phone":"201.356.7268","city":"Secaucus","state":"New Jersey","zipcode":"07094","slug":"harmony-dispensary"},{"name":"Urban Leaf","type":"store","phone":"888-611-7065","city":"Paterson","state":"New Jersey","zipcode":"07501","slug":"urban-leaf-dispensary"},{"name":"North American Spine & Pain - Somer's Point","type":"doctor","phone":"7325034373","city":"Somer's Point","state":"New Jersey","zipcode":"08244","slug":"naspac-somer-s-point"},{"name":"Vitamed Family Practice","type":"doctor","phone":"(201) 963-0800","city":"Jersey City","state":"New Jersey","zipcode":"07306","slug":"vitamed-family-practice"},{"name":"The Botanist - Egg Harbor Township","type":"dispensary","phone":"(609) 277-7547","city":"Egg Harbor Township","state":"New Jersey","zipcode":"08234","slug":"compassionate-care-foundation"},{"name":"Garden State Dispensary - Woodbridge","type":"dispensary","phone":"(848) 999-2005","city":"Woodbridge","state":"New Jersey","zipcode":"07095","slug":"garden-state-dispensary"},{"name":"American Therapeutics, LLC","type":"doctor","phone":"973-591-1835","city":"Clifton","state":"New Jersey","zipcode":"07013","slug":"american-therapeutics-llc"},{"name":"Dr. Michael Rothman M.D. \/ MD Wellness","type":"doctor","phone":"(732) 268-7663","city":"Spring Lake","state":"New Jersey","zipcode":"07762","slug":"dr-michael-rothman-md"},{"name":"Dr. Alfred Kulik","type":"doctor","phone":"(201) 224-2020","city":"Fort Lee","state":"New Jersey","zipcode":"07024","slug":"dr-a-kulik"},{"name":"Relievus","type":"doctor","phone":"888-985-2727","city":"Burlington","state":"New Jersey","zipcode":"08016","slug":"relievus-10"},{"name":"Breakwater Treatment & Wellness","type":"dispensary","phone":"732-703-7300","city":"Cranbury Township","state":"New Jersey","zipcode":"08512","slug":"breakwater-treatment-wellness"},{"name":"Dr. Frank Casella","type":"doctor","phone":"(973) 729-2121","city":"Sparta","state":"New Jersey","zipcode":"07841","slug":"dr-f-casella"},{"name":"Dr. Ariz Mehta","type":"doctor","phone":"(201) 656-4324","city":"Jersey City","state":"New Jersey","zipcode":"07306","slug":"dr-a-mehta"}]}}