{"meta":{"total_listings":140},"data":{"listings":[{"name":"JB Medical Consulting","type":"doctor","phone":"(419) 350-4170","city":"Toledo","state":"Ohio","zipcode":"43613","slug":"jb-medical-consulting"},{"name":"The Forest Springfield","type":"dispensary","phone":"937-471-4440","city":"Springfield","state":"Ohio","zipcode":"45504","slug":"the-forest-ohio"},{"name":"The Botanist - Akron","type":"dispensary","phone":"(330) 368-2144","city":"Akron","state":"Ohio","zipcode":"44308","slug":"greenleaf-apothecary-akron"},{"name":"Ohio Valley Natural Relief LLC","type":"dispensary","phone":"(740) 792-4267","city":"Wintersville","state":"Ohio","zipcode":"43953","slug":"ohio-valley-natural-relief-llc"},{"name":"Duber Medical LLC","type":"doctor","phone":"833-977-2424","city":"Canton","state":"Ohio","zipcode":"44799","slug":"duber-medical-llc-1"},{"name":"Vital Balance LLC","type":"doctor","phone":"(513) 394-2524","city":"Cincinnati","state":"Ohio","zipcode":"45242","slug":"vital-balance-llc"},{"name":"Ohio Marijuana Card","type":"doctor","phone":"(614) 695-6835","city":"Dublin","state":"Ohio","zipcode":"43017","slug":"ohio-marijuana-card-3"},{"name":"InteCare Medical Clinic","type":"doctor","phone":"(937) 874-5766","city":"Fairborn","state":"Ohio","zipcode":"45324","slug":"intecare-medical-clinic"},{"name":"The Botanist - Cleveland","type":"dispensary","phone":"(440) 671-0420","city":"Cleveland","state":"Ohio","zipcode":"44114","slug":"greenleaf-apothecary-cleveland"},{"name":"Green Harvest Health","type":"doctor","phone":"4402263398","city":"Broadview Heights","state":"Ohio","zipcode":"44147","slug":"green-harvest-health-3"},{"name":"Debbie's Dispensary - Hillsboro","type":"dispensary","phone":"(937) 402-4016","city":"Hillsboro","state":"Ohio","zipcode":"45133","slug":"debbie-s-dispensary-hillsboro"},{"name":"Dr. Mark Neumann","type":"doctor","phone":"(419) 474-4700","city":"Toledo","state":"Ohio","zipcode":"43613","slug":"dr-mark-neumann"},{"name":"Family Healthcare Partners","type":"doctor","phone":"740-868-8428","city":"Zanesville","state":"Ohio","zipcode":"43701","slug":"family-healthcare-partners"},{"name":"Alternative Medicinal Solutions \/ Dr. Charles Barrett","type":"doctor","phone":"(330) 407-7688","city":"Dover","state":"Ohio","zipcode":"44622","slug":"alternative-medicinal-solutions-dr-charles-barrett"},{"name":"Strawberry Fields - Monroe","type":"dispensary","phone":"513-506-1857","city":"Monroe","state":"Ohio","zipcode":"45050","slug":"strawberry-fields-monroe"},{"name":"Ohio Green Team","type":"doctor","phone":"9376264699","city":"Carroll","state":"Ohio","zipcode":"43112","slug":"ohio-green-team-3"},{"name":"Ohio Cannabis Connection","type":"doctor","phone":"(937) 938-9721","city":"Kettering","state":"Ohio","zipcode":"45440","slug":"ohio-cannabis-connection-3"},{"name":"Have A Heart Cincy","type":"dispensary","phone":"513-440-6340","city":"Cincinnati","state":"Ohio","zipcode":"45216","slug":"have-a-heart-cincy"},{"name":"Strawberry Fields - Marietta","type":"dispensary","phone":"740-238-7603","city":"Marietta","state":"Ohio","zipcode":"45750","slug":"strawberry-fields-marietta"},{"name":"MediZen Health","type":"doctor","phone":"614-266-9922","city":"Columbus","state":"Ohio","zipcode":"43201","slug":"medizen-health"},{"name":"Cleveland Cannabis Doctors","type":"doctor","phone":"(216) 245-7488","city":"Beachwood","state":"Ohio","zipcode":"44122","slug":"cleveland-cannabis-doctors-2"},{"name":"Sunnyside Medical Marijuana Dispensary – Marion","type":"dispensary","phone":"740-672-3706","city":"Marion","state":"Ohio","zipcode":"43302","slug":"verdant-creations-marion"},{"name":"Releaf Health","type":"doctor","phone":"(614) 437-8382","city":"Columbus","state":"Ohio","zipcode":"43212","slug":"releaf-health"},{"name":"Sunnyside Medical Marijuana Dispensary – Chillicothe","type":"dispensary","phone":"740-375-2180","city":"Chillicothe","state":"Ohio","zipcode":"45601","slug":"verdant-creations-chillicothe"},{"name":"Compassionate Cleveland","type":"doctor","phone":"(216) 586-2606","city":"Beachwood","state":"Ohio","zipcode":"44122","slug":"compassionate-cleveland"},{"name":"RISE Dispensaries Lorain","type":"dispensary","phone":"440-363-0237","city":"Lorain","state":"Ohio","zipcode":"44053","slug":"rise-lorain"},{"name":"Herbology - Newark (Now Open!)","type":"dispensary","phone":"740-899-8036","city":"Newark","state":"Ohio","zipcode":"43055","slug":"herbology-newark"},{"name":"Bloom Medicinals - Painesville","type":"dispensary","phone":"(440) 299 1019","city":"Painesville","state":"Ohio","zipcode":"44077","slug":"bloom-medicinals-cannabis-dispensary-painesville"},{"name":"Harvest of Athens (Coming Soon)","type":"dispensary","phone":"Coming Soon","city":"Athens","state":"Ohio","zipcode":"45701","slug":"harvest-of-athens"},{"name":"Patient Focus","type":"doctor","phone":"(216) 438-0523","city":"Heath","state":"Ohio","zipcode":"43056","slug":"patient-focus-8"},{"name":"Medical Marijuana Doctors","type":"doctor","phone":"(614) 920-1000","city":"Canal Winchester","state":"Ohio","zipcode":"43110","slug":"medical-marijuana-doctors-1"},{"name":"Ohio Marijuana Card","type":"doctor","phone":"(740) 331-4992","city":"Athens","state":"Ohio","zipcode":"45701","slug":"ohio-marijuana-card-10"},{"name":"Ohio Green Releaf","type":"doctor","phone":"(513) 975-0001","city":"Cincinnati","state":"Ohio","zipcode":"45238","slug":"ohio-green-releaf"},{"name":"Elevation Wellness","type":"doctor","phone":"7348790970","city":"Toledo","state":"Ohio","zipcode":"48197","slug":"elevation-station-ohio"},{"name":"AccuDoc Medical Marijuana Doctor","type":"doctor","phone":"(513) 845-4558","city":"Harrison","state":"Ohio","zipcode":"45030","slug":"accudoc-medical-marijuana-doctor"},{"name":"Green Care Medical","type":"doctor","phone":"(708) 966-3030","city":"Cuyahoga Falls","state":"Ohio","zipcode":"44221","slug":"green-care-medical-8"},{"name":"Ohio Cannabis Company","type":"dispensary","phone":"(740) 295-9182","city":"Coshocton","state":"Ohio","zipcode":"43812","slug":"ohio-cannabis-clinic-llc"},{"name":"Summit Releaf","type":"doctor","phone":"(330) 926-6911","city":"Akron","state":"Ohio","zipcode":"44321","slug":"summit-releaf-2"},{"name":"Strawberry Fields - Dayton","type":"dispensary","phone":"937-233-0642","city":"Dayton","state":"Ohio","zipcode":"45410","slug":"strawberry-fields-dayton"},{"name":"Serenity Medical Evaluations","type":"doctor","phone":"877 765 0109","city":"Cleveland","state":"Ohio","zipcode":"20815","slug":"serenity-medical-evaluations-46"},{"name":"RISE Dispensaries Toledo","type":"dispensary","phone":"(419) 365-2558","city":"Toledo","state":"Ohio","zipcode":"43613","slug":"rise-toledo"},{"name":"Herbology - Cuyahoga Falls (Now Open!)","type":"dispensary","phone":"330-899-4933","city":"Cuyahoga Falls","state":"Ohio","zipcode":"44221","slug":"herbology-cuyahoga-falls"},{"name":"DocMJ","type":"doctor","phone":"(877) 899-3626","city":"Cleveland","state":"Ohio","zipcode":"44114","slug":"docmj-31"},{"name":"Zen Leaf Canton","type":"dispensary","phone":"(234) 901-5900","city":"Canton","state":"Ohio","zipcode":"44707","slug":"zen-leaf-canton"},{"name":"DocMJ","type":"doctor","phone":"(877) 899-3626","city":"Dayton","state":"Ohio","zipcode":"45414","slug":"docmj-32"},{"name":"Ohio Marijuana Card","type":"doctor","phone":"(419) 216-2996","city":"Toledo","state":"Ohio","zipcode":"43606","slug":"ohio-marijuana-card-9"},{"name":"Terrasana Dispensaries - Columbus","type":"dispensary","phone":"(614) 434-6929","city":"Columbus","state":"Ohio","zipcode":"43215","slug":"terrasana-dispensaries-columbus"},{"name":"RISE Dispensaries Cleveland","type":"dispensary","phone":"(216) 243-0165","city":"Cleveland","state":"Ohio","zipcode":"44115","slug":"rise-cleveland"},{"name":"Ohio Marijuana Card","type":"doctor","phone":"(937) 202-4110","city":"Beavercreek","state":"Ohio","zipcode":"45432","slug":"ohio-marijuana-card-4"},{"name":"AccuDoc Medical Marijuana Doctor","type":"doctor","phone":"(513) 407-7203","city":"Cincinnati","state":"Ohio","zipcode":"45216","slug":"accudoc-medical-marijuana-doctor-cincinnati"},{"name":"DocMJ","type":"doctor","phone":"(877) 899-3626","city":"Columbus","state":"Ohio","zipcode":"43215","slug":"docmj-29"},{"name":"The Botanist - Columbus","type":"dispensary","phone":"(614) 924-2155","city":"Columbus","state":"Ohio","zipcode":"43215","slug":"greenleaf-apothecary-columbus"},{"name":"Serendipity Community Care LLC","type":"doctor","phone":"937-589-2222","city":"Dayton","state":"Ohio","zipcode":"45402","slug":"serendipity-community-care-llc-4"},{"name":"Verilife - Hillsboro","type":"dispensary","phone":"(937) 402-4016","city":"Hillsboro","state":"Ohio","zipcode":"45133","slug":"verilife-hillsboro"},{"name":"Omni Medical Services","type":"doctor","phone":"(888) 470-0008","city":"Beachwood","state":"Ohio","zipcode":"44122","slug":"omni-medical-services-2"},{"name":"Ohio Holistic Healthcare","type":"doctor","phone":"(440) 340-1970","city":"Amherst","state":"Ohio","zipcode":"44001","slug":"dr-corie-kovach"},{"name":"Omni Medical Services","type":"doctor","phone":"(888) 470-0008","city":"Toledo","state":"Ohio","zipcode":"43604","slug":"omni-medical-services"},{"name":"Sunnyside Medical Marijuana Dispensary – Cincinnati","type":"dispensary","phone":"(513) 214-1954","city":"Cincinnati","state":"Ohio","zipcode":"45213","slug":"verdant-creations-cincinnati"},{"name":"About Wellness Ohio (Now Open)","type":"dispensary","phone":"(513) 970-2080","city":"Lebanon","state":"Ohio","zipcode":"45036","slug":"about-wellness-ohio"},{"name":"Patient Focus","type":"doctor","phone":"(216) 438-0523","city":"Middleburg Heights","state":"Ohio","zipcode":"44130","slug":"patient-focus-5"},{"name":"RISE Dispensaries Lakewood (Madison)","type":"dispensary","phone":"216-273-0088","city":"Lakewood","state":"Ohio","zipcode":"44107","slug":"rise-lakewood-madison"},{"name":"DocMJ","type":"doctor","phone":"(877) 899-3626","city":"Monroe","state":"Ohio","zipcode":"45050","slug":"docmj-14fd302f-5630-4ad6-a3b1-f527839cea8e"},{"name":"Bloom Medicinals - Columbus","type":"dispensary","phone":"614-407-1616","city":"Columbus","state":"Ohio","zipcode":"43228","slug":"bloom-medicinals-cannabis-dispensary-columbus"},{"name":"Alternative Medicine Centers of America","type":"doctor","phone":"(877) 603-4420","city":"Sandusky","state":"Ohio","zipcode":"44870","slug":"alternative-medicine-centers-of-america-2"},{"name":"DocMJ","type":"doctor","phone":"(877) 899-3626","city":"Springfield Township","state":"Ohio","zipcode":"45216","slug":"docmj-30"},{"name":"Cheap Ohio Marijuana Cards","type":"doctor","phone":"740-275-6348","city":"Steubenville","state":"Ohio","zipcode":"43952","slug":"sunset-physicians-llc"},{"name":"Green Harvest Health","type":"doctor","phone":"(614) 636-5003","city":"Pickerington","state":"Ohio","zipcode":"43147","slug":"green-harvest-health"},{"name":"Harvest of Ohio - Columbus (Coming Soon)","type":"dispensary","phone":"Coming Soon","city":"Columbus","state":"Ohio","zipcode":"43202","slug":"harvest-of-ohio-columbus"},{"name":"Terrasana Dispensaries - Garfield Heights","type":"dispensary","phone":"(216) 232-2527","city":"Garfield Heights","state":"Ohio","zipcode":"44125","slug":"terrasana-dispensaries-garfield-heights"},{"name":"The Boster Center for Multiple Sclerosis","type":"doctor","phone":"6143043444","city":"Columbus","state":"Ohio","zipcode":"43235","slug":"the-boster-center-for-multiple-sclerosis"},{"name":"gLeaf - Warren","type":"dispensary","phone":"(330) 469-9499","city":"Warren","state":"Ohio","zipcode":"44484","slug":"gleaf-warren"},{"name":"Bloom Medicinals - Maumee","type":"dispensary","phone":"567-296-9082","city":"Maumee","state":"Ohio","zipcode":"43537","slug":"bloom-medicinals-cannabis-dispensary-maumee"},{"name":"Verilife - Wapakoneta","type":"dispensary","phone":"(419) 216-9901","city":"Wapakoneta","state":"Ohio","zipcode":"45895","slug":"verilife-wapakoneta"},{"name":"Ohio Herbal Clinic","type":"doctor","phone":"(614) 914-5224","city":"Columbus","state":"Ohio","zipcode":"43203","slug":"ohio-herbal-clinic"},{"name":"The Forest","type":"dispensary","phone":"(419) 405-6863","city":"Sandusky","state":"Ohio","zipcode":"44870","slug":"the-forest-ohio-llc"},{"name":"Ohio Cannabis Connection","type":"doctor","phone":"(614) 824-2318","city":"Columbus","state":"Ohio","zipcode":"43229","slug":"ohio-cannabis-connection-2"},{"name":"Lotus Health LLC","type":"doctor","phone":"(513) 486-3842","city":"Mason","state":"Ohio","zipcode":"45040","slug":"lotus-health-llc"},{"name":"Patient Focus","type":"doctor","phone":"(216) 438-0523","city":"Dayton","state":"Ohio","zipcode":"45434","slug":"patient-focus-7"},{"name":"Patient Focus","type":"doctor","phone":"(216) 438-0523","city":"Akron","state":"Ohio","zipcode":"44313","slug":"patient-focus"},{"name":"Terrasana Dispensaries - Fremont","type":"dispensary","phone":"(419) 463-2703","city":"Fremont","state":"Ohio","zipcode":"43420","slug":"terrasana-dispensaries-fremont"},{"name":"Compassionate Cleveland","type":"doctor","phone":"(216) 586-2606","city":"North Ridgeville","state":"Ohio","zipcode":"44039","slug":"compassionate-cleveland-2"},{"name":"Chronic Releaf Certification Center","type":"doctor","phone":"(419) 214-0803","city":"Toledo","state":"Ohio","zipcode":"43611","slug":"chronic-releaf-certification-center"},{"name":"Medical Marijuana Physicians of Ohio, LLC","type":"doctor","phone":"(440) 832-7009","city":"Newbury","state":"Ohio","zipcode":"44065","slug":"medical-marijuana-physicians-of-ohio-llc"},{"name":"Alternative Medicine Centers of America","type":"doctor","phone":"(877) 603-4420","city":"Parma","state":"Ohio","zipcode":"44129","slug":"alternative-medicine-centers-of-america"},{"name":"Moral Medical Justification","type":"doctor","phone":"(440) 510-8470","city":"Willoughby Hills","state":"Ohio","zipcode":"44094","slug":"moral-medical-justification"},{"name":"Ohio Patients' Choice (Coming Soon)","type":"dispensary","phone":"(216) 363-4428","city":"Huron","state":"Ohio","zipcode":"44839","slug":"ohio-patients-choice"},{"name":"Nature’s Health & Wellness","type":"doctor","phone":"(513) 644-3011","city":"Cincinnati","state":"Ohio","zipcode":"45230","slug":"nature-s-health-wellness"},{"name":"Ohio Marijuana Card","type":"doctor","phone":"(330) 967-0908","city":"Canfield","state":"Ohio","zipcode":"44406","slug":"ohio-marijuana-card-20d90566-0d26-4ba4-93b1-357bab16c86e"},{"name":"Mad River Remedies","type":"dispensary","phone":"(937) 684-4621","city":"Riverside","state":"Ohio","zipcode":"45431","slug":"aphria-riverside"},{"name":"Patient Focus","type":"doctor","phone":"(216) 438-0523","city":"Beachwood","state":"Ohio","zipcode":"44122","slug":"patient-focus-4"},{"name":"The Green Remedy","type":"doctor","phone":"(614) 838-1138","city":"Columbus","state":"Ohio","zipcode":"43220","slug":"the-green-remedy-2"},{"name":"Lakewood Medical Clinic","type":"doctor","phone":"(440)2523838","city":"Lakewood","state":"Ohio","zipcode":"44107","slug":"lakewood-medical-clinic"},{"name":"Soothe","type":"dispensary","phone":"419-500-9455","city":"Bowling Green","state":"Ohio","zipcode":"43402","slug":"soothe-bowling-green"},{"name":"Maple Heights Medical Clinic","type":"doctor","phone":"(216) 510-0679","city":"Maple Heights","state":"Ohio","zipcode":"44137","slug":"maple-heights-medical-clinic"},{"name":"Patient Focus","type":"doctor","phone":"(216) 438-0523","city":"Canton","state":"Ohio","zipcode":"44708","slug":"patient-focus-3"},{"name":"Ohio Marijuana Card","type":"doctor","phone":"(513) 952-9183","city":"Cincinnati","state":"Ohio","zipcode":"45246","slug":"ohio-marijuana-card-2"},{"name":"Bloom Medicinals - Akron","type":"dispensary","phone":"5672135101","city":"Akron","state":"Ohio","zipcode":"44305","slug":"bloom-medicinals-cannabis-dispensary-akron"},{"name":"PurLife Dispensary - Columbus (Coming Soon)","type":"dispensary","phone":"Coming Soon","city":"Columbus","state":"Ohio","zipcode":"43207","slug":"purlife-dispensary-columbus"},{"name":"Eagle Dispensaries - Wapakoneta","type":"dispensary","phone":"419-738-4665","city":"Wapakoneta","state":"Ohio","zipcode":"45895","slug":"eagle-dispensaries"},{"name":"Leaf Relief (Newly Opened)","type":"dispensary","phone":"(330) 333-3925","city":"Youngstown","state":"Ohio","zipcode":"44512","slug":"leaf-relief"},{"name":"The Botanist - Wickliffe","type":"dispensary","phone":"(440) 671-0420","city":"Wickliffe","state":"Ohio","zipcode":"44092","slug":"greenleaf-apothecary-wickliffe"},{"name":"Dr. Karin Cseak","type":"doctor","phone":"(330) 923-3060","city":"Cuyahoga Falls","state":"Ohio","zipcode":"44223","slug":"dr-karin-cseak"},{"name":"Patient Focus","type":"doctor","phone":"(216) 438-0523","city":"Akron","state":"Ohio","zipcode":"44312","slug":"patient-focus-2"},{"name":"My Marijuana Card (Formerly Athena Certification Center)","type":"doctor","phone":"(419) 237-7119","city":"Lima","state":"Ohio","zipcode":"45801","slug":"my-marijuana-card"},{"name":"Bloom Medicinals - Seven Mile","type":"dispensary","phone":"(513) 447-6459","city":"Seven Mile","state":"Ohio","zipcode":"45011","slug":"bloom-medicinals-cannabis-dispensary-seven-mile"},{"name":"Restore Compassionate Care","type":"doctor","phone":"330-330-8655","city":"Boardman","state":"Ohio","zipcode":"44512","slug":"dr-restore-compassionate-care"},{"name":"FRX Health","type":"dispensary","phone":"(234) 718-8767","city":"East Liverpool","state":"Ohio","zipcode":"43920","slug":"farmaceuticalrx"},{"name":"Ohio Green Team","type":"doctor","phone":"(614) 639-0257","city":"Upper Arlington","state":"Ohio","zipcode":"43221","slug":"ohio-green-team"},{"name":"The Botanist - Canton","type":"dispensary","phone":"(330) 623-7430","city":"Canton","state":"Ohio","zipcode":"44706","slug":"greenleaf-apothecary-canton"},{"name":"Miracle Leaf Ohio","type":"doctor","phone":"8332603624","city":"Cincinnati","state":"Ohio","zipcode":"45202","slug":"miracle-leaf-ohio"},{"name":"Body and Mind - Cleveland Dispensary","type":"dispensary","phone":"(440) 252-4046","city":"Elyria","state":"Ohio","zipcode":"44035","slug":"body-and-mind-cleveland"},{"name":"Ohio Marijuana Card","type":"doctor","phone":"866 457 5559","city":"Akron","state":"Ohio","zipcode":"44305","slug":"ohio-marijuana-card-6"},{"name":"Ohio Grown Therapies","type":"dispensary","phone":"(740) 443-3193","city":"Newark","state":"Ohio","zipcode":"43055","slug":"ohio-grown-therapies-llc"},{"name":"AdvoCare Clinic","type":"doctor","phone":"(833) 423-8622","city":"North Canton","state":"Ohio","zipcode":"44720","slug":"advocare-clinic"},{"name":"Patient Focus","type":"doctor","phone":"(216) 438-0523","city":"Upper Arlington","state":"Ohio","zipcode":"43220","slug":"patient-focus-6"},{"name":"Strawberry Fields - Logan","type":"dispensary","phone":"(740) 300-1821","city":"Logan","state":"Ohio","zipcode":"43138","slug":"strawberry-fields-logan"},{"name":"Sunnyside Medical Marijuana Dispensary – Wintersville","type":"dispensary","phone":"(740) 314-0490","city":"Wintersville","state":"Ohio","zipcode":"43952","slug":"sunnyside-dispensary-wintersville"},{"name":"Ohio Marijuana Card","type":"doctor","phone":"(440) 297-2222","city":"Westlake","state":"Ohio","zipcode":"44145","slug":"ohio-marijuana-card-5"},{"name":"My Marijuana Card (Formerly Athena Certification Center)","type":"doctor","phone":"(419) 237-7119","city":"Fayette","state":"Ohio","zipcode":"43521","slug":"athena-certification-center-3"},{"name":"Dayton Center for Medical Marijuana","type":"doctor","phone":"9373406044","city":"Fairborn","state":"Ohio","zipcode":"45324","slug":"dayton-center-for-medical-marijuana"},{"name":"Terrasana Dispensaries - Springfield","type":"dispensary","phone":"(937) 230-6505","city":"Springfield","state":"Ohio","zipcode":"45506","slug":"terrasana-dispensaries-springfield"},{"name":"Medical Cannabis of Northwest Ohio","type":"doctor","phone":"(419) 738-6269","city":"Wapakoneta","state":"Ohio","zipcode":"45895","slug":"medical-cannabis-of-northwest-ohio"},{"name":"Ohio Marijuana Card","type":"doctor","phone":"(216) 236-2888","city":"Mayfield Heights","state":"Ohio","zipcode":"44124","slug":"ohio-marijuana-card"},{"name":"Sunnyside Medical Marijuana Dispensary - Newark","type":"dispensary","phone":"740-759-1740","city":"Newark","state":"Ohio","zipcode":"43055","slug":"verdant-creations-newark"},{"name":"Ohio Cannabis Connection","type":"doctor","phone":"216-260-4310","city":"Cleveland","state":"Ohio","zipcode":"44114","slug":"ohio-cannabis-connection-4"},{"name":"Chronological Certification Center LLC","type":"doctor","phone":"(888) 470-0008","city":"Lima","state":"Ohio","zipcode":"45804","slug":"chronological-certification-center-llc"},{"name":"RISE Dispensaries Lakewood (Detroit)","type":"dispensary","phone":"216-273-0062","city":"Lakewood","state":"Ohio","zipcode":"44107","slug":"rise-lakewood-detroit"},{"name":"Ohio Compassionate Care Clinic","type":"doctor","phone":"(740) 371-5456","city":"Marietta","state":"Ohio","zipcode":"45750","slug":"ohio-compassionate-care-clinic"},{"name":"Verdant Creations - Columbus","type":"dispensary","phone":"(614) 407-3111","city":"Columbus","state":"Ohio","zipcode":"43219","slug":"verdant-creations-columbus"},{"name":"Pure Ohio Wellness - Dayton","type":"dispensary","phone":"(937) 519-1420","city":"Dayton","state":"Ohio","zipcode":"45414","slug":"pure-ohio-wellness-dayton"},{"name":"Ohio Green Team","type":"doctor","phone":"(216) 310-9969","city":"Cleveland","state":"Ohio","zipcode":"44122","slug":"ohio-green-team-alok-k-bhaiji"},{"name":"Southern Ohio Green Med","type":"doctor","phone":"(740) 777-6610","city":"Waverly","state":"Ohio","zipcode":"45690","slug":"southern-ohio-green-med"},{"name":"Ohio Marijuana Card","type":"doctor","phone":"(216) 232-5229","city":"Woodmere","state":"Ohio","zipcode":"44122","slug":"ohio-marijuana-card-7f55573e-ab79-451f-95fc-76d1689c4261"},{"name":"Green Compassion Network","type":"doctor","phone":"(833) 426-4673  ","city":"North Canton","state":"Ohio","zipcode":"44720","slug":"green-compassion-network"},{"name":"Marijuana Doctor- Telehealth- Ohio","type":"doctor","phone":"863 220 9377","city":"Cincinnati","state":"Ohio","zipcode":"45202","slug":"marijuana-doctor-telehealth-ohio"},{"name":"Buckeye Botanicals - Jackson","type":"dispensary","phone":"(740) 577-9367","city":"Jackson","state":"Ohio","zipcode":"45640","slug":"buckeye-botanicals-jackson"},{"name":"Pure Ohio Wellness - London","type":"dispensary","phone":"7409105420","city":"London","state":"Ohio","zipcode":"43140","slug":"pure-ohio-wellness-1"},{"name":"Ohio Provisions By BCCO","type":"dispensary","phone":"(740) 993-0444","city":"Carroll","state":"Ohio","zipcode":"43112","slug":"ohio-provision-bcco"},{"name":"Verilife - Cincinnati","type":"dispensary","phone":"513-599-1550","city":"Cincinnati","state":"Ohio","zipcode":"45213","slug":"verilife-cincinnati"},{"name":"Ohio Cannabis Connection","type":"doctor","phone":"(513) 882-3189","city":"Cincinnati","state":"Ohio","zipcode":"45237","slug":"ohio-cannabis-connection"}]}}