{"meta":{"total_listings":769},"data":{"listings":[{"name":"TJ's on Willamette","type":"dispensary","phone":"(541) 505-7961","city":"Eugene","state":"Oregon","zipcode":"97401","slug":"tj-s-on-the-alley"},{"name":"Going Green Eugene","type":"dispensary","phone":"5417353521","city":"Eugene","state":"Oregon","zipcode":"97401","slug":"going-green-eugene"},{"name":"Greeley Gallery","type":"dispensary","phone":"(503) 889-0729","city":"Portland","state":"Oregon","zipcode":"97217","slug":"greeley-gallery"},{"name":"La Mota - Roseburg","type":"dispensary","phone":"(541) 672-9333","city":"Roseburg","state":"Oregon","zipcode":"97470","slug":"la-mota-roseburg"},{"name":"i and i - Newport","type":"dispensary","phone":"(541) 236-2264","city":"Newport","state":"Oregon","zipcode":"97365","slug":"i-and-i-newport"},{"name":"Portland Best Buds","type":"dispensary","phone":"(503) 954-1862","city":"Portland","state":"Oregon","zipcode":"97203","slug":"best-buds-5-6"},{"name":"American Cannabinoid Clinics","type":"doctor","phone":"(503) 747-3760","city":"Roseburg","state":"Oregon","zipcode":"97470","slug":"american-cannabinoid-clinics-4"},{"name":"Tetra Cannabis - Troutdale","type":"dispensary","phone":"503-489-4568","city":"Troutdale","state":"Oregon","zipcode":"97060","slug":"tetra-cannabis-troutdale-2"},{"name":"A Prime Leaf","type":"delivery","phone":"(971) 599-5892","city":"Salem","state":"Oregon","zipcode":"97301","slug":"a-prime-leaf"},{"name":"Positive Vibrations","type":"dispensary","phone":"(541) 808-9230","city":"Coos Bay","state":"Oregon","zipcode":"97420","slug":"positive-vibrations-2"},{"name":"SpaceBuds The Dispensary","type":"dispensary","phone":"(541) 505-9834","city":"Eugene","state":"Oregon","zipcode":"97401","slug":"spacebuds-the-dispensary"},{"name":"Floyd's Fine Cannabis on Sandy","type":"dispensary","phone":"(503) 477-7090","city":"Portland","state":"Oregon","zipcode":"97213","slug":"tru-cannabis-portland-north-east"},{"name":"Cannabis Nation","type":"dispensary","phone":"(503) 717-5565","city":"Seaside","state":"Oregon","zipcode":"97138","slug":"cannabis-nation"},{"name":"Farm Grass Table","type":"dispensary","phone":"(541) 436-4747","city":"Hood River","state":"Oregon","zipcode":"97031","slug":"farm-grass-table"},{"name":"West Salem Cannabis","type":"dispensary","phone":"(503) 837-9398","city":"Salem","state":"Oregon","zipcode":"97304","slug":"peace-love-and-cannabis"},{"name":"Oregon's Green Rush","type":"dispensary","phone":"(541) 653-8523","city":"Eugene","state":"Oregon","zipcode":"97404","slug":"oregon-s-green-rush"},{"name":"Budee","type":"delivery","phone":"(925) 684-6774","city":"Portland","state":"Oregon","zipcode":"97203","slug":"budee-2-35"},{"name":"Chalice Farms - Powell","type":"delivery","phone":"(503) 788-9999","city":"Portland","state":"Oregon","zipcode":"97206","slug":"chalice-farms-powell-1"},{"name":"Nectar - Eugene River","type":"dispensary","phone":"(541) 255-2457","city":"Eugene","state":"Oregon","zipcode":"97404","slug":"nectar-eugene"},{"name":"Mr. Nice Guy - Veneta","type":"dispensary","phone":"(541) 510-8298","city":"Veneta","state":"Oregon","zipcode":"97487","slug":"mr-nice-guy-veneta"},{"name":"Oregon Weedery","type":"dispensary","phone":"(503) 750-4594","city":"Portland","state":"Oregon","zipcode":"97210","slug":"oregon-weedery"},{"name":"The Joint on State","type":"dispensary","phone":"(503) 990-6723","city":"Salem","state":"Oregon","zipcode":"97301","slug":"ancient-remedies"},{"name":"Big Foot Bud Company","type":"dispensary","phone":"(503) 829-7717","city":"Molalla","state":"Oregon","zipcode":"97038","slug":"shango-cannabis-molalla"},{"name":"Mr. Nice Guy - Lebanon","type":"dispensary","phone":"(541) 405-4336","city":"Lebanon","state":"Oregon","zipcode":"97355","slug":"mr-nice-guy-lebanon"},{"name":"WeedAgain","type":"dispensary","phone":"(541) 744-2222","city":"Eugene","state":"Oregon","zipcode":"97405","slug":"inhale"},{"name":"Quick Stop Cannabis","type":"dispensary","phone":"(541) 393-6857","city":"Eugene","state":"Oregon","zipcode":"97402","slug":"quick-stop-cannabis"},{"name":"Cannabis Curb","type":"dispensary","phone":"9712551542","city":"Portland","state":"Oregon","zipcode":"97212","slug":"oregon-yak-llc"},{"name":"Left Coast Connection, LLC","type":"dispensary","phone":"(971) 407-3049","city":"Portland","state":"Oregon","zipcode":"97220","slug":"left-coast-connection-llc"},{"name":"Electric Lettuce - Alberta","type":"delivery","phone":"503-384-2164","city":"Portland","state":"Oregon","zipcode":"97211","slug":"electric-lettuce-alberta-1"},{"name":"Plus Dispensary","type":"dispensary","phone":"(971) 271-8618","city":"Portland","state":"Oregon","zipcode":"97220","slug":"plus-dispensary"},{"name":"Budee","type":"delivery","phone":"(925) 684-6774","city":"Portland","state":"Oregon","zipcode":"97233","slug":"budee-56"},{"name":"Budee","type":"delivery","phone":"(925) 684-6774","city":"Portland","state":"Oregon","zipcode":"97212","slug":"budee-264"},{"name":"Electric Lettuce - Alberta","type":"delivery","phone":"503-384-2164","city":"Portland","state":"Oregon","zipcode":"97211","slug":"electric-lettuce-alberta-2"},{"name":"Electric Lettuce - Cedar Hills","type":"dispensary","phone":"(503) 954-3152","city":"Portland","state":"Oregon","zipcode":"97225","slug":"electric-lettuce"},{"name":"Green Cross Cannabis Emporium - River Rd","type":"dispensary","phone":"(503) 689-1093","city":"Salem","state":"Oregon","zipcode":"97303","slug":"green-cross-cannabis-emporium-river-rd"},{"name":"Amazon Organics","type":"dispensary","phone":"(541) 636-4100","city":"Eugene","state":"Oregon","zipcode":"97405","slug":"amazon-organics-2"},{"name":"Premium Choice Marijuana","type":"dispensary","phone":"(541) 991-3606","city":"Florence","state":"Oregon","zipcode":"97439","slug":"premium-choice-marijuana"},{"name":"Growing ReLeaf","type":"dispensary","phone":"(971) 319-2939","city":"Beaverton","state":"Oregon","zipcode":"97005","slug":"growing-releaf"},{"name":"Multnomah Greens","type":"dispensary","phone":"(503) 477-5021","city":"Portland","state":"Oregon","zipcode":"97219","slug":"multnomah-greens"},{"name":"Herbal Remedies 2","type":"dispensary","phone":"(503) 385-1010","city":"Salem","state":"Oregon","zipcode":"97302","slug":"herbal-remedies-2-3"},{"name":"Hwy 99 Cannabis Co","type":"dispensary","phone":"(541) 688-1233","city":"Eugene","state":"Oregon","zipcode":"97402","slug":"hwy-99-cannabis-co"},{"name":"FX420 Recreational Dispensary","type":"dispensary","phone":"(541) 459-7693","city":"Roseburg","state":"Oregon","zipcode":"97470","slug":"fx420-recreational-dispensary"},{"name":"Portland Pot Shop","type":"dispensary","phone":"844-473-9732","city":"North Portland","state":"Oregon","zipcode":"97203","slug":"portland-pot-shop"},{"name":"Diem Delivery (NE\/N)","type":"delivery","phone":"(503) 610-9019","city":"Portland","state":"Oregon","zipcode":"97212","slug":"diem"},{"name":"Cherry City Compassion","type":"dispensary","phone":"(503) 991-5717","city":"Salem","state":"Oregon","zipcode":"97302","slug":"cherry-city-compassion"},{"name":"Five Zero Trees - Portland West","type":"dispensary","phone":"(971) 544-7828","city":"Portland","state":"Oregon","zipcode":"97221","slug":"five-zero-trees-west"},{"name":"Albany's Canna Kitchen & Research, LLC","type":"doctor","phone":"(541) 981-2620","city":"Albany","state":"Oregon","zipcode":"97322","slug":"albany-s-canna-kitchen-research-llc"},{"name":"Trees Dispensary","type":"dispensary","phone":"(503) 384-2959","city":"Portland","state":"Oregon","zipcode":"97220","slug":"trees-portland"},{"name":"Attis Trading Company - Tillamook","type":"dispensary","phone":"(503) 815-7623","city":"Tillamook","state":"Oregon","zipcode":"97141","slug":"country-cannabis"},{"name":"Defyne Premium Cannabis","type":"dispensary","phone":"(503) 747-5343","city":"Forest Grove","state":"Oregon","zipcode":"97116","slug":"defyne-premium-cannabis"},{"name":"Budlandia Woodward","type":"dispensary","phone":"(503) 412-8447","city":"Portland","state":"Oregon","zipcode":"97206","slug":"budlandia-woodward"},{"name":"Chalice Farms Downtown","type":"dispensary","phone":"(503) 501-4612","city":"Portland","state":"Oregon","zipcode":"97204","slug":"chalice-farms-downtown"},{"name":"Cannabis Corner","type":"dispensary","phone":"(503) 772-0420","city":"Portland","state":"Oregon","zipcode":"97206","slug":"canna-corner"},{"name":"Five Zero Trees - Cannon Beach","type":"dispensary","phone":"(503) 436-4448","city":"Cannon Beach","state":"Oregon","zipcode":"97110","slug":"five-zero-trees-cannon-beach"},{"name":"Stumptown Cannabis","type":"dispensary","phone":"(503) 954-2005","city":"Portland","state":"Oregon","zipcode":"97266","slug":"stumptown-cannabis-2"},{"name":"420 Club LLC - Roseburg","type":"dispensary","phone":"(541) 672-2420","city":"Roseburg","state":"Oregon","zipcode":"97470","slug":"420-club-llc-roseburg"},{"name":"Serra Belmont","type":"dispensary","phone":"(971) 544-7055","city":"Portland","state":"Oregon","zipcode":"97214","slug":"serra-belmont"},{"name":"Club Pitbull","type":"dispensary","phone":"(503) 409-8192","city":"Salem","state":"Oregon","zipcode":"97301","slug":"club-pitbull"},{"name":"Salem Organics","type":"dispensary","phone":"(971) 707 - 4527","city":"Salem","state":"Oregon","zipcode":"97302","slug":"salem-organics"},{"name":"Five Zero Trees - Portland Dekum","type":"dispensary","phone":"(971) 242-8492","city":"Portland","state":"Oregon","zipcode":"97211","slug":"five-zero-trees-ne-portland"},{"name":"The Green Front","type":"dispensary","phone":"(503) 252-0036","city":"Portland","state":"Oregon","zipcode":"97213","slug":"the-green-front-2"},{"name":"Uplift Botanicals","type":"dispensary","phone":"(971) 319-6118","city":"Portland","state":"Oregon","zipcode":"97211","slug":"uplift-botanicals"},{"name":"Oregon's Finest - Convention Center","type":"dispensary","phone":"(503) 239-1150","city":"Portland","state":"Oregon","zipcode":"97232","slug":"oregon-s-finest-convention-center"},{"name":"Urban Farmacy","type":"delivery","phone":"(503) 957-7832","city":"Portland","state":"Oregon","zipcode":"97214","slug":"urban-farmacy-2"},{"name":"Mr. Nice Guy - Holgate","type":"dispensary","phone":"(503) 946-8474","city":"Portland","state":"Oregon","zipcode":"97266","slug":"mr-niceguy-portland-se-holgate"},{"name":"Wild West Emporium","type":"dispensary","phone":"(503) 387-5117","city":"Oregon City","state":"Oregon","zipcode":"97045","slug":"wild-west-emporium"},{"name":"Green Knottz - Madras","type":"dispensary","phone":"(541) 475-0192","city":"Madras","state":"Oregon","zipcode":"97741","slug":"green-knottz-madras"},{"name":"Oregon's Finest - Convention Center","type":"delivery","phone":"(503) 239-1150","city":"Portland","state":"Oregon","zipcode":"97232","slug":"oregon-s-finest-convention-center"},{"name":"Nebula Cannabis","type":"dispensary","phone":"503-477-5799","city":"Portland","state":"Oregon","zipcode":"97266","slug":"nebula-cannabis-2"},{"name":"Monmouth Cannabis","type":"dispensary","phone":"(503) 551-9232","city":"Monmouth","state":"Oregon","zipcode":"97361","slug":"monmouth-cannabis"},{"name":"Mr. Nice Guy - Astoria (Olney)","type":"dispensary","phone":"(503) 741-3420","city":"Astoria","state":"Oregon","zipcode":"97103","slug":"mr-niceguy-astoria-olney-ave"},{"name":"La Mota - Lebanon","type":"dispensary","phone":"(541) 259-6682","city":"Lebanon","state":"Oregon","zipcode":"97355","slug":"la-mota-lebanon"},{"name":"Budee","type":"delivery","phone":"(925) 684-6774","city":"Portland","state":"Oregon","zipcode":"97214","slug":"budee-278"},{"name":"Pakalolo PDX","type":"dispensary","phone":"(503) 369-8955","city":"Portland","state":"Oregon","zipcode":"97202","slug":"pakalolo"},{"name":"Elev8 Cannabis","type":"dispensary","phone":"(458) 210-2810","city":"Eugene","state":"Oregon","zipcode":"97401","slug":"elev8-cannabis"},{"name":"pur roots","type":"dispensary","phone":"971-865-5176","city":"Portland","state":"Oregon","zipcode":"97218","slug":"pur-roots"},{"name":"Trees Dispensary","type":"dispensary","phone":"(971) 420-8925","city":"Portland","state":"Oregon","zipcode":"97239","slug":"trees-dispensary-3"},{"name":"Brothers Cannabis - Morrison St","type":"dispensary","phone":"(503) 206-4461","city":"Portland","state":"Oregon","zipcode":"97214","slug":"brothers-cannabis"},{"name":"Nectar - Milwaukie Harmony","type":"dispensary","phone":"503-912-6793","city":"Milwaukie","state":"Oregon","zipcode":"97222","slug":"nectar-milwaukie-harmony"},{"name":"La Mota - Sweet Home","type":"dispensary","phone":"(503) 777-9333","city":"Sweet Home","state":"Oregon","zipcode":"97386","slug":"la-mota-4e9cf7e7-df6b-49ef-869f-6b5b2af73f5b"},{"name":"Beaver Bowls","type":"dispensary","phone":"(541) 286-4657","city":"Corvallis","state":"Oregon","zipcode":"97333","slug":"beaver-bowls"},{"name":"Modern Forest","type":"dispensary","phone":"(541) 405-4364","city":"Lebanon","state":"Oregon","zipcode":"97355","slug":"modern-forest"},{"name":"Discovery Cannabis Walport","type":"dispensary","phone":"(541) 563-6087","city":"Waldport","state":"Oregon","zipcode":"97394","slug":"waldport-cannabis"},{"name":"Green Apple N.W.","type":"delivery","phone":"(503) 791-8986","city":"Portland","state":"Oregon","zipcode":"97089","slug":"green-apple-n-w-1"},{"name":"Bahama Buds","type":"dispensary","phone":"(541) 808-9420","city":"Coos Bay","state":"Oregon","zipcode":"97420","slug":"bahama-buds"},{"name":"Attis Trading Company - Barbur","type":"dispensary","phone":"(503) 841-5462","city":"Portland","state":"Oregon","zipcode":"97219","slug":"attis-trading-company-barbur-2-2"},{"name":"Greenery","type":"delivery","phone":"(971) 808-0275","city":"Portland","state":"Oregon","zipcode":"97214","slug":"greenery-6"},{"name":"NW Advantage","type":"dispensary","phone":"(541) 614-1011","city":"Lincoln City","state":"Oregon","zipcode":"97367","slug":"nw-advantage"},{"name":"Weedbucks","type":"dispensary","phone":"(541) 973-2961","city":"Medford","state":"Oregon","zipcode":"97501","slug":"weedbucks"},{"name":"Mood Fine Cannabis","type":"dispensary","phone":"(458) 215-4942","city":"Eugene","state":"Oregon","zipcode":"97404","slug":"mood-fine-cannabis"},{"name":"Holy Grail Pharms","type":"dispensary","phone":"(458) 201-8922","city":"Eugene","state":"Oregon","zipcode":"97401","slug":"holy-grail-pharms"},{"name":"Today's Herbal Choice Barbur","type":"dispensary","phone":"(503) 208-3042","city":"Portland","state":"Oregon","zipcode":"97219","slug":"today-s-herbal-choice-barbur"},{"name":"Doctor's Orders Portland","type":"dispensary","phone":"(971) 254-4731","city":"Portland","state":"Oregon","zipcode":"97220","slug":"doctor-s-orders-portland"},{"name":"Urban Farmacy","type":"delivery","phone":"(503) 957-7832","city":"Portland","state":"Oregon","zipcode":"97213","slug":"urban-farmacy"},{"name":"Kind Leaf Pendleton","type":"dispensary","phone":"(541) 612-8588","city":"Pendleton","state":"Oregon","zipcode":"97801","slug":"kind-leaf-pendleton-1"},{"name":"Nectar - Mississippi","type":"dispensary","phone":"(503) 206-4818","city":"Portland","state":"Oregon","zipcode":"97212","slug":"nectar-4125-n-mississippi-ave"},{"name":"K9 Chronic LLC","type":"dispensary","phone":"(541) 654-0624","city":"Springfield","state":"Oregon","zipcode":"97477","slug":"k9-chronic-llc"},{"name":"Hood River Naturals","type":"dispensary","phone":"541-436-3333","city":"Hood River","state":"Oregon","zipcode":"97031","slug":"mountain-view-naturals"},{"name":"The Medication Station - Newport","type":"dispensary","phone":"(541) 265-9170","city":"Newport","state":"Oregon","zipcode":"97365","slug":"the-medication-station-ii"},{"name":"Nectar - Aloha","type":"dispensary","phone":"(503) 746-4444","city":"Beaverton","state":"Oregon","zipcode":"97006","slug":"nectar-aloha"},{"name":"The Aurora Clinic","type":"doctor","phone":"(503) 232-3003","city":"Portland","state":"Oregon","zipcode":"97214","slug":"the-aurora-clinic"},{"name":"Nectar - Woodstock","type":"dispensary","phone":"(971) 229-1600","city":"Portland","state":"Oregon","zipcode":"97266","slug":"nectar-1019-ne-122nd-ave"},{"name":"Tangent Farmacy","type":"dispensary","phone":"(541) 248-1478","city":"Tangent","state":"Oregon","zipcode":"97389","slug":"tangent-farmacy"},{"name":"Thur's Smoke Shop","type":"dispensary","phone":"(541) 429-8760","city":"Pendleton","state":"Oregon","zipcode":"97801","slug":"thur-s-smoke-shop"},{"name":"Weedology","type":"dispensary","phone":"(541) 889-4862","city":"Ontario","state":"Oregon","zipcode":"97914","slug":"weedology-ontario"},{"name":"Sweet Relief - Astoria,OR","type":"dispensary","phone":"(503) 468-0881","city":"Astoria","state":"Oregon","zipcode":"97103","slug":"sweet-relief-natural-medicine"},{"name":"Top Crop","type":"dispensary","phone":"(458) 201-8964","city":"Eugene","state":"Oregon","zipcode":"97402","slug":"top-crop"},{"name":"Serra Belmont","type":"delivery","phone":"(971) 544-7055","city":"Portland","state":"Oregon","zipcode":"97214","slug":"serra-belmont-1"},{"name":"Budee","type":"delivery","phone":"(925) 684-6774","city":"Portland","state":"Oregon","zipcode":"97217","slug":"budee-292"},{"name":"Deanz Greenz - Sandy","type":"dispensary","phone":"(971) 255-0758","city":"Portland","state":"Oregon","zipcode":"97220","slug":"deanz-greenz"},{"name":"Paradise Found - Milwaukie","type":"dispensary","phone":"(971) 803-7172","city":"Milwaukie","state":"Oregon","zipcode":"97222","slug":"paradise-found-milwaukie"},{"name":"Medicine Tree LLC","type":"dispensary","phone":"(503) 857-0592","city":"McMinnville","state":"Oregon","zipcode":"97128","slug":"medicine-tree-llc-2"},{"name":"Floyd's Fine Cannabis on Broadway","type":"dispensary","phone":"(503) 288-5454","city":"Portland","state":"Oregon","zipcode":"97232","slug":"tru-cannabis-portland"},{"name":"The Dispensary on 52nd","type":"dispensary","phone":"(503) 420-8000","city":"Portland","state":"Oregon","zipcode":"97206","slug":"the-dispensary-on-52nd"},{"name":"Oregon Cannabis Outlet - Willamette","type":"dispensary","phone":"(541) 653-9679","city":"Eugene","state":"Oregon","zipcode":"97401","slug":"re-leaf-cannabis-center-willamette"},{"name":"Flowr of Lyfe","type":"dispensary","phone":"(541) 653-8801","city":"Eugene","state":"Oregon","zipcode":"97401","slug":"flowr-of-lyfe"},{"name":"Chalice Farms - Dundee","type":"dispensary","phone":"(503) 487-6523","city":"Dundee","state":"Oregon","zipcode":"97115","slug":"chalice-farms"},{"name":"LUCKY LION - POWELL","type":"dispensary","phone":"(503)764-9089","city":"Portland","state":"Oregon","zipcode":"97236","slug":"lucky-lion-1"},{"name":"Green Oaks","type":"dispensary","phone":"(541) 716-4044","city":"Oakridge","state":"Oregon","zipcode":"97463","slug":"greenoak-n-v"},{"name":"Nectar - Stark","type":"dispensary","phone":"503-719-7318","city":"Portland","state":"Oregon","zipcode":"97216","slug":"nectar-montavilla"},{"name":"Diem","type":"dispensary","phone":"(503) 505-6434","city":"Salem","state":"Oregon","zipcode":"97302","slug":"diem"},{"name":"Chalice Farms - Airport","type":"dispensary","phone":"(503) 477-7626","city":"Portland","state":"Oregon","zipcode":"97230","slug":"chalice-farms-airport"},{"name":"Nectar - Beaverton Regatta","type":"dispensary","phone":"503-690-8420","city":"Beaverton","state":"Oregon","zipcode":"97006","slug":"nectar-beaverton-regatta"},{"name":"American Cannabinoid Clinics","type":"doctor","phone":"(503) 747-3760","city":"McMinnville","state":"Oregon","zipcode":"97128","slug":"american-cannabinoid-clinics"},{"name":"Nectar - Barbur","type":"dispensary","phone":"(503) 477-8800","city":"Portland","state":"Oregon","zipcode":"97219","slug":"nectar-portland-oregon"},{"name":"Maritime Cafe","type":"dispensary","phone":"(503) 305-8307","city":"Gladstone","state":"Oregon","zipcode":"97267","slug":"maritime-cafe-gladstone"},{"name":"King Kannabis LLC","type":"dispensary","phone":"(541) 808-9292","city":"Coos Bay","state":"Oregon","zipcode":"97420","slug":"king-kannabis-llc"},{"name":"Budee","type":"delivery","phone":"(925) 684-6774","city":"Portland","state":"Oregon","zipcode":"97206","slug":"budee-8632146b-efca-4570-9b76-6212fbe56a93"},{"name":"PotMates - Portland East","type":"delivery","phone":"971-255-0076","city":"Portland","state":"Oregon","zipcode":"97214","slug":"potmates-portland-east"},{"name":"Chalice Farms - Powell","type":"delivery","phone":"(503) 788-9999","city":"Portland","state":"Oregon","zipcode":"97206","slug":"chalice-farms-powell"},{"name":"Canna Bros.","type":"dispensary","phone":"(503) 487-6184","city":"Newberg","state":"Oregon","zipcode":"97132","slug":"canna-bros"},{"name":"Farma","type":"delivery","phone":"(503)206-4357","city":"Portland","state":"Oregon","zipcode":"97214","slug":"farma-1"},{"name":"Eden Cannabis - Foster","type":"dispensary","phone":"503-388-7663","city":"Portland","state":"Oregon","zipcode":"97206","slug":"eden-cannabis-foster"},{"name":"Top Shelf Wellness Center","type":"dispensary","phone":"(541) 897-0716","city":"Phoenix","state":"Oregon","zipcode":"97535","slug":"top-shelf-wellness-center-3-7"},{"name":"Canna Beach Junction","type":"dispensary","phone":"(503) 739-7575","city":"Seaside","state":"Oregon","zipcode":"97138","slug":"canna-beach-junction"},{"name":"Phresh Cannabis","type":"dispensary","phone":"(503) 430-1575","city":"Forest Grove","state":"Oregon","zipcode":"97116","slug":"phresh-cannabis"},{"name":"Budee","type":"delivery","phone":"(925) 684-6774","city":"Portland","state":"Oregon","zipcode":"97230","slug":"budee-49bdf469-0d12-4028-a6d9-fae8b17f6bc3"},{"name":"Green Box","type":"delivery","phone":"9712631975","city":"Portland","state":"Oregon","zipcode":"97206","slug":"green-box-2"},{"name":"Nectar - Sandy","type":"dispensary","phone":"(971) 703-4777","city":"Portland","state":"Oregon","zipcode":"97232","slug":"nectar-3350-ne-sandy-blvd"},{"name":"La Mota - SE Johnson","type":"dispensary","phone":"(503) 659-9333","city":"Portland","state":"Oregon","zipcode":"97222","slug":"la-mota-portland"},{"name":"Papa Buds","type":"dispensary","phone":"(503) 206-8639","city":"Portland","state":"Oregon","zipcode":"97202","slug":"papa-buds"},{"name":"Mr. Nice Guy - State St","type":"dispensary","phone":"(503) 990-6087","city":"Salem","state":"Oregon","zipcode":"97301","slug":"mr-niceguy-salem-state-street"},{"name":"GRAND OPENING Nectar - 122nd & Division","type":"dispensary","phone":"(971) 407-3925","city":"Portland","state":"Oregon","zipcode":"97233","slug":"nectar-122nd-division"},{"name":"Kaleafa Cannabis Company - Glisan","type":"dispensary","phone":"(503) 902-4265","city":"Portland","state":"Oregon","zipcode":"97220","slug":"kaleafa-cannabis-company-1"},{"name":"Defyne Premium Cannabis","type":"dispensary","phone":"(503) 372-5254","city":"Hillsboro","state":"Oregon","zipcode":"97123","slug":"defyne-premium-cannabis-2"},{"name":"Cafe Verde","type":"dispensary","phone":"(541) 916-8430","city":"Grants Pass","state":"Oregon","zipcode":"97527","slug":"cafe-verde"},{"name":"Chalice Farms - Dundee","type":"delivery","phone":"(503) 487-6523","city":"Dundee","state":"Oregon","zipcode":"97115","slug":"chalice-farms-dundee"},{"name":"Budding Culture","type":"delivery","phone":"(503) 719-6192","city":"Portland","state":"Oregon","zipcode":"97213","slug":"budding-culture"},{"name":"K9 Chronic Delivery","type":"delivery","phone":"(541) 654-0624","city":"Springfield","state":"Oregon","zipcode":"97477","slug":"k9-chronic-delivery"},{"name":"Jamaica Joel's","type":"dispensary","phone":"(541) 505-8293","city":"Eugene","state":"Oregon","zipcode":"97401","slug":"jamaica-joel-s"},{"name":"3 Kings Organics","type":"dispensary","phone":"(541) 370-2246","city":"The Dalles","state":"Oregon","zipcode":"97058","slug":"three-kings-organics"},{"name":"Beaver Bowls Cannabis Showroom","type":"dispensary","phone":"541-704-0280","city":"Albany","state":"Oregon","zipcode":"97321","slug":"beaver-bowls-cannabis-showroom"},{"name":"Green Apple N.W.","type":"dispensary","phone":"(503) 791-8986","city":"Damascus","state":"Oregon","zipcode":"97089","slug":"green-apple-n-w"},{"name":"Urban Farmacy","type":"delivery","phone":"(503) 957-7832","city":"Portland","state":"Oregon","zipcode":"97209","slug":"urban-farmacy-1"},{"name":"Cannabis Nation","type":"dispensary","phone":"(503) 305-8073","city":"Oregon City","state":"Oregon","zipcode":"97045","slug":"cannabis-nation-3"},{"name":"The Arboretum","type":"dispensary","phone":"(541) 991-3752","city":"Florence","state":"Oregon","zipcode":"97439","slug":"the-arboretum-florence"},{"name":"Top Shelf Cannabis - Brookings","type":"dispensary","phone":"(541) 254-9420","city":"Brookings","state":"Oregon","zipcode":"97415","slug":"top-shelf-cannabis-brookings"},{"name":"Breeze Botanicals - Ashland","type":"dispensary","phone":"(541) 708-6446","city":"Ashland","state":"Oregon","zipcode":"97520","slug":"breeze-botanicals-ashland"},{"name":"Cannabiz Experience","type":"dispensary","phone":"(541) 816-4209","city":"Medford","state":"Oregon","zipcode":"97501","slug":"cannabiz-experience"},{"name":"Green Earth Medicine","type":"doctor","phone":"(503) 303-8456","city":"Warrenton","state":"Oregon","zipcode":"97146","slug":"green-earth-medicine-5"},{"name":"Broadway Cannabis Market","type":"dispensary","phone":"503-212-0608","city":"Portland","state":"Oregon","zipcode":"97209","slug":"broadway-cannabis"},{"name":"Capitol Green Leaf","type":"dispensary","phone":"(971) 313-9333","city":"Salem","state":"Oregon","zipcode":"97301","slug":"capitol-green-leaf"},{"name":"Phresh Start - Eugene","type":"dispensary","phone":"(541) 505-7080","city":"Eugene","state":"Oregon","zipcode":"97402","slug":"southern-oregon-cannabis-connection-eugene"},{"name":"Cannabis & Glass - Ontario","type":"dispensary","phone":"5097047118","city":"Ontario","state":"Oregon","zipcode":"97914","slug":"cannabis-glass-1"},{"name":"Alternative Remedies","type":"dispensary","phone":"971-279-5243","city":"Portland","state":"Oregon","zipcode":"97206","slug":"alternative-remedies"},{"name":"Grasslands Dispensary","type":"dispensary","phone":"(541) 505-9209","city":"Eugene","state":"Oregon","zipcode":"97401","slug":"grasslands-dispensary"},{"name":"Good Health Holistics","type":"doctor","phone":"(801) 477-6794","city":"Klamath Falls","state":"Oregon","zipcode":"97601","slug":"good-health-holistics"},{"name":"American Cannabis Company","type":"delivery","phone":"(541) 816-4420","city":"Medford","state":"Oregon","zipcode":"97501","slug":"american-cannabis-company-5"},{"name":"Madras Resource Center","type":"dispensary","phone":"(541) 777-7877","city":"Madras","state":"Oregon","zipcode":"97741","slug":"madras-resource-center"},{"name":"Market Street Wellness","type":"dispensary","phone":"(541) 622-8340","city":"Medford","state":"Oregon","zipcode":"97504","slug":"market-street-wellness"},{"name":"Budee","type":"delivery","phone":"(925) 684-6774","city":"Portland","state":"Oregon","zipcode":"97206","slug":"budee-8683ba98-8791-4a69-9512-e911c9a60aa0"},{"name":"Kaya Shack - Salem","type":"dispensary","phone":"(503) 990-6755","city":"Salem","state":"Oregon","zipcode":"97306","slug":"kaya-shack-salem"},{"name":"Beatnick's Finest","type":"delivery","phone":"541-953-1154","city":"Corvallis","state":"Oregon","zipcode":"97333","slug":"beatnick-s-finest"},{"name":"Sweet Tree Farms","type":"dispensary","phone":"(541) 246-8075","city":"Eugene","state":"Oregon","zipcode":"97402","slug":"sweet-tree-farms"},{"name":"Budlandia","type":"dispensary","phone":"(503) 805-2871","city":"Portland","state":"Oregon","zipcode":"97236","slug":"budlandia"},{"name":"Vernonia's Natural Choice","type":"dispensary","phone":"(503) 429-9333","city":"Veronia","state":"Oregon","zipcode":"97064","slug":"veronia-s-natural-choice"},{"name":"Plane Jane's","type":"dispensary","phone":"(971) 255-0999","city":"Portland","state":"Oregon","zipcode":"97220","slug":"plane-jane-s"},{"name":"Blazen Cannabis","type":"dispensary","phone":"(541) 589-5027","city":"Hines","state":"Oregon","zipcode":"97738","slug":"blazen-cannabis"},{"name":"Plantae Health Center","type":"dispensary","phone":"(541) 233-3328","city":"Prineville","state":"Oregon","zipcode":"97754","slug":"plantae-health-center"},{"name":"VIBE | Amberlight","type":"dispensary","phone":"(503) 233-0420","city":"Portland","state":"Oregon","zipcode":"97206","slug":"amberlight-cannabis-house"},{"name":"Treestar","type":"dispensary","phone":"(503) 982-3080","city":"Woodburn","state":"Oregon","zipcode":"97071","slug":"treestar-2"},{"name":"Green Apple N.W.","type":"delivery","phone":"(503) 791-8986","city":"Portland","state":"Oregon","zipcode":"97089","slug":"green-apple-n-w-2"},{"name":"Budee","type":"delivery","phone":"(925) 684-6774","city":"Portland","state":"Oregon","zipcode":"97216","slug":"budee-467b2ddb-cf2f-474c-8c5c-6ada69f54363"},{"name":"Herbal Choices - Coos Bay","type":"dispensary","phone":"(541) 267-8888","city":"Coos Bay","state":"Oregon","zipcode":"97420","slug":"herbal-choices-coos-bay"},{"name":"Mr. Nice Guy - Astoria (Bond)","type":"dispensary","phone":"(503) 741-3666","city":"Astoria","state":"Oregon","zipcode":"97103","slug":"mr-nice-guy-astoria-bond"},{"name":"Kaleafa Cannabis Company - Hillsboro","type":"dispensary","phone":"(971) 246-5052","city":"Hillsboro","state":"Oregon","zipcode":"97123","slug":"kaleafa-hillsboro"},{"name":"Renee's Herb Store","type":"dispensary","phone":"(541) 994-9733","city":"Lincoln City","state":"Oregon","zipcode":"97367","slug":"renee-s-herb-store"},{"name":"Canna Bros. - Sheridan","type":"dispensary","phone":"(503) 843-9055","city":"Sheridan","state":"Oregon","zipcode":"97378","slug":"canna-bros-sheridan"},{"name":"Moss Crossing","type":"delivery","phone":"(541) 636-3724","city":"Eugene","state":"Oregon","zipcode":"97405","slug":"moss-crossing"},{"name":"Mr. Nice Guy - Portland SE 122nd","type":"dispensary","phone":"503-946-8474","city":"Portland","state":"Oregon","zipcode":"97233","slug":"mr-nice-guy-portland-se-122nd"},{"name":"La Cannaisseur","type":"dispensary","phone":"(503) 285-0355","city":"Portland","state":"Oregon","zipcode":"97231","slug":"la-cannaisseur"},{"name":"Cola Cove","type":"dispensary","phone":"(503) 746-4713","city":"Tigard","state":"Oregon","zipcode":"97223","slug":"cola-cove-2"},{"name":"Potland","type":"delivery","phone":"503-432-8629","city":"Portland","state":"Oregon","zipcode":"97232","slug":"potland-2"},{"name":"Hotbox Farms Huntington","type":"dispensary","phone":"(541) 869-2121","city":"Huntington","state":"Oregon","zipcode":"97907","slug":"hotbox-farms"},{"name":"Oregon Grown","type":"dispensary","phone":"(971) 319-6093","city":"Portland","state":"Oregon","zipcode":"97216","slug":"oregon-grown"},{"name":"Natural Rxemedies","type":"dispensary","phone":"(503) 719-7881","city":"Portland","state":"Oregon","zipcode":"97219","slug":"natural-rxemedies-2"},{"name":"Marijuana Paradise","type":"dispensary","phone":"(503) 206-7462","city":"Portland","state":"Oregon","zipcode":"97219","slug":"marijuana-paradise"},{"name":"Oregon Coast Cannabis","type":"dispensary","phone":"(503) 368-4200","city":"Manzanita","state":"Oregon","zipcode":"97130","slug":"oregon-coast-cannabis"},{"name":"Green Therapy","type":"dispensary","phone":"(541) 393-6639","city":"Eugene","state":"Oregon","zipcode":"97405","slug":"green-therapy-2-3"},{"name":"Redbarn Dispensary","type":"dispensary","phone":"(541) 860-7676","city":"Myrtle Creek","state":"Oregon","zipcode":"97457","slug":"redbarn-dispensary"},{"name":"The Vth LMNT","type":"dispensary","phone":"(541) 408-9058","city":"Bend","state":"Oregon","zipcode":"97701","slug":"5th-lmnt"},{"name":"Brian's Buds and Glass Shop","type":"dispensary","phone":"(707) 460-0159","city":"Selma","state":"Oregon","zipcode":"97538","slug":"brian-s-buds-and-glass-shop"},{"name":"Pendleton Cannabis","type":"dispensary","phone":"(541) 379-3799","city":"Pendleton","state":"Oregon","zipcode":"97801","slug":"pendleton-cannabis"},{"name":"AmeriCanna Rx","type":"dispensary","phone":"(971) 254-4581","city":"Portland","state":"Oregon","zipcode":"97220","slug":"americanna-rx"},{"name":"Western Oregon Dispensary - Newberg","type":"dispensary","phone":"(503) 487-6679","city":"Newberg","state":"Oregon","zipcode":"97132","slug":"western-oregon-dispensary-2"},{"name":"The Herbary Oregon","type":"dispensary","phone":"(503) 431-6995","city":"Tigard","state":"Oregon","zipcode":"97223","slug":"the-herbary-oregon"},{"name":"Floyd's Fine Cannabis on 28th","type":"dispensary","phone":"(971) 255-1416","city":"Portland","state":"Oregon","zipcode":"97202","slug":"tru-cannabis-se-28th"},{"name":"Today's Herbal Choice Milwaukie","type":"dispensary","phone":"9712047175","city":"Milwaukie","state":"Oregon","zipcode":"97222","slug":"todays-herbal-choice"},{"name":"Buds4U - Florence","type":"dispensary","phone":"(541) 997-5321","city":"Florence","state":"Oregon","zipcode":"97439","slug":"buds4u-2"},{"name":"Green Lion - Scappoose","type":"dispensary","phone":"(503) 397-3545","city":"Scappoose","state":"Oregon","zipcode":"97056","slug":"green-lion-pacific-city"},{"name":"Alternative Solutions","type":"dispensary","phone":"(503) 761-1635","city":"Portland","state":"Oregon","zipcode":"97236","slug":"alternative-solutions-2-3"},{"name":"Five Zero Trees - Oregon City","type":"dispensary","phone":"(503) 908-1389","city":"Oregon City","state":"Oregon","zipcode":"97045","slug":"five-zero-trees-oregon-city"},{"name":"The Herb Center","type":"dispensary","phone":"(541) 550-7325","city":"Bend","state":"Oregon","zipcode":"97703","slug":"the-herb-center"},{"name":"Brothers Cannabis - Division St","type":"dispensary","phone":"(503) 894-8001","city":"Portland","state":"Oregon","zipcode":"97202","slug":"brothers-portland"},{"name":"Curaleaf - Portland","type":"dispensary","phone":"(503) 477-7254","city":"Portland","state":"Oregon","zipcode":"97213","slug":"spark-2"},{"name":"Green Dragon Herbal Clinic","type":"dispensary","phone":"(541) 635-0210","city":"Toledo","state":"Oregon","zipcode":"97391","slug":"green-dragon-herbal-clinic"},{"name":"Diem Delivery (SE)","type":"delivery","phone":"(503) 610-9019","city":"Portland","state":"Oregon","zipcode":"97214","slug":"diem-cannabis-delivery"},{"name":"Budee","type":"delivery","phone":"(925) 684-6774","city":"Portland","state":"Oregon","zipcode":"97215","slug":"budee-2-27"},{"name":"Chalice Farms - Powell","type":"dispensary","phone":"(503) 788-9999","city":"Portland","state":"Oregon","zipcode":"97206","slug":"neighborhood-wellness"},{"name":"Nectar - Gresham","type":"dispensary","phone":"(503) 512-8123","city":"Gresham","state":"Oregon","zipcode":"97030","slug":"nectar-gresham"},{"name":"Mr. Nice Guy - Coos Bay","type":"dispensary","phone":"(541) 808-2017","city":"Coos Bay","state":"Oregon","zipcode":"97420","slug":"mr-nice-guy-coos-bay"},{"name":"Bernie's Universal Dispensary","type":"dispensary","phone":"(541) 867-2837","city":"South Beach","state":"Oregon","zipcode":"97366","slug":"bernie-s-universal-dispensary"},{"name":"SWED.CO","type":"dispensary","phone":"(503) 661-8090","city":"Gresham","state":"Oregon","zipcode":"97030","slug":"swed-co-2"},{"name":"Nectar - Forest Grove","type":"dispensary","phone":"(503) 352-4581","city":"Forest Grove","state":"Oregon","zipcode":"97006","slug":"nectar-forest-grove"},{"name":"New Millennium","type":"dispensary","phone":"(541) 357-4211","city":"Eugene","state":"Oregon","zipcode":"97405","slug":"new-millennium-eugene"},{"name":"Green Gratitude","type":"dispensary","phone":"(503) 444-7707","city":"Portland","state":"Oregon","zipcode":"97266","slug":"green-gratitude-2"},{"name":"Terpene Station - Eugene","type":"dispensary","phone":"(541) 653-8965","city":"Eugene","state":"Oregon","zipcode":"97404","slug":"terpene-station"},{"name":"The Local Market","type":"dispensary","phone":"(541) 566-4207","city":"Bend","state":"Oregon","zipcode":"97701","slug":"the-local-market"},{"name":"La Mota - Roseburg Stephens St","type":"dispensary","phone":"(503) 777-9333","city":"Roseburg","state":"Oregon","zipcode":"97470","slug":"la-mota-ede4e923-1050-4935-b170-40cb2c9e0047"},{"name":"Green Gratitude Delivery","type":"delivery","phone":"503-444-7707","city":"Portland","state":"Oregon","zipcode":"97035","slug":"green-gratitude-delivery-2"},{"name":"Buzz Box","type":"dispensary","phone":"(503) 444-7175","city":"Portland","state":"Oregon","zipcode":"97206","slug":"buzz-box"},{"name":"The House of Dank","type":"dispensary","phone":"(541) 361-6290","city":"Reedsport","state":"Oregon","zipcode":"97467","slug":"the-house-of-dank"},{"name":"Livewell Dispensary - Broadway","type":"dispensary","phone":"(971) 600-3464","city":"Salem","state":"Oregon","zipcode":"97301","slug":"livewell-dispensary-broadway"},{"name":"Nectar - Beaverton Allen","type":"dispensary","phone":"(503) 626-1994","city":"Beaverton","state":"Oregon","zipcode":"97005","slug":"nectar-beaverton"},{"name":"Crush Cannabis","type":"dispensary","phone":"971-273-7662","city":"Salem","state":"Oregon","zipcode":"97301","slug":"crush-cannabis"},{"name":"Moss Crossing","type":"dispensary","phone":"(541) 636-3724","city":"Eugene","state":"Oregon","zipcode":"97405","slug":"moss-crossing-2"},{"name":"Zion Cannabis","type":"dispensary","phone":"(971) 255-1758","city":"Portland","state":"Oregon","zipcode":"97201","slug":"zion-cannabis-2"},{"name":"Top Shelf Medicine - Lakeview","type":"dispensary","phone":"(541) 219-8036","city":"Lakeview","state":"Oregon","zipcode":"97630","slug":"top-shelf-medicine-lakeview"},{"name":"Oregon's Best Buds","type":"dispensary","phone":"(503) 477-6757","city":"Portland","state":"Oregon","zipcode":"97216","slug":"oregon-s-best-meds"},{"name":"New Leaf Midtown","type":"dispensary","phone":"(503) 472-4816","city":"McMinnville","state":"Oregon","zipcode":"97128","slug":"new-leaf-2"},{"name":"Natural Wonders","type":"dispensary","phone":"(503) 928-1228","city":"Portland","state":"Oregon","zipcode":"97214","slug":"natural-wonders-2-2"},{"name":"Electric Lettuce - Old Town","type":"dispensary","phone":"971-302-7032","city":"Portland","state":"Oregon","zipcode":"97209","slug":"electric-lettuce-overlook"},{"name":"Farma","type":"dispensary","phone":"(503)206-4357","city":"Portland","state":"Oregon","zipcode":"97214","slug":"farma"},{"name":"Mr. Nice Guy Portland SE Woodstock","type":"dispensary","phone":"503-206-8634","city":"Portland","state":"Oregon","zipcode":"97206","slug":"mr-nice-guy-portland-se-woodstock"},{"name":"Canna Source","type":"dispensary","phone":"(971) 254-4374","city":"Portland","state":"Oregon","zipcode":"97230","slug":"canna-source-2"},{"name":"Kaleafa Cannabis Company - Woodstock","type":"dispensary","phone":"(971) 407-3208","city":"Portland","state":"Oregon","zipcode":"97206","slug":"kaleafa-2"},{"name":"Serra Belmont","type":"delivery","phone":"(971) 544-7055","city":"Portland","state":"Oregon","zipcode":"97214","slug":"serra-belmont-2"},{"name":"Cannabis LLC","type":"dispensary","phone":"(541) 505-9971","city":"Springfield","state":"Oregon","zipcode":"97477","slug":"cannabis-llc"},{"name":"Mr. Nice Guy - Bend","type":"dispensary","phone":"(541) 647-2785","city":"Bend","state":"Oregon","zipcode":"97702","slug":"mr-nice-guy-bend"},{"name":"Cannabend","type":"dispensary","phone":"(541) 617-0420","city":"Bend","state":"Oregon","zipcode":"97701","slug":"cannabend-2"},{"name":"Green Earth Medicine","type":"doctor","phone":"(503) 303-8456","city":"Grants Pass","state":"Oregon","zipcode":"97526","slug":"green-earth-medicine-6"},{"name":"Green Valley Wellness","type":"dispensary","phone":"(541) 535-3022","city":"Talent","state":"Oregon","zipcode":"97540","slug":"green-valley-wellness"},{"name":"Oregon Grown Cannabis","type":"dispensary","phone":"(541) 816-4206","city":"Medford","state":"Oregon","zipcode":"97501","slug":"oregon-grown-cannabis"},{"name":"Ascend","type":"dispensary","phone":"(971) 279-4769","city":"Portland","state":"Oregon","zipcode":"97230","slug":"ascend"},{"name":"The Green Planet - King City","type":"dispensary","phone":"(503) 430-5660","city":"King City","state":"Oregon","zipcode":"97224","slug":"the-green-planet-king-city"},{"name":"Kaleafa Cannabis Company - Oregon City","type":"dispensary","phone":"(971) 407-3208","city":"Oregon City","state":"Oregon","zipcode":"97045","slug":"kaleafa-cannabis-company-oregon-city"},{"name":"Emerald Triangle Dispensary - Super Store","type":"dispensary","phone":"5418519152","city":"Klamath Falls","state":"Oregon","zipcode":"97603","slug":"emerald-triangle-dispensary-super-store"},{"name":"Top Crop Ontario","type":"dispensary","phone":"(541) 666-7887","city":"Ontario","state":"Oregon","zipcode":"97914","slug":"top-crop-ontario"},{"name":"The Medication Station - Cottage Grove","type":"dispensary","phone":"(541) 649-1819","city":"Cottage Grove","state":"Oregon","zipcode":"97424","slug":"the-medication-station-2-2"},{"name":"CannaKing Marijuana Dispensaries","type":"dispensary","phone":"(855) 420-1420","city":"Roseburg","state":"Oregon","zipcode":"97470","slug":"canna-king"},{"name":"Floyd's Fine Cannabis Slabtown","type":"dispensary","phone":"5032787335","city":"Portland","state":"Oregon","zipcode":"97210","slug":"floyd-s-fine-cannabis-slab-city"},{"name":"Budee","type":"delivery","phone":"(925) 684-6774","city":"Portland","state":"Oregon","zipcode":"97236","slug":"budee-252"},{"name":"One Draw Two","type":"dispensary","phone":"(503) 954-1433","city":"Portland","state":"Oregon","zipcode":"97220","slug":"one-draw-two"},{"name":"Pipe Dreams Dispensary - Lincoln City","type":"dispensary","phone":"(541) 614-0682","city":"Lincoln City","state":"Oregon","zipcode":"97367","slug":"pipe-dreams-dispensary"},{"name":"A Prime Leaf","type":"dispensary","phone":"(971) 599-5892","city":"Salem","state":"Oregon","zipcode":"97302","slug":"a-prime-leaf"},{"name":"Hi Cascade - Eugene","type":"dispensary","phone":"(541) 510-8298","city":"Veneta","state":"Oregon","zipcode":"97487","slug":"hi-cascade-eugene"},{"name":"Next Level Wellness","type":"dispensary","phone":"(541) 515-6514","city":"Eugene","state":"Oregon","zipcode":"97405","slug":"next-level-wellness"},{"name":"Club Sky High","type":"delivery","phone":"(503) 719-5801","city":"Portland","state":"Oregon","zipcode":"97203","slug":"club-sky-high-1"},{"name":"Kush Cart","type":"delivery","phone":"(971) 229-1281","city":"Portland","state":"Oregon","zipcode":"97211","slug":"kush-cart-44"},{"name":"Mid Valley Cannabis","type":"dispensary","phone":"(458) 201-8975","city":"Springfield","state":"Oregon","zipcode":"97477","slug":"mid-valley-cannabis-west"},{"name":"Nature's Alternative, Inc.","type":"dispensary","phone":"(503) 252-9905","city":"Portland","state":"Oregon","zipcode":"97230","slug":"nature-s-alternative-inc-2"},{"name":"Bridge City Collective - Southeast Portland","type":"dispensary","phone":"(503) 477-9532","city":"Portland","state":"Oregon","zipcode":"97214","slug":"bridge-city-collective-southeast-portland"},{"name":"Green Gratitude Delivery","type":"delivery","phone":"503-444-7707","city":"Portland","state":"Oregon","zipcode":"97214","slug":"green-gratitude-delivery-1"},{"name":"Going Green Albany","type":"dispensary","phone":"(541) 704-0757","city":"Albany","state":"Oregon","zipcode":"97322","slug":"going-green-albany"},{"name":"Preserve Oregon","type":"delivery","phone":"(971) 719-2914","city":"Salem","state":"Oregon","zipcode":"97302","slug":"preserve-oregon-1"},{"name":"Cannabliss & Co. - Firestation 23","type":"dispensary","phone":"(503) 719-4338","city":"Portland","state":"Oregon","zipcode":"97214","slug":"cannabliss-portland"},{"name":"Bahama Buds - Cannon Beach","type":"dispensary","phone":"(503) 436-4298","city":"Cannon Beach","state":"Oregon","zipcode":"97110","slug":"bahama-buds-cannon-beach"},{"name":"Electric Lettuce - Foster \/ Powell","type":"dispensary","phone":"(503) 444-7433","city":"Portland","state":"Oregon","zipcode":"97206","slug":"electric-lettuce-foster-powell"},{"name":"Otis Collective","type":"dispensary","phone":"(541) 418-5085","city":"Otis","state":"Oregon","zipcode":"97368","slug":"otis-collective"},{"name":"Marie Janes Cannabis Connection","type":"dispensary","phone":"(541) 360-3952","city":"Corvallis","state":"Oregon","zipcode":"97333","slug":"mary-jane-s-cannabis-connection"},{"name":"Nectar - Hillsboro","type":"dispensary","phone":"(971) 245-5675","city":"Hillsboro","state":"Oregon","zipcode":"97123","slug":"nectar-hillsboro"},{"name":"Hi Cascade - Salem","type":"dispensary","phone":"(971) 273-7920","city":"Salem","state":"Oregon","zipcode":"97306","slug":"hi-cascade-2"},{"name":"Budee","type":"delivery","phone":"(925) 684-6774","city":"Portland","state":"Oregon","zipcode":"97206","slug":"ganjarunner-3098"},{"name":"Rooted Coast Cannabis","type":"delivery","phone":"(541) 808-2883","city":"Coos Bay","state":"Oregon","zipcode":"97420","slug":"rooted-coast-cannabis"},{"name":"Today's Herbal Choice Rainier","type":"dispensary","phone":"(503) 395-2340","city":"Rainier","state":"Oregon","zipcode":"97048","slug":"oregon-medical-grade-rainier"},{"name":"Mary Jane","type":"dispensary","phone":"(503) 837-0130","city":"Independence","state":"Oregon","zipcode":"97351","slug":"mary-jane-5"},{"name":"Kaleafa Cannabis Company - Gresham","type":"dispensary","phone":"(971) 407-3208","city":"Gresham","state":"Oregon","zipcode":"97080","slug":"kaleafa-cannabis-company-gresham"},{"name":"Today's Herbal Choice Tillamook LLC","type":"dispensary","phone":"5033545014","city":"Tillamook","state":"Oregon","zipcode":"97141","slug":"today-s-herbal-choice-tillamook-llc"},{"name":"Oregon Cannabis Co","type":"dispensary","phone":"(541) 791-7714","city":"Albany","state":"Oregon","zipcode":"97321","slug":"oregon-cannabis-co"},{"name":"NoDak Green Prairie","type":"dispensary","phone":"(541) 505-8740","city":"Eugene","state":"Oregon","zipcode":"97401","slug":"nodak-green-prairie"},{"name":"Oregon's Green Rush - Delivery","type":"delivery","phone":"(541) 653-8523","city":"Eugene","state":"Oregon","zipcode":"97401","slug":"oregon-s-green-rush-delivery"},{"name":"Frontier Farms - Hood River","type":"dispensary","phone":"(541) 645-4396","city":"Hood River","state":"Oregon","zipcode":"97031","slug":"frontier-farms-hood-river"},{"name":"Virtue Supply Company","type":"dispensary","phone":"(971) 940-6624","city":"Portland","state":"Oregon","zipcode":"97209","slug":"virtue-supply-company"},{"name":"Pure Green","type":"dispensary","phone":"(503) 432-8557","city":"Portland","state":"Oregon","zipcode":"97232","slug":"pure-green"},{"name":"Local Leaf","type":"dispensary","phone":"(503) 946-8199","city":"Portland","state":"Oregon","zipcode":"97223","slug":"local-leaf"},{"name":"Diem Delivery (NW\/SW\/S)","type":"delivery","phone":"(503) 610-9019","city":"Portland","state":"Oregon","zipcode":"97209","slug":"diem-cannabis-delivery-3"},{"name":"Green Muse","type":"delivery","phone":"(971) 301-5859","city":"Portland","state":"Oregon","zipcode":"97211","slug":"green-muse"},{"name":"American Cannabinoid Clinics","type":"doctor","phone":"(503) 747-3760","city":"Portland","state":"Oregon","zipcode":"97202","slug":"american-cannabinoid-clinics-3"},{"name":"TumbleWeed - Hines","type":"dispensary","phone":"(541) 573-1399","city":"Hines","state":"Oregon","zipcode":"97738","slug":"tumbleweed-hines"},{"name":"Substance - Division","type":"dispensary","phone":"(541) 317-1814","city":"Bend","state":"Oregon","zipcode":"97701","slug":"substance-division"},{"name":"Green Knottz","type":"dispensary","phone":"(541) 536-1070","city":"La Pine","state":"Oregon","zipcode":"97739","slug":"green-knottz-2"},{"name":"Potland","type":"delivery","phone":"503-432-8629","city":"Portland","state":"Oregon","zipcode":"97232","slug":"potland-1"},{"name":"West Premium Cannabis","type":"dispensary","phone":"(503) 883-1995","city":"Oregon City","state":"Oregon","zipcode":"97045","slug":"west-premium-cannabis-thefarmm-oc"},{"name":"Oregon Coast Dispensary","type":"dispensary","phone":"(541) 264-8102","city":"Newport","state":"Oregon","zipcode":"97365","slug":"nbhh"},{"name":"M Thrive Organics","type":"dispensary","phone":"(541) 769-1420","city":"The Dalles","state":"Oregon","zipcode":"97058","slug":"m-thrive-organics-llc"},{"name":"Northwest Alternative Health","type":"doctor","phone":"(888) 920-6076","city":"Eugene","state":"Oregon","zipcode":"97402","slug":"medical-marijuana-clinic-eugene-ommp-card-oregon-medical-marijuana-program"},{"name":"Cannabis Nation - Gresham","type":"dispensary","phone":"(503) 492-6159","city":"Gresham","state":"Oregon","zipcode":"97030","slug":"cannabis-nation-2"},{"name":"Homegrown Oregon - Beaverton","type":"dispensary","phone":"(971) 273-7523","city":"Portland","state":"Oregon","zipcode":"97221","slug":"homegrown-oregon-beaverton"},{"name":"Albany Alternative Health Solutions","type":"dispensary","phone":"(541) 981-2527","city":"Albany","state":"Oregon","zipcode":"97321","slug":"albany-alternative-health-solutions-2"},{"name":"Green Box","type":"delivery","phone":"9712631975","city":"Portland","state":"Oregon","zipcode":"97206","slug":"green-box-4"},{"name":"HomeGrown Remedies","type":"dispensary","phone":"(503) 979-0298","city":"Stayton","state":"Oregon","zipcode":"97383","slug":"homegrown-remedies"},{"name":"Budee","type":"delivery","phone":"(925) 684-6774","city":"Portland","state":"Oregon","zipcode":"97216","slug":"budee-268"},{"name":"Pursuit of Happiness","type":"dispensary","phone":"(541) 756-4279","city":"North Bend","state":"Oregon","zipcode":"97459","slug":"pursuit-of-happiness-2"},{"name":"JAYNE","type":"dispensary","phone":"(503) 719-5665","city":"Portland","state":"Oregon","zipcode":"97212","slug":"jayne-2"},{"name":"The Coughie Pot","type":"dispensary","phone":"(541) 894-2236","city":"Sumpter","state":"Oregon","zipcode":"97877","slug":"the-coughie-pot"},{"name":"Eden Cannabis - Roseway","type":"dispensary","phone":"(503) 477-4368","city":"Portland","state":"Oregon","zipcode":"97213","slug":"rose-city-usa"},{"name":"Four Seasons","type":"dispensary","phone":"(541) 791-9418","city":"Albany","state":"Oregon","zipcode":"97321","slug":"four-seasons"},{"name":"Gram Central Station","type":"dispensary","phone":"(503) 284-6714","city":"Portland","state":"Oregon","zipcode":"97211","slug":"gram-central-station"},{"name":"Nectar - Gresham Halsey","type":"dispensary","phone":"(503) 328-8182","city":"Portland","state":"Oregon","zipcode":"97230","slug":"nectar-gresham-halsey"},{"name":"Budee","type":"delivery","phone":"(925) 684-6774","city":"Portland","state":"Oregon","zipcode":"97230","slug":"budee-265"},{"name":"Happy Leaf","type":"dispensary","phone":"(971) 800-0420","city":"Portland","state":"Oregon","zipcode":"97232","slug":"happy-leaf"},{"name":"THClear","type":"dispensary","phone":"(541) 405-4394","city":"Lebanon","state":"Oregon","zipcode":"97355","slug":"thclear-lebanon"},{"name":"Emerald Triangle Dispensary - Medford","type":"dispensary","phone":"(541) 500-1332","city":"Medford","state":"Oregon","zipcode":"97501","slug":"emerald-triangle-medford"},{"name":"Emerald City Dispensary","type":"dispensary","phone":"(503) 987-1028","city":"Scappoose","state":"Oregon","zipcode":"97056","slug":"emerald-city-dispensary"},{"name":"West Premium Cannabis - Pacific City","type":"dispensary","phone":"503-883-1952","city":"Pacific City","state":"Oregon","zipcode":"97112","slug":"west-premium-cannabis-pacific-city"},{"name":"Lifted NorthWest","type":"dispensary","phone":"(503) 894-9495","city":"Portland","state":"Oregon","zipcode":"97266","slug":"lifted-northwest"},{"name":"Market Street Station","type":"dispensary","phone":"5036891605","city":"Salem","state":"Oregon","zipcode":"97301","slug":"market-street-station"},{"name":"Green Cross Cannabis Emporium - Commercial St.","type":"dispensary","phone":"(503) 339-7158","city":"Salem","state":"Oregon","zipcode":"97302","slug":"tlc-medical"},{"name":"Green Man Collective","type":"dispensary","phone":"(503) 368-3424","city":"Wheeler","state":"Oregon","zipcode":"97147","slug":"green-man-collective"},{"name":"The Vth","type":"dispensary","phone":"(503) 747-7877","city":"Hillsboro","state":"Oregon","zipcode":"97123","slug":"the-vth"},{"name":"Track Town Collective","type":"dispensary","phone":"(541) 654-0452","city":"Eugene","state":"Oregon","zipcode":"97403","slug":"track-town-collective"},{"name":"Green Earth Medicine","type":"doctor","phone":"(503) 303-8456","city":"Tillamook","state":"Oregon","zipcode":"97141","slug":"green-earth-medicine"},{"name":"DiamondTree - Westside - Bend","type":"dispensary","phone":"(541) 388-7901","city":"Bend","state":"Oregon","zipcode":"97703","slug":"diamondtree-westside-2-2"},{"name":"Kaya Shack - Portland","type":"dispensary","phone":"(503) 954-2348","city":"Portland","state":"Oregon","zipcode":"97214","slug":"kaya-shack"},{"name":"Cloud 9 Wellness","type":"dispensary","phone":"(541) 622-8018","city":"Medford","state":"Oregon","zipcode":"97504","slug":"cloud-9-wellness"},{"name":"Breeze Botanicals - Gold Hill","type":"dispensary","phone":"(541) 855-8797","city":"Gold Hill","state":"Oregon","zipcode":"97525","slug":"breeze-botanicals"},{"name":"Mother Earth Medicines","type":"dispensary","phone":"(541) 816-4800","city":"Medford","state":"Oregon","zipcode":"97501","slug":"mother-earth-medicine"},{"name":"P.A.P.A.'S Dispensary","type":"dispensary","phone":"(541) 592-4367","city":"Cave Junction","state":"Oregon","zipcode":"97523","slug":"providing-all-patients-access-papa-s"},{"name":"Oregrown","type":"dispensary","phone":"(541) 323-3822","city":"Bend","state":"Oregon","zipcode":"97703","slug":"oregrown-2"},{"name":"HomeGrown Remedies - Turner","type":"dispensary","phone":"(503) 743-1176","city":"Turner","state":"Oregon","zipcode":"97392","slug":"homegrown-remedies-turner"},{"name":"Bloominati Cannabis","type":"dispensary","phone":"(541) 230-1465","city":"Corvallis","state":"Oregon","zipcode":"97333","slug":"bloominati-cannabis"},{"name":"La Mota - Rockaway Beach","type":"dispensary","phone":"(503) 355-6333","city":"Rockaway Beach","state":"Oregon","zipcode":"97136","slug":"la-mota-rockaway-beach"},{"name":"The Joint On Market","type":"dispensary","phone":"(971) 304-7131","city":"Salem","state":"Oregon","zipcode":"97301","slug":"the-joint-3-4"},{"name":"The New Amsterdam - Lakeview","type":"dispensary","phone":"540-558-3227","city":"Lakeview","state":"Oregon","zipcode":"97630","slug":"the-new-amsterdam-lakeview"},{"name":"Top Shelf Cannabis - McMinnville","type":"dispensary","phone":"(503) 472-2405","city":"McMinnville","state":"Oregon","zipcode":"97128","slug":"top-shelf-cannabis"},{"name":"Oasis Cannabis - Newberg","type":"dispensary","phone":"(971) 832-8737","city":"Newberg","state":"Oregon","zipcode":"97132","slug":"oasis-cannabis-2"},{"name":"Mandy's Sugar Shack","type":"dispensary","phone":"(541) 942-5002","city":"Cottage Grove","state":"Oregon","zipcode":"97424","slug":"mandy-s-sugar-shack"},{"name":"Top Shelf Medicine - Bend","type":"dispensary","phone":"(541) 389-1043","city":"Bend","state":"Oregon","zipcode":"97701","slug":"top-shelf-medicine-3-2"},{"name":"Cannabis Nation SunRiver","type":"dispensary","phone":"(541) 241-7380","city":"SunRiver","state":"Oregon","zipcode":"97707","slug":"cannabis-nation-sun-river"},{"name":"Preserve Oregon","type":"dispensary","phone":"(971) 719-2914","city":"Salem","state":"Oregon","zipcode":"97302","slug":"preserve-oregon"},{"name":"Green Muse","type":"delivery","phone":"(971) 301-5859","city":"Portland","state":"Oregon","zipcode":"97211","slug":"green-muse-2"},{"name":"High Desert Cannabis","type":"dispensary","phone":"(541) 240-2011","city":"Pendleton","state":"Oregon","zipcode":"97801","slug":"high-desert-cannabis"},{"name":"Plantae Health Center - Madras","type":"dispensary","phone":"(541) 475-0457","city":"Madras","state":"Oregon","zipcode":"97741","slug":"plantae-health-center-2"},{"name":"LUCKY LION - SANDY","type":"dispensary","phone":"(503) 946-1807","city":"Portland","state":"Oregon","zipcode":"97230","slug":"lucky-lion-sandy"},{"name":"Green Ridge Apothecary","type":"dispensary","phone":"(971) 261-2623","city":"McMinnville","state":"Oregon","zipcode":"97128","slug":"green-ridge-apothecary"},{"name":"Paradise Found","type":"dispensary","phone":"(971) 803-7172","city":"Portland","state":"Oregon","zipcode":"97220","slug":"paradise-found"},{"name":"Speedy Janes","type":"dispensary","phone":"503-744-7420","city":"Hillsboro","state":"Oregon","zipcode":"97123","slug":"speedy-janes"},{"name":"LUCKY LION - HALSEY","type":"dispensary","phone":"971-407-3124","city":"Portland","state":"Oregon","zipcode":"97213","slug":"lucky-lion"},{"name":"Budee","type":"delivery","phone":"(925) 732-9098","city":"Portland","state":"Oregon","zipcode":"97202","slug":"budee-6660d8ac-3ca2-402d-8178-0f0997d5d039"},{"name":"Chronic Care Inc.","type":"doctor","phone":"(541) 344-1688","city":"Eugene","state":"Oregon","zipcode":"97401","slug":"chronic-care-inc"},{"name":"Umpqua Green Cross","type":"dispensary","phone":"(541) 900-1177","city":"Roseburg","state":"Oregon","zipcode":"97470","slug":"umpqua-green-cross"},{"name":"Oregon Bud Company - Newport","type":"dispensary","phone":"(541) 265-8611","city":"Newport","state":"Oregon","zipcode":"97365","slug":"oregon-bud-company-newport"},{"name":"Jamaica Joel's Delivery","type":"delivery","phone":"(541) 505-8293","city":"Eugene","state":"Oregon","zipcode":"97401","slug":"jamaica-joel-s-delivery"},{"name":"Local Herb Collective","type":"dispensary","phone":"(503) 433-8030","city":"Portland","state":"Oregon","zipcode":"97236","slug":"local-herb-collective"},{"name":"Oregons Finest","type":"delivery","phone":"(503) 239-1150","city":"Portland","state":"Oregon","zipcode":"97209","slug":"oregons-finest"},{"name":"The People's Wellness Center","type":"dispensary","phone":"(541) 505-8100","city":"Eugene","state":"Oregon","zipcode":"97401","slug":"the-people-s-wellness-center-2"},{"name":"NW Compassion Medical Center","type":"dispensary","phone":"(503) 994-2000","city":"Wood Village","state":"Oregon","zipcode":"97060","slug":"nw-compassion-medical-centers"},{"name":"Blooming Deals by Cannabis Nation","type":"dispensary","phone":"(503) 430-5909","city":"Beaverton","state":"Oregon","zipcode":"97006","slug":"blooming-deals-by-cannabis-nation"},{"name":"Smooth Roots Cannabis","type":"dispensary","phone":"971-261-2372","city":"McMinnville","state":"Oregon","zipcode":"97128","slug":"smooth-roots-cannabis"},{"name":"Budding Culture","type":"dispensary","phone":"(503) 719-6192","city":"Portland","state":"Oregon","zipcode":"97213","slug":"grass-shack-pdx"},{"name":"Bahama Buds","type":"delivery","phone":"(541) 808-9420","city":"Coos Bay","state":"Oregon","zipcode":"97420","slug":"bahama-buds-1"},{"name":"Mt Hood Cannabis Company","type":"dispensary","phone":"(503) 622-4272","city":"Rhododendron","state":"Oregon","zipcode":"97049","slug":"mt-hood-rec-center"},{"name":"Tsunami Marijuana","type":"dispensary","phone":"(971) 320-2174","city":"Seaside","state":"Oregon","zipcode":"97138","slug":"tsunami-marijuana"},{"name":"Going Green Grand Ronde","type":"dispensary","phone":"(971) 241-4363","city":"Willamina","state":"Oregon","zipcode":"97396","slug":"going-green-grande-ronde"},{"name":"Wild West Emporium - Sandy Blvd","type":"dispensary","phone":"(503) 252-9905","city":"Portland","state":"Oregon","zipcode":"97230","slug":"wild-west-emporium-sandy-blvd"},{"name":"Eden Cannabis - Buckman","type":"dispensary","phone":"503-477-9998","city":"Portland","state":"Oregon","zipcode":"97214","slug":"eden-cannabis-buckman"},{"name":"Little Amsterdam - Nevada","type":"dispensary","phone":"(503) 384-2751","city":"Portland","state":"Oregon","zipcode":"97219","slug":"little-amsterdam-nevada"},{"name":"Five Zero Trees - Portland East","type":"dispensary","phone":"(971) 544-7361","city":"Portland","state":"Oregon","zipcode":"97266","slug":"five-zero-trees"},{"name":"Archive Portland","type":"dispensary","phone":"(503) 719-4229","city":"Portland","state":"Oregon","zipcode":"97266","slug":"archive-portland"},{"name":"Columbia River Herbals","type":"dispensary","phone":"(541) 296-1656","city":"The Dalles","state":"Oregon","zipcode":"97058","slug":"columbia-river-herbals-west-2"},{"name":"Stoney Only Clackamas","type":"dispensary","phone":"(503) 303-5752","city":"Clackamas","state":"Oregon","zipcode":"97015","slug":"stoney-only-clackamas"},{"name":"Farma","type":"delivery","phone":"(503)206-4357","city":"Portland","state":"Oregon","zipcode":"97214","slug":"farma"},{"name":"Piper's Holistic Essentials","type":"dispensary","phone":"(503) 586-3349","city":"Salem","state":"Oregon","zipcode":"97301","slug":"pipers-holistic-essentials"},{"name":"Nectar - Commercial","type":"dispensary","phone":"(503) 990-6667","city":"Salem","state":"Oregon","zipcode":"97302","slug":"nectar-commercial"},{"name":"PotMates - Portland North","type":"delivery","phone":"971-255-0076","city":"Portland","state":"Oregon","zipcode":"97212","slug":"potmates-portland-north"},{"name":"Cured Green","type":"dispensary","phone":"(503) 206-5430","city":"Portland","state":"Oregon","zipcode":"97217","slug":"cured-green"},{"name":"Tetra Cannabis Delivery","type":"delivery","phone":"(503) 206-7559","city":"Portland","state":"Oregon","zipcode":"97214","slug":"tetra-cannabis-delivery-1"},{"name":"Oregon Bud Company - Beaverton","type":"dispensary","phone":"(503) 352-4484","city":"Beaverton","state":"Oregon","zipcode":"97005","slug":"oregon-bud-company-beaverton-2"},{"name":"Tokyo Starfish South","type":"dispensary","phone":"(541) 241-2387","city":"Bend","state":"Oregon","zipcode":"97702","slug":"tokyo-starfish-south"},{"name":"Bud Junction","type":"dispensary","phone":"(541) 592-4197","city":"Kerby","state":"Oregon","zipcode":"97531","slug":"bud-junction"},{"name":"Shaman Cannabis - Halsey","type":"dispensary","phone":"9710000000","city":"Portland","state":"Oregon","zipcode":"97220","slug":"shaman-fine-cannabis"},{"name":"The Green Planet - Beaverton","type":"dispensary","phone":"(503) 352-9920","city":"Beaverton","state":"Oregon","zipcode":"97005","slug":"the-green-planet-beaverton"},{"name":"Oregon Bud Company - Keizer","type":"dispensary","phone":"(971) 599-5438","city":"Keizer","state":"Oregon","zipcode":"97303","slug":"oregon-bud-company-keizer"},{"name":"Silver Creek Dispensary","type":"dispensary","phone":"(503) 874-4630","city":"Silverton","state":"Oregon","zipcode":"97381","slug":"silver-creek-dispensary"},{"name":"Green Room - Headquarters","type":"dispensary","phone":"(541) 230-1096","city":"Corvallis","state":"Oregon","zipcode":"97330","slug":"green-room"},{"name":"Gorge Greenery","type":"dispensary","phone":"(541) 436-4647","city":"Hood River","state":"Oregon","zipcode":"97031","slug":"gorge-greenery"},{"name":"Cougar Cannabis","type":"dispensary","phone":"(541) 391-4955","city":"Roseburg","state":"Oregon","zipcode":"97470","slug":"cougar-cannabis"},{"name":"The Greener Side","type":"dispensary","phone":"(541) 345-8904","city":"Eugene","state":"Oregon","zipcode":"97404","slug":"the-greener-side-4"},{"name":"Puddletown Organics","type":"dispensary","phone":"(503) 558-6321","city":"Portland","state":"Oregon","zipcode":"97266","slug":"puddletown-organics-2-2"},{"name":"Beatnick's Finest","type":"dispensary","phone":"541-953-1154","city":"Corvallis","state":"Oregon","zipcode":"97333","slug":"beatnick-s-finest"},{"name":"Harvest Moon Cannabis","type":"dispensary","phone":"(541) 590-3500","city":"Florence","state":"Oregon","zipcode":"97439","slug":"harvest-moon-cannabis"},{"name":"Budee","type":"delivery","phone":"(925) 684-6774","city":"Portland","state":"Oregon","zipcode":"97239","slug":"budee-2-41"},{"name":"Mr. Nice Guy - Depoe Bay","type":"dispensary","phone":"(541) 614-4319","city":"Depoe Bay","state":"Oregon","zipcode":"97341","slug":"mr-niceguy-depoe-bay"},{"name":"Rogue Valley Cannabis - Central Point","type":"dispensary","phone":"(541) 879-0681","city":"Central Point","state":"Oregon","zipcode":"97502","slug":"rogue-valley-cannabis-dispensary"},{"name":"Blackbird Crow","type":"dispensary","phone":"(503) 837-0011 ","city":"Monmouth","state":"Oregon","zipcode":"97361","slug":"blackbird-crow"},{"name":"Hunky Dory Dispensary","type":"dispensary","phone":"(541) 505-8334","city":"Eugene","state":"Oregon","zipcode":"97401","slug":"hunky-dory-dispensary"},{"name":"Bud Bros. - Cave Junction","type":"dispensary","phone":"(541) 592-3500","city":"Cave Junction","state":"Oregon","zipcode":"97523","slug":"bud-bros-cave-junction"},{"name":"Dab Town USA","type":"dispensary","phone":"(541) 690-1711","city":"Medford","state":"Oregon","zipcode":"97501","slug":"dab-town-usa"},{"name":"Budee","type":"delivery","phone":"(925) 684-6774","city":"Portland","state":"Oregon","zipcode":"97220","slug":"budee-22"},{"name":"Sunray Cannabis","type":"dispensary","phone":"(541) 614-1358","city":"Lincoln City","state":"Oregon","zipcode":"97367","slug":"sunray-cannabis-2"},{"name":"Fidus PDX","type":"dispensary","phone":"(503) 889-0682","city":"Portland","state":"Oregon","zipcode":"97219","slug":"fidus-pdx-portland"},{"name":"Ocean Grown Cannabis Company","type":"dispensary","phone":"(503) 687-2668","city":"McMinnville","state":"Oregon","zipcode":"97128","slug":"ocean-grown-cannabis-company"},{"name":"High Quality","type":"dispensary","phone":"(541) 286-4771","city":"Corvallis","state":"Oregon","zipcode":"97330","slug":"high-quality-compassion"},{"name":"The Bud House","type":"dispensary","phone":"5412166118","city":"Ontario","state":"Oregon","zipcode":"97914","slug":"the-bud-house-1"},{"name":"Mr. Nice Guy - Commercial St","type":"dispensary","phone":"(503) 990-7535","city":"Salem","state":"Oregon","zipcode":"97302","slug":"mr-nice-guy-commercial-st"},{"name":"Cookies Halsey","type":"dispensary","phone":"5037649863","city":"Portland","state":"Oregon","zipcode":"97230","slug":"cookies-halsey"},{"name":"Way High 101","type":"dispensary","phone":"(541) 808-3700","city":"Coos Bay","state":"Oregon","zipcode":"97420","slug":"way-high-101"},{"name":"Green Goddess Remedies","type":"dispensary","phone":"(503) 764-9000","city":"Portland","state":"Oregon","zipcode":"97219","slug":"green-goddess-remedies-2"},{"name":"Emerald Triangle Dispensary - Klamath","type":"dispensary","phone":"5418519152","city":"Klamath Falls","state":"Oregon","zipcode":"97601","slug":"emerald-triangle-dispensary"},{"name":"House of Hash","type":"dispensary","phone":"541-907-1857","city":"La Pine","state":"Oregon","zipcode":"97739","slug":"house-of-hash-1"},{"name":"Power Plant Foster","type":"dispensary","phone":"971-302-7283","city":"Portland","state":"Oregon","zipcode":"97266","slug":"power-plant-foster"},{"name":"Breeze Botanicals - Ashland","type":"delivery","phone":"(541) 708-6446","city":"Ashland","state":"Oregon","zipcode":"97520","slug":"breeze-botanicals-ashland"},{"name":"House of Leaves - Ashland","type":"dispensary","phone":"(541) 488-6776","city":"Ashland","state":"Oregon","zipcode":"97520","slug":"house-of-leaves-2-3"},{"name":"Bud Mart","type":"dispensary","phone":"(541) 251-7002","city":"Harbor","state":"Oregon","zipcode":"97415","slug":"bud-mart-2"},{"name":"Madrone Dispensary Ashland","type":"dispensary","phone":"(541) 708-6480","city":"Ashland","state":"Oregon","zipcode":"97520","slug":"madrone-cannabis-club"},{"name":"Tamerans Dispensary","type":"dispensary","phone":"(541) 295-8551","city":"Grants Pass","state":"Oregon","zipcode":"97526","slug":"tamerans-dispensary"},{"name":"Ocean Grown Cannabis","type":"dispensary","phone":"458-226-2414","city":"Central Point","state":"Oregon","zipcode":"97502","slug":"ocean-grown-cannabis"},{"name":"Green Cross Dispensary","type":"dispensary","phone":"(541) 466-9110","city":"Brownsville","state":"Oregon","zipcode":"97327","slug":"green-cross-dispensary"},{"name":"Eugene OG","type":"dispensary","phone":"(541) 505-7575","city":"Eugene","state":"Oregon","zipcode":"97403","slug":"eugene-og"},{"name":"Kush Cart","type":"delivery","phone":"(971) 229-1281","city":"Portland","state":"Oregon","zipcode":"97206","slug":"kush-cart-3"},{"name":"Yachats Cannabis Company","type":"dispensary","phone":"(541) 547-4912","city":"Yachats","state":"Oregon","zipcode":"97498","slug":"yachats-cannabis-company"},{"name":"Green Room - South","type":"dispensary","phone":"(541) 230-1896","city":"Corvallis","state":"Oregon","zipcode":"97333","slug":"the-agrestic-2"},{"name":"Kaya Shack - Portland West","type":"delivery","phone":"(503) 954-2348","city":"Portland","state":"Oregon","zipcode":"97203","slug":"kaya-shack-portland-west"},{"name":"Nectar - Milwaukie","type":"dispensary","phone":"(503) 908-8564","city":"Milwaukie","state":"Oregon","zipcode":"97222","slug":"nectar-milwaukie"},{"name":"Electric Lettuce - Oregon City","type":"dispensary","phone":"(503) 868-0289","city":"Oregon City","state":"Oregon","zipcode":"97045","slug":"electric-lettuce-3"},{"name":"Nectar - Eugene 6th","type":"dispensary","phone":"(541) 636 4735","city":"Eugene","state":"Oregon","zipcode":"97402","slug":"nectar-whiteaker"},{"name":"Satchel","type":"dispensary","phone":"(503) 206-4725","city":"Portland","state":"Oregon","zipcode":"97217","slug":"satchel"},{"name":"Livewell Dispensary","type":"dispensary","phone":"(971) 600-3464","city":"Salem","state":"Oregon","zipcode":"97301","slug":"livewell-dispensary"},{"name":"Dub Hub","type":"dispensary","phone":"5039468638","city":"Portland","state":"Oregon","zipcode":"97236","slug":"dub-hub-1"},{"name":"Bridge City Collective - North Portland","type":"dispensary","phone":"(503) 384-2955","city":"Portland","state":"Oregon","zipcode":"97217","slug":"bridge-city-collective-2"},{"name":"Power Plant on Thurman","type":"dispensary","phone":"(971) 803-7970","city":"Portland","state":"Oregon","zipcode":"97210","slug":"thurman-street-collective"},{"name":"THC Recreation Station Salem","type":"dispensary","phone":"(503) 391-8214","city":"Salem","state":"Oregon","zipcode":"97302","slug":"2nd-step-medical-marijuana-dispensary"},{"name":"Nectar - Springfield","type":"dispensary","phone":"541-654-8136","city":"Springfield","state":"Oregon","zipcode":"97478","slug":"nectar-springfield"},{"name":"Buds4U - Mapleton","type":"dispensary","phone":"(541) 268-1924","city":"Mapleton","state":"Oregon","zipcode":"97453","slug":"buds4u"},{"name":"Exodus Wellness Center and Social Club","type":"dispensary","phone":"(971) 242-8079","city":"Portland","state":"Oregon","zipcode":"97236","slug":"exodus-wellness-center-and-social-club-portland"},{"name":"The Green Remedy","type":"dispensary","phone":"(503) 954-2991","city":"Portland","state":"Oregon","zipcode":"97236","slug":"the-green-remedy"},{"name":"Cannabliss & Co. - Main Street","type":"dispensary","phone":"(541) 246-8615","city":"Springfield","state":"Oregon","zipcode":"97477","slug":"cannabliss-springfield"},{"name":"Highway 420","type":"dispensary","phone":"(503) 717-5045","city":"Seaside","state":"Oregon","zipcode":"97138","slug":"highway-420-3"},{"name":"Tetra Cannabis","type":"dispensary","phone":"(503) 206-7559","city":"Portland","state":"Oregon","zipcode":"97214","slug":"tetra-cannabis"},{"name":"Shango - Harold","type":"dispensary","phone":"(503) 788-7005","city":"Portland","state":"Oregon","zipcode":"97206","slug":"shango-cannabis-portland"},{"name":"Kaya Shack - Portland North","type":"delivery","phone":"(503) 954-2348","city":"Portland","state":"Oregon","zipcode":"97207","slug":"kaya-shack-portland-north"},{"name":"Treasure Valley Cannabis Company","type":"dispensary","phone":"(458)-224-8400","city":"Ontario","state":"Oregon","zipcode":"97914","slug":"treasure-valley-cannabis-company"},{"name":"Western Oregon Dispensary - Cedar Mill","type":"dispensary","phone":"(503) 487-6679","city":"Portland","state":"Oregon","zipcode":"97229","slug":"western-oregon-dispensary-cedar-mill"},{"name":"Green Mart","type":"dispensary","phone":"503-747-0333","city":"Beaverton","state":"Oregon","zipcode":"97005","slug":"green-mart"},{"name":"Budee","type":"delivery","phone":"(925) 684-6774","city":"Portland","state":"Oregon","zipcode":"97201","slug":"budee-297"},{"name":"Refinery","type":"dispensary","phone":"(971) 291-0052","city":"Portland","state":"Oregon","zipcode":"97232","slug":"refinery-2"},{"name":"S & S Emporium","type":"dispensary","phone":"(541) 808-0917","city":"Coos Bay","state":"Oregon","zipcode":"97420","slug":"s-s-emporium"},{"name":"High 5 Cannabis","type":"dispensary","phone":"(541) 726-9333","city":"Eugene","state":"Oregon","zipcode":"97404","slug":"high-5-cannabis-eugene"},{"name":"Be Wonderful Wellness Center","type":"dispensary","phone":"(503) 528-2000","city":"Portland","state":"Oregon","zipcode":"97218","slug":"be-wonderful-wellness-center"},{"name":"OG Collective Dispensary - Monmouth","type":"dispensary","phone":"(503) 837-0450","city":"Monmouth","state":"Oregon","zipcode":"97361","slug":"og-collective-dispensary-monmouth"},{"name":"Today's Herbal Choice Stayton","type":"dispensary","phone":"503-767-2388","city":"Stayton","state":"Oregon","zipcode":"97383","slug":"today-s-herbal-choice-stayton"},{"name":"Oregon's Herbal Remedies","type":"dispensary","phone":"(541) 935-9618","city":"Veneta","state":"Oregon","zipcode":"97487","slug":"oregon-s-herbal-remedies-2"},{"name":"Stonies LLC","type":"dispensary","phone":"(541) 751-0002","city":"North Bend","state":"Oregon","zipcode":"97459","slug":"stonies-llc-2"},{"name":"High Quality","type":"delivery","phone":"(541) 286-4771","city":"Corvallis","state":"Oregon","zipcode":"97330","slug":"high-quality-728"},{"name":"Rogue River Herbal PMC","type":"dispensary","phone":"(541) 299-0090","city":"Rogue River","state":"Oregon","zipcode":"97527","slug":"rogue-river-herbal-pain-management-center-2"},{"name":"Substance - Bend","type":"dispensary","phone":"541-317-1814","city":"Bend","state":"Oregon","zipcode":"97702","slug":"substance"},{"name":"Cannabend","type":"delivery","phone":"(541) 617-0420","city":"Bend","state":"Oregon","zipcode":"97701","slug":"cannabend"},{"name":"Pioneer Cannabis Co.","type":"dispensary","phone":"(541) 249-3231","city":"Madras","state":"Oregon","zipcode":"97741","slug":"pioneer-cannabis-co"},{"name":"South Coast Dispensaries and More","type":"dispensary","phone":"(541) 813-2133","city":"Brookings","state":"Oregon","zipcode":"97415","slug":"south-coast-dispensaries-and-more-2"},{"name":"Empower Healthcare Bend","type":"doctor","phone":"(541) 550-5354","city":"Bend","state":"Oregon","zipcode":"97701","slug":"empower-healthcare-bend"},{"name":"Lincoln City Collective","type":"dispensary","phone":"(541) 557-9402","city":"Lincoln City","state":"Oregon","zipcode":"97367","slug":"lincoln-city-collective"},{"name":"La Mota - Hollywood","type":"dispensary","phone":"(503) 282-9333","city":"Portland","state":"Oregon","zipcode":"97213","slug":"la-mota-hollywood"},{"name":"Green Mountain Fire","type":"dispensary","phone":"(503) 912-3539","city":"Gresham","state":"Oregon","zipcode":"97030","slug":"green-mountain-fire"},{"name":"Tj's on Powell","type":"dispensary","phone":"(503) 719-5925","city":"Portland","state":"Oregon","zipcode":"97206","slug":"tj-s-on-powell"},{"name":"Natural High","type":"dispensary","phone":"(541) 396-1500","city":"Coquille","state":"Oregon","zipcode":"97423","slug":"natural-high"},{"name":"The Peoples Dispensary","type":"delivery","phone":"(503) 477-5083","city":"Portland","state":"Oregon","zipcode":"97213","slug":"the-people-s-dispensary-3"},{"name":"Truth Dispensary","type":"dispensary","phone":"(503) 967-6010","city":"Salem","state":"Oregon","zipcode":"97305","slug":"truth-dispensary"},{"name":"Oasis Cannabis - Seaside","type":"dispensary","phone":"(503) 738-9105","city":"Seaside","state":"Oregon","zipcode":"97138","slug":"oasis-cannabis"},{"name":"Green Lion - St. Helens","type":"dispensary","phone":"(503) 397-3545","city":"St. Helens","state":"Oregon","zipcode":"97051","slug":"green-lion-2"},{"name":"Nectar - Beaverton Hall","type":"dispensary","phone":"(503) 626-2163","city":"Beaverton","state":"Oregon","zipcode":"97008","slug":"nectar-hall"},{"name":"PotMates - Portland West","type":"delivery","phone":"9712550076","city":"Portland","state":"Oregon","zipcode":"97221","slug":"potmates-18"},{"name":"Green Oasis - Sellwood","type":"dispensary","phone":"(503) 206-7266","city":"Portland","state":"Oregon","zipcode":"97202","slug":"green-oasis-portland"},{"name":"Lemonnade PDX","type":"dispensary","phone":"(971) 279-2337","city":"Portland","state":"Oregon","zipcode":"97218","slug":"lemonnade-pdx"},{"name":"Sweet Leaf Illusions","type":"dispensary","phone":"(503) 719-5322","city":"Portland","state":"Oregon","zipcode":"97266","slug":"sweet-leaf-illusions"},{"name":"Canyon Cannabis","type":"dispensary","phone":"(503) 897-2420","city":"Gates","state":"Oregon","zipcode":"97346","slug":"canyon-cannabis"},{"name":"Truly OG Greenhouse","type":"dispensary","phone":"(971) 229-1266","city":"Portland","state":"Oregon","zipcode":"97217","slug":"the-green-house-2-6"},{"name":"Sweet Relief - Scappoose","type":"dispensary","phone":"(503) 987-1193","city":"Scappoose","state":"Oregon","zipcode":"97056","slug":"sweet-relief-portland"},{"name":"Diamond Cannabis","type":"dispensary","phone":"(541) 916-8355","city":"Grants Pass","state":"Oregon","zipcode":"97526","slug":"diamond-cannabis-2"},{"name":"La Mota - Brookings","type":"dispensary","phone":"(541)813-1662","city":"Brookings","state":"Oregon","zipcode":"97415","slug":"la-mota-brookings"},{"name":"River City","type":"dispensary","phone":"(541) 450-1585","city":"Merlin","state":"Oregon","zipcode":"97532","slug":"river-city"},{"name":"Bud Bros","type":"dispensary","phone":"(541) 412-1675","city":"Brookings","state":"Oregon","zipcode":"97415","slug":"bud-bros-2"},{"name":"Ground Up Farms","type":"dispensary","phone":"(541) 779-1599","city":"Medford","state":"Oregon","zipcode":"97501","slug":"ground-up-farms"},{"name":"Pharm To Table - North","type":"dispensary","phone":"(541) 500-8606","city":"Medford","state":"Oregon","zipcode":"97501","slug":"pharm-to-table"},{"name":"Gold River Botanicals, LLC","type":"dispensary","phone":"(541) 299-0576","city":"Rogue River","state":"Oregon","zipcode":"97537","slug":"rogue-river-cannabis"},{"name":"Forward Cannabis","type":"dispensary","phone":"(541) 916-8411","city":"Grants Pass","state":"Oregon","zipcode":"97526","slug":"forward-cannabis"},{"name":"Rogue Valley Cannabis Ashland","type":"dispensary","phone":"(541) 631-0240","city":"Ashland","state":"Oregon","zipcode":"97520","slug":"rvc-ashland"},{"name":"Kaleafa Cannabis Company - Ashland","type":"dispensary","phone":"(971) 407-3208","city":"Ashland","state":"Oregon","zipcode":"97520","slug":"kaleafa-cannabis-company-ashland"},{"name":"Today's Herbal Choice Reedsport","type":"dispensary","phone":"(541) 361-6688","city":"Reedsport","state":"Oregon","zipcode":"97467","slug":"today-s-herbal-choice-reedsport"},{"name":"Cannabliss & Co. - 22nd & Burn","type":"dispensary","phone":"(971) 279-5570","city":"Portland","state":"Oregon","zipcode":"97210","slug":"cannabliss-burnside"},{"name":"Alternative Remedies","type":"dispensary","phone":"(503) 477-4203","city":"Portland","state":"Oregon","zipcode":"97206","slug":"alternative-remedies-2"},{"name":"Budee","type":"delivery","phone":"(925) 684-6774","city":"Portland","state":"Oregon","zipcode":"97212","slug":"green-life-care-2-5"},{"name":"Kush Cart","type":"delivery","phone":"(971) 229-1281","city":"Portland","state":"Oregon","zipcode":"97221","slug":"kush-cart-43"},{"name":"High Mountain Rec","type":"dispensary","phone":"(541) 769-1400","city":"The Dalles","state":"Oregon","zipcode":"97058","slug":"high-mountain"},{"name":"The Flowershop St. Helens","type":"dispensary","phone":"(503) 410-5765","city":"Warren","state":"Oregon","zipcode":"97053","slug":"the-flowershop-st-helens"},{"name":"Citi Zen - Pacific City\/Pacific Beach","type":"dispensary","phone":"(503) 483-1187","city":"Pacific City","state":"Oregon","zipcode":"97112","slug":"citi-zen"},{"name":"Cloud 9 Cannabis","type":"dispensary","phone":"(541) 981-2097","city":"Albany","state":"Oregon","zipcode":"97322","slug":"cloud-9-cannabis"},{"name":"Alpha Alternative Solutions, LLC","type":"dispensary","phone":"(971) 304-7141","city":"Keizer","state":"Oregon","zipcode":"97303","slug":"alpha-alternative-solutions-llc"},{"name":"The FlowerShop - Powellhurst","type":"dispensary","phone":"(971) 254-9185","city":"Portland","state":"Oregon","zipcode":"97236","slug":"the-flower-shop-2-2"},{"name":"Tryke City","type":"dispensary","phone":"(541) 254-9282","city":"Brookings","state":"Oregon","zipcode":"97415","slug":"tryke-city"},{"name":"La Mota - West Main","type":"dispensary","phone":"5414996314","city":"medford","state":"Oregon","zipcode":"97501","slug":"la-mota-west-main"},{"name":"Phresh Start - Oakridge","type":"dispensary","phone":"(541) 782-1036","city":"Oakridge","state":"Oregon","zipcode":"97463","slug":"phresh-start-oakridge"},{"name":"La Mota - Pacific Hwy","type":"dispensary","phone":"(541) 816-4260","city":"Medford","state":"Oregon","zipcode":"97501","slug":"la-mota-pacific-hwy"},{"name":"Southern Oregon Alternative Medicine","type":"doctor","phone":"(541) 779-5235","city":"Medford","state":"Oregon","zipcode":"97504","slug":"southern-oregon-alternative-medicine"},{"name":"Tokyo Starfish 3","type":"dispensary","phone":"(541) 678-5199","city":"Bend","state":"Oregon","zipcode":"97702","slug":"tokyo-starfish-3"},{"name":"Green Muse","type":"dispensary","phone":"(971) 301-5859","city":"Portland","state":"Oregon","zipcode":"97211","slug":"green-hop"},{"name":"Electric Lettuce - Beaverton","type":"dispensary","phone":"(503) 746-5193","city":"Beaverton","state":"Oregon","zipcode":"97008","slug":"electric-lettuce-beaverton"},{"name":"The CDC","type":"dispensary","phone":"(503) 272-7890","city":"Portland","state":"Oregon","zipcode":"97223","slug":"the-cdc-2"},{"name":"Kaya Shack - Liberty St","type":"dispensary","phone":"(503) 967-6014","city":"Salem","state":"Oregon","zipcode":"97301","slug":"kaya-shack-2"},{"name":"Ancient Remedies","type":"doctor","phone":"(503) 990-6723","city":"Salem","state":"Oregon","zipcode":"97301","slug":"ancient-remedies"},{"name":"Southern Oregon Cannabis Connection","type":"dispensary","phone":"(541) 916-8420","city":"Grants Pass","state":"Oregon","zipcode":"97526","slug":"southern-oregon-cannabis-connection"},{"name":"Green Earth Medicine","type":"doctor","phone":"(503) 303-8456","city":"Bend","state":"Oregon","zipcode":"97701","slug":"green-earth-medicine-3"},{"name":"Tokyo Starfish","type":"dispensary","phone":"(541) 797-2110","city":"Bend","state":"Oregon","zipcode":"97703","slug":"tokyo-starfish"},{"name":"Patients Choice Clinic","type":"doctor","phone":"(541) 499-5431","city":"Medford","state":"Oregon","zipcode":"97501","slug":"patients-choice-clinic-services"},{"name":"Buddha's Wellness Center LLC","type":"dispensary","phone":"(541) 366-2226","city":"Port Orford","state":"Oregon","zipcode":"97465","slug":"buddha-s-wellness-center-llc"},{"name":"Higher Elevation","type":"dispensary","phone":"(541) 550-7777","city":"Bend","state":"Oregon","zipcode":"97701","slug":"higher-elevation-2"},{"name":"Oregon Euphorics","type":"dispensary","phone":"(541) 213-6724","city":"Bend","state":"Oregon","zipcode":"97702","slug":"oregon-euphorics-2"},{"name":"Miracle Greens","type":"dispensary","phone":"(541) 952-2363","city":"Bend","state":"Oregon","zipcode":"97702","slug":"miracle-greens"},{"name":"Oregon Bud Company - Cesar Chavez Portland","type":"dispensary","phone":"5034778241","city":"Portland","state":"Oregon","zipcode":"97202","slug":"oregon-bud-company-cesar-chavez-portland-1"},{"name":"Electric Lettuce - Hillsboro","type":"dispensary","phone":"971-713-2905","city":"Hillsboro","state":"Oregon","zipcode":"97123","slug":"electric-lettuce-hillsboro"},{"name":"Kaleafa Cannabis Company - Beaverton","type":"dispensary","phone":"971-229-2099","city":"Beaverton","state":"Oregon","zipcode":"97005","slug":"kaleafa"},{"name":"Oregon Bud Company - Portland 122nd","type":"dispensary","phone":"(503) 894-9392","city":"Portland","state":"Oregon","zipcode":"97236","slug":"oregon-bud-company"},{"name":"Pacific Wave Resource Center","type":"dispensary","phone":"(541) 614-1364","city":"Lincoln City","state":"Oregon","zipcode":"97367","slug":"pacific-wave-resource-center"},{"name":"OG Collective Dispensary - Hawthorne","type":"dispensary","phone":"(503) 385-1948","city":"Salem","state":"Oregon","zipcode":"97301","slug":"og-collective-dispensary"},{"name":"The Herbal Connection - OR","type":"dispensary","phone":"(458) 201-8164","city":"Eugene","state":"Oregon","zipcode":"97404","slug":"the-herbal-centre-llc-2"},{"name":"The Canna Shoppe","type":"dispensary","phone":"(503) 660-5209","city":"Portland","state":"Oregon","zipcode":"97213","slug":"the-canna-shoppe"},{"name":"Cannabliss & Co. - The BLVD","type":"dispensary","phone":"(503) 444-7964","city":"Portland","state":"Oregon","zipcode":"97266","slug":"cannabliss-the-blvd"},{"name":"Green Gratitude Delivery","type":"delivery","phone":"503-444-7707","city":"Portland","state":"Oregon","zipcode":"97266","slug":"green-gratitude-delivery"},{"name":"The New Amsterdam","type":"dispensary","phone":"(503) 558-5678","city":"Portland","state":"Oregon","zipcode":"97217","slug":"the-new-amsterdam"},{"name":"Peach Cannabis","type":"dispensary","phone":"541-636-3323","city":"Eugene","state":"Oregon","zipcode":"97401","slug":"peach-cannabis-2"},{"name":"La Mota - Drain","type":"dispensary","phone":"(541) 836-9333","city":"Drain","state":"Oregon","zipcode":"97435","slug":"la-mota-drain"},{"name":"Gnome Grown Alberta","type":"dispensary","phone":"(503) 344-6729","city":"Portland","state":"Oregon","zipcode":"97211","slug":"gnome-grown-oregon-1"},{"name":"Emerald Leaf Clinic","type":"doctor","phone":"(360) 892-5749","city":"Portland","state":"Oregon","zipcode":"97236","slug":"emerald-leaf-institute"},{"name":"Wicked Flower Shoppe","type":"dispensary","phone":"(541) 816-4221","city":"Medford","state":"Oregon","zipcode":"97504","slug":"wicked-flower-shoppe"},{"name":"Substance - Empire","type":"dispensary","phone":"(541) 317-1814","city":"Bend","state":"Oregon","zipcode":"97703","slug":"substance-empire"},{"name":"Top Shelf Wellness Center","type":"dispensary","phone":"(541)879-0925","city":"White City","state":"Oregon","zipcode":"97503","slug":"top-shelf-wellness-center-4"},{"name":"Nectar - Tillamook","type":"dispensary","phone":"(503) 354-2074","city":"Tillamook","state":"Oregon","zipcode":"97141","slug":"nectar-tillamook"},{"name":"Oregon Cannabis Outlet - 7th Ave","type":"dispensary","phone":"(971) 420-0311","city":"Eugene","state":"Oregon","zipcode":"97402","slug":"oregon-cannabis-outlet-2"},{"name":"Emerald City Medicinal","type":"dispensary","phone":"(541) 505-9065","city":"Eugene","state":"Oregon","zipcode":"97402","slug":"emerald-city-medicinal"},{"name":"Collective Awakenings","type":"dispensary","phone":"(503) 206-7090","city":"Portland","state":"Oregon","zipcode":"97232","slug":"collective-awakenings"},{"name":"OG Collective Dispensary - Commercial","type":"dispensary","phone":"(971) 304-7645","city":"Salem","state":"Oregon","zipcode":"97301","slug":"og-collective-dispensary-2"},{"name":"Hotbox Ontario","type":"dispensary","phone":"541-869-2121","city":"Ontario","state":"Oregon","zipcode":"97914","slug":"hotbox-ontario"},{"name":"Mr. Nice Guy Cornelius","type":"dispensary","phone":"503-430-0329","city":"Cornelius","state":"Oregon","zipcode":"97113","slug":"mr-nice-guy-cornelius"},{"name":"Nectar - Beaverton Hillsdale","type":"dispensary","phone":"(503) 477-9850","city":"Portland","state":"Oregon","zipcode":"97221","slug":"nectar-hillsdale"},{"name":"Hashstoria Springfield","type":"dispensary","phone":"(541) 393-6392","city":"Springfield","state":"Oregon","zipcode":"97477","slug":"hashstoria-springfield-1"},{"name":"Progressive Collective","type":"dispensary","phone":"(503) 444-7792","city":"Portland","state":"Oregon","zipcode":"97216","slug":"progressive-collective-portland"},{"name":"Oregon House of Herbs","type":"dispensary","phone":"(503) 946-1972","city":"Portland","state":"Oregon","zipcode":"97203","slug":"oregon-house-of-herbs"},{"name":"Green Apple N.W.","type":"delivery","phone":"(503) 791-8986","city":"Portland","state":"Oregon","zipcode":"97089","slug":"green-apple-n-w"},{"name":"Electric Lettuce - Lloyd District","type":"dispensary","phone":"(971) 407-3150","city":"Portland","state":"Oregon","zipcode":"97232","slug":"electric-lettuce-2"},{"name":"Five Zero Trees - Astoria","type":"dispensary","phone":"(503) 741-3170","city":"Astoria","state":"Oregon","zipcode":"97103","slug":"five-zero-trees-astoria"},{"name":"TreeHouse Collective","type":"dispensary","phone":"(503) 894-8774","city":"Portland","state":"Oregon","zipcode":"97232","slug":"treehouse-collective-portland"},{"name":"Budee","type":"delivery","phone":"(925) 684-6774","city":"Portland","state":"Oregon","zipcode":"97202","slug":"budee-24"},{"name":"The Grass Hut II","type":"dispensary","phone":"(503) 990-6967","city":"Keizer","state":"Oregon","zipcode":"97303","slug":"the-grass-hut-ii"},{"name":"La Mota - SE Portland","type":"dispensary","phone":"(503) 777-9333","city":"Portland","state":"Oregon","zipcode":"97206","slug":"la-mota-2-2"},{"name":"Budee","type":"delivery","phone":"(925) 684-6774","city":"Portland","state":"Oregon","zipcode":"97213","slug":"budee-274"},{"name":"West Coast Organics","type":"dispensary","phone":"(541) 813-2420","city":"Brookings","state":"Oregon","zipcode":"97415","slug":"west-coast-organics"},{"name":"La Mota - Court St","type":"dispensary","phone":"(541) 773-9331","city":"Medford","state":"Oregon","zipcode":"97501","slug":"la-mota-court-st"},{"name":"Little Amsterdam - McLoughlin","type":"dispensary","phone":"(503) 303-7489","city":"Portland","state":"Oregon","zipcode":"97267","slug":"little-amsterdam-mcloughlin"},{"name":"High Profile Portland","type":"dispensary","phone":"503-719-7504","city":"Portland","state":"Oregon","zipcode":"97212","slug":"high-profile-47"},{"name":"Mongoose Cannabis","type":"dispensary","phone":"(541) 933-8032","city":"Portland","state":"Oregon","zipcode":"97214","slug":"mongoose-cannabis"},{"name":"Capitol Green Leaf","type":"doctor","phone":"(971) 313-9333","city":"Salem","state":"Oregon","zipcode":"97301","slug":"capitol-green-leaf"},{"name":"House of Leaves - Medford","type":"dispensary","phone":"(541) 816-4204","city":"Medford","state":"Oregon","zipcode":"97501","slug":"house-of-leaves-medford"},{"name":"Chalice Farms - Happy Valley","type":"dispensary","phone":"(503) 878-4208","city":"Damascus","state":"Oregon","zipcode":"97089","slug":"chalice-farms-happy-valley"},{"name":"River Valley Remedies","type":"dispensary","phone":"(458) 205-8257","city":"Eugene","state":"Oregon","zipcode":"97402","slug":"river-valley-remedies"},{"name":"Pacific Green","type":"dispensary","phone":"(971) 242-8535","city":"Portland","state":"Oregon","zipcode":"97211","slug":"pacific-green-3"},{"name":"Budee","type":"delivery","phone":"(925) 684-6774","city":"Portland","state":"Oregon","zipcode":"97232","slug":"green-life-care-2-7"},{"name":"Green Stop Meds","type":"dispensary","phone":"(503) 659-0740","city":"Milwaukie","state":"Oregon","zipcode":"97267","slug":"green-stop-meds"},{"name":"Gnome Grown Beaver Creek","type":"dispensary","phone":"(503) 344-6729","city":"Oregon City","state":"Oregon","zipcode":"97045","slug":"gnome-grown-oregon"},{"name":"Cookies Corvallis","type":"dispensary","phone":"541-243-7045","city":"Corvallis","state":"Oregon","zipcode":"97333","slug":"cookies-corvallis"},{"name":"Sumpter's Nugget","type":"dispensary","phone":"(541) 894-2939","city":"Sumpter","state":"Oregon","zipcode":"97877","slug":"sumpter-nugget"},{"name":"Electric Lettuce - Alberta","type":"dispensary","phone":"503-384-2164","city":"Portland","state":"Oregon","zipcode":"97211","slug":"electric-lettuce-northeast-dispensary"},{"name":"Mr. Nice Guy - 15th St","type":"dispensary","phone":"(541) 207-3764","city":"Corvallis","state":"Oregon","zipcode":"97333","slug":"mr-nice-guy-15th-st"},{"name":"Budee","type":"delivery","phone":"(925) 684-6774","city":"Portland","state":"Oregon","zipcode":"97236","slug":"budee-255"},{"name":"Farma","type":"delivery","phone":"(503)206-4357","city":"Portland","state":"Oregon","zipcode":"97214","slug":"farma-2"},{"name":"The Portland Canna Connection","type":"dispensary","phone":"(503) 477-9247","city":"Portland","state":"Oregon","zipcode":"97215","slug":"the-portland-canna-connection"},{"name":"Top Shelf Cannabis (World Famous)","type":"dispensary","phone":"(503) 689-1726","city":"Salem","state":"Oregon","zipcode":"97302","slug":"top-shelf-cannabis-world-famous"},{"name":"Cannabliss & Co. - The Sorority House","type":"dispensary","phone":"(541) 600-8185","city":"Eugene","state":"Oregon","zipcode":"97401","slug":"cannabliss-sorority-house"},{"name":"Broadway Cannabis Market - Beaverton","type":"dispensary","phone":"(503) 212-0608","city":"Beaverton","state":"Oregon","zipcode":"97005","slug":"broadway-cannabis-market-1"},{"name":"Eden Cannabis - Salem","type":"dispensary","phone":"(503) 477-4368","city":"Salem","state":"Oregon","zipcode":"97305","slug":"eden-cannabis-salem"},{"name":"CannaMedicine","type":"dispensary","phone":"(503) 585-2697","city":"Salem","state":"Oregon","zipcode":"97302","slug":"cannamedicine-3"},{"name":"Cannabinoid Exchange","type":"dispensary","phone":"(541)290-0828","city":"Coquille","state":"Oregon","zipcode":"97423","slug":"cannabinoid-exchange-2"},{"name":"Mindrite Dispensary","type":"dispensary","phone":"(503) 477-4430","city":"Portland","state":"Oregon","zipcode":"97209","slug":"mindrite-dispensary"},{"name":"La Mota - Stewart Ave","type":"dispensary","phone":"(541) 245-9554","city":"Medford","state":"Oregon","zipcode":"97501","slug":"la-mota-9756f43f-5422-4597-8923-e60853d48289"},{"name":"Stateline Cannabis","type":"dispensary","phone":"(541) 254-9444","city":"Brookings","state":"Oregon","zipcode":"97415","slug":"stateline-cannabis"},{"name":"Mr. Nice Guy - Waldport","type":"dispensary","phone":"(541) 563-4200","city":"Waldport","state":"Oregon","zipcode":"97394","slug":"mr-nice-guy-waldport"},{"name":"Kind Heart Collective","type":"dispensary","phone":"(503) 512-6136","city":"Portland","state":"Oregon","zipcode":"97217","slug":"kind-heart-collective-2"},{"name":"La Mota - Beaverton","type":"dispensary","phone":"(503) 747-4654","city":"Beaverton","state":"Oregon","zipcode":"97003","slug":"la-mota-beaverton"},{"name":"WeedAgain","type":"dispensary","phone":"720-378-2637","city":"Salem","state":"Oregon","zipcode":"97302","slug":"weedagain-1"},{"name":"Twenty After Four Wellness Center","type":"dispensary","phone":"541-393-6820","city":"Eugene","state":"Oregon","zipcode":"97402","slug":"twenty-after-four-wellness-center"},{"name":"The Holistic Choice","type":"dispensary","phone":"(503) 990-7312","city":"Salem","state":"Oregon","zipcode":"97302","slug":"the-holistic-choice-2-3"},{"name":"Hi Casual Cannabis","type":"dispensary","phone":"(503) 325-4078","city":"Astoria","state":"Oregon","zipcode":"97103","slug":"hi-astoria"},{"name":"Bridge City Collective Delivery","type":"delivery","phone":"503-477-9532","city":"Portland","state":"Oregon","zipcode":"97214","slug":"bridge-city-collective-delivery-2"},{"name":"Homegrown Oregon - Albany","type":"dispensary","phone":"(541) 497-2463","city":"Albany","state":"Oregon","zipcode":"97322","slug":"homegrown-oregon-albany"},{"name":"The Farmacy","type":"dispensary","phone":"(503) 741-3114","city":"Astoria","state":"Oregon","zipcode":"97103","slug":"the-farmacy-astoria"},{"name":"Nectar - Terwilliger","type":"dispensary","phone":"(971) 754-4956","city":"Portland","state":"Oregon","zipcode":"97219","slug":"nectar-terwilliger-2"},{"name":"Budding Culture","type":"delivery","phone":"(503) 719-6192","city":"Portland","state":"Oregon","zipcode":"97213","slug":"budding-culture-2"},{"name":"Stumptown Cannabis - Clackamas","type":"dispensary","phone":"(503) 908-8642","city":"Portland","state":"Oregon","zipcode":"97086","slug":"stumptown-cannabis"},{"name":"Herbal Choices - Bandon","type":"dispensary","phone":"(541) 329-0868","city":"Bandon","state":"Oregon","zipcode":"97411","slug":"herbal-choices-bandon-2"},{"name":"Budding Culture","type":"delivery","phone":"(503) 719-6192","city":"Portland","state":"Oregon","zipcode":"97213","slug":"budding-culture-1"},{"name":"The Dime Store - Cannabis Dispensary","type":"dispensary","phone":"(971) 867-2177","city":"Portland","state":"Oregon","zipcode":"97266","slug":"the-dime-store"},{"name":"Today's Herbal Choice Molalla","type":"dispensary","phone":"(503) 829-6337","city":"Molalla","state":"Oregon","zipcode":"97038","slug":"today-s-herbal-choice"},{"name":"Diem - Salem","type":"delivery","phone":"(503) 505-6434","city":"Salem","state":"Oregon","zipcode":"97302","slug":"diem-salem"},{"name":"Eugreen Health Center - Downtown","type":"dispensary","phone":"(458) 205-8056","city":"Eugene","state":"Oregon","zipcode":"97401","slug":"eugreen-health-center-2"},{"name":"Prohibition Falls","type":"dispensary","phone":"(541) 735-3195","city":"Eugene","state":"Oregon","zipcode":"97401","slug":"sproutly"},{"name":"Eugreen Health Center","type":"dispensary","phone":"(541) 505-7275","city":"Eugene","state":"Oregon","zipcode":"97404","slug":"eugreen-health-center"},{"name":"SOMEWHERE","type":"dispensary","phone":"5033842466","city":"Portland","state":"Oregon","zipcode":"97210","slug":"somewhere"},{"name":"Speedy Janes","type":"delivery","phone":"503-744-7420","city":"Hillsboro","state":"Oregon","zipcode":"97123","slug":"speedy-janes-1"},{"name":"Oregrown - Cannon Beach","type":"dispensary","phone":"(844) 673-4769","city":"Cannon Beach","state":"Oregon","zipcode":"97110","slug":"oregrown-cannon-beach"},{"name":"420ville","type":"dispensary","phone":"(541) 869-2029","city":"Huntington","state":"Oregon","zipcode":"97907","slug":"420ville-421-422"},{"name":"Shango - Harold","type":"delivery","phone":"(503) 788-7005","city":"Portland","state":"Oregon","zipcode":"97206","slug":"shango-harold"},{"name":"The Green Planet - Milwaukie","type":"dispensary","phone":"(503) 344-6057","city":"Milwaukie","state":"Oregon","zipcode":"97267","slug":"the-green-planet-clackamas"},{"name":"La Mota - Eugene","type":"dispensary","phone":"(541) 687-9333","city":"Eugene","state":"Oregon","zipcode":"97402","slug":"la-mota-eugene"},{"name":"Oregon Cannabis Outlet - Salem","type":"dispensary","phone":"(503) 990 7499","city":"Salem","state":"Oregon","zipcode":"97302","slug":"re-leaf-cannabis-center"},{"name":"The Peoples Dispensary","type":"delivery","phone":"(503) 477-5083","city":"Portland","state":"Oregon","zipcode":"97213","slug":"the-people-s-dispensary-2"},{"name":"Hierba Buena","type":"dispensary","phone":"(971) 444-1420","city":"Hubbard","state":"Oregon","zipcode":"97032","slug":"hierba-buena-4"},{"name":"Budee","type":"delivery","phone":"(925) 684-6774","city":"Portland","state":"Oregon","zipcode":"97219","slug":"budee-60"},{"name":"Foster Buds - NE Glisan","type":"dispensary","phone":"(503) 946-6415","city":"Portland","state":"Oregon","zipcode":"97213","slug":"glisan-buds"},{"name":"Hashstoria","type":"dispensary","phone":"(503) 741-3556","city":"Astoria","state":"Oregon","zipcode":"97103","slug":"hashstoria"},{"name":"Oregon Bud Company - Clackamas","type":"dispensary","phone":"(503) 850-4930","city":"Clackamas","state":"Oregon","zipcode":"97015","slug":"oregon-bud-company-clackamas"},{"name":"Crush Cannabis","type":"dispensary","phone":"503-967-6249","city":"Salem","state":"Oregon","zipcode":"97301","slug":"crush-cannabis-1"},{"name":"Mr. Nice Guy - 3rd St","type":"dispensary","phone":"(541) 368-3965","city":"Corvallis","state":"Oregon","zipcode":"97330","slug":"mr-nice-guy-3rd-st"},{"name":"Phresh Start - Springfield","type":"dispensary","phone":"(541) 357-4271","city":"Springfield","state":"Oregon","zipcode":"97477","slug":"phresh-start-llc"},{"name":"Higher Ground","type":"dispensary","phone":"(541) 393-6892","city":"Eugene","state":"Oregon","zipcode":"97401","slug":"higher-ground"},{"name":"Trees Waterfront","type":"dispensary","phone":"(971) 420-8925","city":"Portland","state":"Oregon","zipcode":"97239","slug":"trees-waterfront"},{"name":"Oasis Cannabis - Monmouth","type":"dispensary","phone":"(503) 837-0418","city":"Monmouth","state":"Oregon","zipcode":"97361","slug":"oasis-cannabis-monmouth"},{"name":"Attis Trading Company - Cully","type":"dispensary","phone":"(503) 477-8981","city":"Portland","state":"Oregon","zipcode":"97218","slug":"attis-trading-company-cully-2"},{"name":"Potland","type":"delivery","phone":"503-432-8629","city":"Portland","state":"Oregon","zipcode":"97232","slug":"potland-3"},{"name":"Truly Pure","type":"dispensary","phone":"(503) 719-6018","city":"Portland","state":"Oregon","zipcode":"97214","slug":"truly-pure"},{"name":"Green Health Eugene","type":"dispensary","phone":"(458)221-1861","city":"Eugene","state":"Oregon","zipcode":"97402","slug":"green-health-associates"},{"name":"Budee","type":"delivery","phone":"(925) 684-6774","city":"Portland","state":"Oregon","zipcode":"97211","slug":"budee-2-6"},{"name":"The FlowerShop - St. Helens","type":"dispensary","phone":"(503) 410-5765","city":"Warren","state":"Oregon","zipcode":"97053","slug":"the-flowershop-st-helens-2"},{"name":"Chalice Farms - Happy Valley","type":"delivery","phone":"(503) 878-4208","city":"Portland","state":"Oregon","zipcode":"97089","slug":"chalice-farms-happy-valley"},{"name":"TJ's Provisions","type":"dispensary","phone":"(541) 505-7105","city":"Eugene","state":"Oregon","zipcode":"97402","slug":"tj-s-organic-provisions"},{"name":"Burnt River Cannabis Co","type":"dispensary","phone":"541-216-1000","city":"Ontario","state":"Oregon","zipcode":"97914","slug":"burnt-river-cannabis-co-1"},{"name":"Mr. Nice Guy - Medford- East Jackson Street","type":"dispensary","phone":"(458) 226-2306","city":"Medford","state":"Oregon","zipcode":"97504","slug":"mr-nice-guy-medford-east-jackson-street"},{"name":"T.E.R.P. Collective","type":"dispensary","phone":"(541) 614-1711","city":"Lincoln City","state":"Oregon","zipcode":"97367","slug":"t-e-r-p-collective"},{"name":"Green Earth Medicine","type":"doctor","phone":"(503) 303-8456","city":"Salem","state":"Oregon","zipcode":"97317","slug":"green-earth-medicine-4"},{"name":"Dr. Jolly's","type":"dispensary","phone":"(541) 508-2708","city":"Bend","state":"Oregon","zipcode":"97702","slug":"dr-jolly-s"},{"name":"Urban Farmacy","type":"dispensary","phone":"(503) 957-7832","city":"Portland","state":"Oregon","zipcode":"97213","slug":"urban-farmacy-patient-resource-center"},{"name":"Smoke On The Mountain","type":"dispensary","phone":"(503) 622-4769","city":"Welches","state":"Oregon","zipcode":"97067","slug":"smoke-on-the-mountain"},{"name":"Parlour Cannabis Shoppe","type":"dispensary","phone":"(503) 477-4540","city":"Portland","state":"Oregon","zipcode":"97225","slug":"parlour-cannabis-shoppe"},{"name":"Bridge City Collective Delivery - Southeast Portland","type":"delivery","phone":"(503) 477-9532","city":"Portland","state":"Oregon","zipcode":"97214","slug":"bridge-city-collective-southeast-portland"},{"name":"Rare Earth Organics","type":"dispensary","phone":"(541) 357-5546","city":"Eugene","state":"Oregon","zipcode":"97402","slug":"rare-earth-organics-2-2"},{"name":"Serra Belmont","type":"delivery","phone":"(971) 544-7055","city":"Portland","state":"Oregon","zipcode":"97214","slug":"serra-belmont"},{"name":"Attis Trading Company - Gladstone","type":"dispensary","phone":"(971) 544-7685","city":"Portland","state":"Oregon","zipcode":"97206","slug":"attis-trading-company-gladstone"},{"name":"Top Hat Express","type":"dispensary","phone":"503-305-7882","city":"Milwaukie","state":"Oregon","zipcode":"97222","slug":"top-hat-express"},{"name":"C&C Farms Rec Shop","type":"dispensary","phone":"(541) 531-3406","city":"Medford","state":"Oregon","zipcode":"97501","slug":"cnc-farms-rec-shop"},{"name":"Stone Age Farmacy PDX","type":"dispensary","phone":"(503) 206-8785","city":"Portland","state":"Oregon","zipcode":"97225","slug":"the-stone-age-pharmacy-pdx"},{"name":"CannaMedicine Newport","type":"dispensary","phone":"(541) 574-2685","city":"Newport","state":"Oregon","zipcode":"97365","slug":"cannamedicine-newport"},{"name":"Westside Wellness","type":"dispensary","phone":"(503) 649-2999","city":"Aloha","state":"Oregon","zipcode":"97007","slug":"westside-wellness-2-3"},{"name":"Scappoose 21 Plus","type":"dispensary","phone":"(503) 502-3021","city":"Scappoose","state":"Oregon","zipcode":"97056","slug":"scappoose-21-plus"},{"name":"Herbal Choices - North Bend","type":"dispensary","phone":"541-361-6010","city":"North Bend","state":"Oregon","zipcode":"97459","slug":"herbal-choices-north-bend"},{"name":"Chalice Farms - Tigard","type":"dispensary","phone":"(503) 747-5451","city":"Portland","state":"Oregon","zipcode":"97224","slug":"chalice-farms-tigard"},{"name":"Homegrown Oregon - West Salem","type":"dispensary","phone":"(503) 689-1167","city":"Salem","state":"Oregon","zipcode":"97304","slug":"homegrown-oregon-3"},{"name":"Rocky Mtn Dispensary","type":"dispensary","phone":"(541) 575-4200","city":"John Day","state":"Oregon","zipcode":"97845","slug":"rocky-mtn-dispensary"},{"name":"Grs Cannabis","type":"dispensary","phone":"(503) 208-2365","city":"Portland","state":"Oregon","zipcode":"97214","slug":"gras-cannabis-2"},{"name":"Portland Extracts","type":"dispensary","phone":"(503) 719-4861","city":"Portland","state":"Oregon","zipcode":"97202","slug":"portland-extracts"},{"name":"SkunkRx","type":"dispensary","phone":"(541) 299-0599","city":"Rogue River","state":"Oregon","zipcode":"97527","slug":"skunkrx"},{"name":"Budee","type":"delivery","phone":"(925) 684-6774","city":"Portland","state":"Oregon","zipcode":"97205","slug":"green-life-care-2-8"},{"name":"Budee","type":"delivery","phone":"(925) 684-6774","city":"Portland","state":"Oregon","zipcode":"97209","slug":"budee-47"},{"name":"Kaya Shack - Portland East","type":"delivery","phone":"(503) 954-2348","city":"Portland","state":"Oregon","zipcode":"97035","slug":"kaya-shack-portland-east"},{"name":"Green Box","type":"delivery","phone":"(971) 263-1975","city":"Portland","state":"Oregon","zipcode":"97206","slug":"green-box-3"},{"name":"DiamondTree - Eastside - Bend","type":"dispensary","phone":"(541) 706-9340","city":"Bend","state":"Oregon","zipcode":"97701","slug":"diamondtree"},{"name":"Club Sockeye","type":"dispensary","phone":"(541) 247-9080","city":"Gold Beach","state":"Oregon","zipcode":"97444","slug":"club-sockeye"},{"name":"Rogue Valley Cannabis - West Main","type":"dispensary","phone":"(541) 200-0580","city":"Medford","state":"Oregon","zipcode":"97501","slug":"rogue-valley-cannabis-west-main-or"},{"name":"Sensible Cannabis Company","type":"dispensary","phone":"(541) 816-4210","city":"Meford","state":"Oregon","zipcode":"97501","slug":"sensible-cannabis-company"},{"name":"Green Knottz - Chiloquin","type":"dispensary","phone":"(541) 827-5874","city":"Chiloquin","state":"Oregon","zipcode":"97624","slug":"green-knottz-chiloquin"},{"name":"Western Oregon Dispensary - Sherwood","type":"dispensary","phone":"(503) 610-1380","city":"Sherwood","state":"Oregon","zipcode":"97140","slug":"western-oregon-dispensary"},{"name":"Oregon's Own","type":"dispensary","phone":"(503) 244-1273","city":"Portland","state":"Oregon","zipcode":"97219","slug":"oregon-s-own"},{"name":"Budee","type":"delivery","phone":"(925) 684-6774","city":"Portland","state":"Oregon","zipcode":"97218","slug":"best-buds-1"},{"name":"Plantae Health - Bend","type":"dispensary","phone":"(541) 640-8295","city":"Bend","state":"Oregon","zipcode":"97701","slug":"plantae-health-bend"},{"name":"HWY 30 Cannabis","type":"dispensary","phone":"(541) 605-0104","city":"La Grande","state":"Oregon","zipcode":"97850","slug":"hwy-30-cannabis"},{"name":"The Peoples Dispensary","type":"dispensary","phone":"(503) 477-5083","city":"Portland","state":"Oregon","zipcode":"97213","slug":"pannacea"},{"name":"Apothca - Eugene","type":"dispensary","phone":"458-201-7098","city":"Eugene","state":"Oregon","zipcode":"97401","slug":"apothca-eugene"},{"name":"Green Leaf Therapy","type":"dispensary","phone":"(503) 556-6969","city":"Rainer","state":"Oregon","zipcode":"97048","slug":"green-leaf-therapy"},{"name":"Apothecaria","type":"dispensary","phone":"(541) 649-1164","city":"Cottage Grove","state":"Oregon","zipcode":"97424","slug":"apothecaria"},{"name":"Oregon's Finest - Pearl","type":"dispensary","phone":"(503) 239-1150","city":"Portland","state":"Oregon","zipcode":"97209","slug":"oregon-s-finest-portland"},{"name":"Going Green Sweet Home","type":"dispensary","phone":"(541) 405-8071","city":"Sweet Home","state":"Oregon","zipcode":"97386","slug":"goinggreensweethome"},{"name":"Western Oregon Dispensary","type":"dispensary","phone":"971-348-5127","city":"Hillsboro","state":"Oregon","zipcode":"97223","slug":"western-oregon-dispensary-3"},{"name":"The Lucky Leaf","type":"dispensary","phone":"(503) 874-4788","city":"Silverton","state":"Oregon","zipcode":"97381","slug":"the-lucky-leaf"},{"name":"Coastal Cannabinoids","type":"dispensary","phone":"(541) 563-4206","city":"Waldport","state":"Oregon","zipcode":"97394","slug":"coastal-cannabinoids-2"},{"name":"High Tide Wellness","type":"dispensary","phone":"(541) 813-1976","city":"Brookings","state":"Oregon","zipcode":"97415","slug":"high-tide-wellness"},{"name":"American Cannabinoid Clinics","type":"doctor","phone":"(503) 747-3760","city":"Medford","state":"Oregon","zipcode":"97501","slug":"american-cannabinoid-clinics-2"},{"name":"Deep Roots Cannabis","type":"dispensary","phone":"(541) 636-4548","city":"Springfield","state":"Oregon","zipcode":"97477","slug":"deep-roots-cannabis"},{"name":"Sweet Relief - Tillamook","type":"dispensary","phone":"(503) 354-5463","city":"Tillamook","state":"Oregon","zipcode":"97141","slug":"sweet-relief-tillamook"},{"name":"ReLeaf Health","type":"dispensary","phone":"971-255-1447","city":"Portland","state":"Oregon","zipcode":"97212","slug":"releaf-health-cannabis"},{"name":"OMMC Clinic, LLC","type":"doctor","phone":"(503) 406-3003","city":"Portland","state":"Oregon","zipcode":"97216","slug":"ommc-clinic-llc"},{"name":"Sweet Relief Gearhart","type":"dispensary","phone":"(503) 739-7551","city":"Gearhart","state":"Oregon","zipcode":"97138","slug":"sweet-relief-gearhart"},{"name":"Homegrown Oregon - North Salem\/Keizer","type":"dispensary","phone":"(971) 273-7523","city":"Salem","state":"Oregon","zipcode":"97301","slug":"homegrown-oregon"},{"name":"La Mota - Portland NW","type":"dispensary","phone":"(971) 279-4270","city":"Portland","state":"Oregon","zipcode":"97210","slug":"la-mota-1"},{"name":"Central Organics","type":"dispensary","phone":"(541) 475-0420","city":"Madras","state":"Oregon","zipcode":"97741","slug":"central-organics"},{"name":"Green Lion - Clackamas","type":"dispensary","phone":"(503) 397-3545","city":"Portland","state":"Oregon","zipcode":"97222","slug":"green-lion-clakamas"},{"name":"Herbal Choices - Charleston","type":"dispensary","phone":"(541) 808-3840","city":"Charleston","state":"Oregon","zipcode":"97420","slug":"herbal-choices"},{"name":"Lemonnade Portland","type":"dispensary","phone":"5032064939","city":"Portland","state":"Oregon","zipcode":"97219","slug":"portland-lemonnade"},{"name":"Attis Trading Company - Lincoln City","type":"dispensary","phone":"(541) 418-5200","city":"Lincoln City","state":"Oregon","zipcode":"97367","slug":"attis-trading-lincoln-city"},{"name":"Mr. Nice Guy - Market","type":"dispensary","phone":"971-915-2938","city":"Salem","state":"Oregon","zipcode":"97301","slug":"mr-nice-guy-market"},{"name":"American Cannabis Company","type":"dispensary","phone":"(541) 816-4420","city":"Medford","state":"Oregon","zipcode":"97501","slug":"american-cannabis-company-2"},{"name":"Electric Lettuce - Alberta","type":"delivery","phone":"503-384-2164","city":"Portland","state":"Oregon","zipcode":"97211","slug":"electric-lettuce-alberta"},{"name":"Electric Lettuce - Hillsboro","type":"delivery","phone":"971-713-2905","city":"Hillsboro","state":"Oregon","zipcode":"97123","slug":"electric-lettuce-hillsboro"},{"name":"The Holistic Co-op","type":"dispensary","phone":"(541) 946-3337","city":"Cottage Grove","state":"Oregon","zipcode":"97424","slug":"the-holistic-co-op-2"},{"name":"Evergreen Cannabis Supply","type":"dispensary","phone":"(541) 436-4391","city":"Hood River","state":"Oregon","zipcode":"97031","slug":"evergreen-cannabis-supply"},{"name":"Ivy Cannabis","type":"dispensary","phone":"(503) 278-4560","city":"Portland","state":"Oregon","zipcode":"97217","slug":"sovereign-cannabis"},{"name":"La Mota - Riverside","type":"dispensary","phone":"(541) 779-9333","city":"Medford","state":"Oregon","zipcode":"97501","slug":"la-mota-medford"},{"name":"Redwood Cannabis","type":"dispensary","phone":"(541) 916-8140","city":"Grants Pass","state":"Oregon","zipcode":"97526","slug":"redwood-cannabis"},{"name":"A Better Way Medicinal Alternatives, LLC","type":"dispensary","phone":"(541) 887-2335","city":"Klamath Falls","state":"Oregon","zipcode":"97603","slug":"a-better-way-medicinal-alternatives-llc"},{"name":"Canna-Daddys Wellness Center","type":"dispensary","phone":"(971) 279-4932","city":"Portland","state":"Oregon","zipcode":"97236","slug":"canna-daddys"},{"name":"The Peoples Dispensary","type":"delivery","phone":"(503) 477-5083","city":"Portland","state":"Oregon","zipcode":"97213","slug":"the-people-s-dispensary-4"},{"name":"Reefer Madness","type":"dispensary","phone":"(503) 385-1393","city":"Salem","state":"Oregon","zipcode":"97301","slug":"reefer-madness-3"},{"name":"Serra Downtown","type":"dispensary","phone":"(971) 279-5613","city":"Portland","state":"Oregon","zipcode":"97204","slug":"serra-downtown"},{"name":"Oregon Farmacy","type":"dispensary","phone":"(541) 816-4620","city":"Medford","state":"Oregon","zipcode":"97501","slug":"oregon-farmacy"},{"name":"Bridge City Collective Delivery - Dont use","type":"delivery","phone":"503-477-9532","city":"Portland","state":"Oregon","zipcode":"97214","slug":"bridge-city-collective-delivery"},{"name":"Tetra Cannabis Delivery","type":"delivery","phone":"(503) 206-7559","city":"Portland","state":"Oregon","zipcode":"97214","slug":"tetra-cannabis-delivery-3"},{"name":"Chalice Farms - Powell","type":"delivery","phone":"(503) 788-9999","city":"Portland","state":"Oregon","zipcode":"97206","slug":"chalice-farms-powell-2"},{"name":"Kanopy 7","type":"dispensary","phone":"541-499-0080","city":"Medford","state":"Oregon","zipcode":"97501","slug":"kanopy-7"},{"name":"Mr. Nice Guy - Rockaway Beach","type":"dispensary","phone":"(971) 306-1313","city":"Rockaway Beach","state":"Oregon","zipcode":"97136","slug":"mr-nice-guy-rockaway-beach"},{"name":"Redbarn Dispensary","type":"dispensary","phone":"(541) 900-1019","city":"Roseburg","state":"Oregon","zipcode":"97470","slug":"redbarn-dispensary-2"},{"name":"Hashstoria","type":"dispensary","phone":"(503) 344-6290","city":"Gladstone","state":"Oregon","zipcode":"97027","slug":"hashstoria-8df80ed1-3c11-4c94-a09f-bb60e9128c2e"},{"name":"OG Collective Dispensary - Cross","type":"dispensary","phone":"(503) 689-1235","city":"Salem","state":"Oregon","zipcode":"97301","slug":"og-collective-dispensary-cross"},{"name":"Oregon Medigreen","type":"dispensary","phone":"(541) 636-4029","city":"Eugene","state":"Oregon","zipcode":"97401","slug":"oregon-medigreen-2"},{"name":"Shaman Cannabis - NE Columbia","type":"dispensary","phone":"9710000000","city":"Portland","state":"Oregon","zipcode":"97211","slug":"shaman-cannabis-1"},{"name":"Sweet Relief - St. Helens","type":"dispensary","phone":"(503) 396-5382","city":"St. Helens","state":"Oregon","zipcode":"97051","slug":"sweet-relief-st-helens"},{"name":"PottonMouth Retail Cannabis","type":"dispensary","phone":"(503) 597-8467","city":"Sheridan","state":"Oregon","zipcode":"97378","slug":"pottonmouth-retail-cannabis"},{"name":"Oregrown - Portland","type":"dispensary","phone":"(503) 477-6898","city":"Portland","state":"Oregon","zipcode":"97232","slug":"oregrown-portland"},{"name":"Lucky Lion - Eugene","type":"dispensary","phone":"(541) 357-4472","city":"Eugene","state":"Oregon","zipcode":"97402","slug":"dutch-alchemy"},{"name":"Oregon's Finest - Convention Center","type":"delivery","phone":"(503) 239-1150","city":"Portland","state":"Oregon","zipcode":"97232","slug":"oregon-s-finest-convention-center-1"},{"name":"Homegrown Oregon - Lansing Ave","type":"dispensary","phone":"(971) 707-4101","city":"Salem","state":"Oregon","zipcode":"97301","slug":"homegrown-oregon-lansing-ave"},{"name":"Tropicannabis Club","type":"dispensary","phone":"(541) 386-9333","city":"Hood River","state":"Oregon","zipcode":"97031","slug":"high-winds-nv"},{"name":"La Mota - 99th NE Portland","type":"dispensary","phone":"(503) 254-9333","city":"Portland","state":"Oregon","zipcode":"97220","slug":"la-mota-northeast-portland"},{"name":"The New Amsterdam - Portland Delivery","type":"delivery","phone":"(503) 558-5678","city":"Portland","state":"Oregon","zipcode":"97217","slug":"the-new-amsterdam-portland-delivery"},{"name":"Green Muse","type":"delivery","phone":"(971) 301-5859","city":"Portland","state":"Oregon","zipcode":"97211","slug":"green-muse-1"},{"name":"Club Sky High","type":"dispensary","phone":"(503) 719-5801","city":"Portland","state":"Oregon","zipcode":"97203","slug":"club-sky-high-2"},{"name":"Tetra Cannabis Delivery","type":"delivery","phone":"(503) 206-7559","city":"Portland","state":"Oregon","zipcode":"97214","slug":"tetra-cannabis-delivery-2"},{"name":"Home Grown Apothecary","type":"dispensary","phone":"(503) 232-1716","city":"Portland","state":"Oregon","zipcode":"97232","slug":"home-grown-apothecary"},{"name":"Wild West Emporium - Duke St","type":"dispensary","phone":"(971) 242-8873","city":"Portland","state":"Oregon","zipcode":"97206","slug":"nw-releaf"},{"name":"1st Step Clinic","type":"doctor","phone":"(503) 391-8214","city":"Salem","state":"Oregon","zipcode":"97302","slug":"dr-brian-l-dossey-m-d"},{"name":"Nectar - Salem Liberty","type":"dispensary","phone":"(971) 707-4184","city":"Salem","state":"Oregon","zipcode":"97302","slug":"nectar-salem"},{"name":"Jenny's Dispensary - Bend","type":"dispensary","phone":"(541) 797-2120","city":"Bend","state":"Oregon","zipcode":"97701","slug":"jenny-s-dispensary-2"},{"name":"HD Botanicals","type":"dispensary","phone":"(541) 536-0432","city":"La Pine","state":"Oregon","zipcode":"97739","slug":"high-desert-botanicals"},{"name":"Budee","type":"delivery","phone":"(925) 684-6774","city":"Portland","state":"Oregon","zipcode":"97030","slug":"budee-2-4"},{"name":"Coastal High Ways","type":"dispensary","phone":"(541) 808-2278","city":"North Bend","state":"Oregon","zipcode":"97459","slug":"coastal-high-ways"},{"name":"Greenery","type":"delivery","phone":"(971) 808-0275","city":"Portland","state":"Oregon","zipcode":"97239","slug":"greenery-4"},{"name":"Electric Lettuce - Happy Valley","type":"dispensary","phone":"(503) 855-4673","city":"Clackamas","state":"Oregon","zipcode":"97015","slug":"electric-lettuce-happy-valley"},{"name":"Modern Forest - Lebanon","type":"delivery","phone":"(541) 405-4364","city":"Lebanon","state":"Oregon","zipcode":"97355","slug":"modern-forest-lebanon"},{"name":"Oregon's Finest - Convention Center","type":"delivery","phone":"(503) 239-1150","city":"Portland","state":"Oregon","zipcode":"97232","slug":"oregon-s-finest-convention-center-2"},{"name":"Rooted Coast Cannabis","type":"dispensary","phone":"(541) 808-2883","city":"Coos Bay","state":"Oregon","zipcode":"97420","slug":"rooted-coast-cannabis"},{"name":"Fyre","type":"dispensary","phone":"(541) 241-9633","city":"Bend","state":"Oregon","zipcode":"97701","slug":"fyre"},{"name":"DiamondTree - Madras","type":"dispensary","phone":"(541) 475-4605","city":"Madras","state":"Oregon","zipcode":"97741","slug":"diamondtree-westside-2"},{"name":"Herbal Choices - Reedsport","type":"dispensary","phone":"541-361-6010","city":"Reedsport","state":"Oregon","zipcode":"97467","slug":"herbal-choices-3"},{"name":"The Belmont Collective","type":"dispensary","phone":"(503) 477-8953","city":"Portland","state":"Oregon","zipcode":"97214","slug":"the-belmont-collective"},{"name":"Greenery","type":"delivery","phone":"(971) 808-0275","city":"Portland","state":"Oregon","zipcode":"97220","slug":"greenery-5"},{"name":"Nectar - 122nd","type":"dispensary","phone":"(971) 279-2512","city":"Portland","state":"Oregon","zipcode":"97230","slug":"nectar-hazelwood"},{"name":"Green Room - Campus","type":"dispensary","phone":"(541) 754-6055","city":"Corvallis","state":"Oregon","zipcode":"97330","slug":"green-room-campus"},{"name":"Marijuana Shop","type":"dispensary","phone":"(503) 476-4444","city":"Aloha","state":"Oregon","zipcode":"97006","slug":"marijuana-shop"},{"name":"Hippy Trip","type":"dispensary","phone":"(541) 764-4400","city":"Depoe Bay","state":"Oregon","zipcode":"97341","slug":"hippy-trip"},{"name":"Firehorse Trading Co","type":"dispensary","phone":"(541) 653-9534","city":"Eugene","state":"Oregon","zipcode":"97401","slug":"firehorse-trading-co"},{"name":"Touch of Aloha","type":"dispensary","phone":"(541) 614-4138","city":"Depoe Bay","state":"Oregon","zipcode":"97341","slug":"touch-of-aloha"},{"name":"Kings of Canna","type":"dispensary","phone":"(971) 319-6945","city":"Portland","state":"Oregon","zipcode":"97211","slug":"kings-of-canna"},{"name":"Medigreen Collective","type":"dispensary","phone":"(971) 319-6298","city":"Portland","state":"Oregon","zipcode":"97202","slug":"blue-sky-of-portland-1"},{"name":"Deanz Greenz","type":"dispensary","phone":"(503) 265-8353","city":"Portland","state":"Oregon","zipcode":"97266","slug":"deanz-greenz-2"},{"name":"The New Amsterdam - Lakeview Delivery","type":"delivery","phone":"(540) 558-3227","city":"Lakeview","state":"Oregon","zipcode":"97630","slug":"the-new-amsterdam-lakeview-delivery"}]}}