{"meta":{"total_listings":14},"data":{"listings":[{"name":"Thomas C. Slater Compassion Center","type":"dispensary","phone":"(401) 274-1000","city":"Providence","state":"Rhode Island","zipcode":"02904","slug":"thomas-c-slater-compassion-center"},{"name":"Canna Care Docs - North Smithfield","type":"doctor","phone":"(401) 735-1861","city":"North Smithfield","state":"Rhode Island","zipcode":"02896","slug":"canna-care-docs-5961"},{"name":"420Recs.com - Providence (100% Online)","type":"doctor","phone":"650-300-4334","city":"Providence","state":"Rhode Island","zipcode":"02909","slug":"420recs-422"},{"name":"Cannabis MD Group | Rhode Island Medical Marijuana | @ Primary Walk In Medical","type":"doctor","phone":"(401) 434-0022","city":"East Providence","state":"Rhode Island","zipcode":"02914","slug":"primary-walk-in-medical-center"},{"name":"B & B Consulting","type":"doctor","phone":"(401) 921-5791","city":"Warwick","state":"Rhode Island","zipcode":"02886","slug":"b-and-b-consulting"},{"name":"Semaj Health And Wellness","type":"doctor","phone":"(401)808-6421","city":"Warwick","state":"Rhode Island","zipcode":"02886","slug":"semaj-health-and-wellness"},{"name":"Miracle Leaf Rhode Island","type":"doctor","phone":"8332603624","city":"Providence","state":"Rhode Island","zipcode":"02901","slug":"miracle-leaf-rhode-island"},{"name":"Canna Care Docs - Rhode Island","type":"doctor","phone":"866-846-2420","city":"Johnston","state":"Rhode Island","zipcode":"02919","slug":"canna-care-docs-rhode-island"},{"name":"Medical Cannabis Consultants","type":"doctor","phone":"(401) 667-7778","city":"North Kingstown","state":"Rhode Island","zipcode":"02852","slug":"medical-cannabis-consultants"},{"name":"Greenleaf Compassionate Care Center","type":"dispensary","phone":"(401) 293-5987","city":"Portsmouth","state":"Rhode Island","zipcode":"02871","slug":"greenleaf-compassionate-care-center"},{"name":"Leafwell Medical Clinics","type":"doctor","phone":"(800) 660-9085","city":"Providence","state":"Rhode Island","zipcode":"02906","slug":"leafwell-2"},{"name":"True Herbal Consults","type":"doctor","phone":"(617) 401-5295","city":"Portsmouth","state":"Rhode Island","zipcode":"02871","slug":"true-herbal-consults-2"},{"name":"11th State Consultations","type":"doctor","phone":"(401) 228-5184","city":"Providence","state":"Rhode Island","zipcode":"02907","slug":"rhode-island-medical-marijuana-doctors-11th-state-consultations"},{"name":"Canna Care Docs - Cranston","type":"doctor","phone":"(401) 414-0010","city":"CRANSTON","state":"Rhode Island","zipcode":"02920","slug":"canna-care-docs-cranston"}]}}