{"meta":{"total_listings":10},"data":{"listings":[{"name":"My Anti Aging MD","type":"doctor","phone":"(703) 585-8285","city":"Fredericksburg","state":"Virginia","zipcode":"22401","slug":"my-anti-aging-md"},{"name":"Leafwell Medical Clinics","type":"doctor","phone":"(804) 373-2474","city":"Vienna","state":"Virginia","zipcode":"22182","slug":"leafwell-medical-clinics"},{"name":"CannabisRxHealth Doctors","type":"doctor","phone":"(703) 8611136","city":"Arlington","state":"Virginia","zipcode":"22203","slug":"cannabisrxhealth"},{"name":"Virginia Medical Marijuana Dispensary - INFORMATION ONLY","type":"dispensary","phone":"0000000000","city":"Virginia Beach","state":"Virginia","zipcode":"23450","slug":"virginia-medical-marijuana-dispensary"},{"name":"Canna Care Docs - Virginia","type":"doctor","phone":"866-846-2420","city":"Richmond","state":"Virginia","zipcode":"23220","slug":"canna-care-docs-virginia"},{"name":"Virginia Medical Marijuana Doctor","type":"doctor","phone":"000-000-0000","city":"Virginia Beach","state":"Virginia","zipcode":"23450","slug":"virginia-medical-marijuana-doctor"},{"name":"CannabisRxHealth Doctors","type":"doctor","phone":"(703) 8611136","city":"Springfield","state":"Virginia","zipcode":"22151","slug":"cannabisrxhealth-5"},{"name":"CannabisRxHealth","type":"doctor","phone":"(703) 8611136","city":"Fredericksburg","state":"Virginia","zipcode":"22401","slug":"cannabisrxhealth-6"},{"name":"The Health Center","type":"doctor","phone":"844-420-APPT","city":"Fairfax","state":"Virginia","zipcode":"22030","slug":"the-health-center-10"},{"name":"CannabisRxHealth Doctors","type":"doctor","phone":"703-861-1136","city":"Roanoke","state":"Virginia","zipcode":"24017","slug":"cannabisrxhealth-3"}]}}