{"meta":{"total_listings":158},"data":{"listings":[{"name":"The M Store","type":"dispensary","phone":"(509) 956-0137","city":"Yakima","state":"Washington","zipcode":"98901","slug":"the-m-store"},{"name":"The Gallery - Spanaway","type":"dispensary","phone":"253-375-7840","city":"Spanaway","state":"Washington","zipcode":"98387","slug":"the-gallery-spanaway"},{"name":"Sticky's Pot Shop","type":"dispensary","phone":"(360) 984-5642","city":"Vancouver","state":"Washington","zipcode":"98665","slug":"sticky-s-pot-shop"},{"name":"Mr. Doobees Natural High Store","type":"dispensary","phone":"(360) 777-3065 ","city":"Seaview","state":"Washington","zipcode":"98644","slug":"mr-doobees-natural-high-store"},{"name":"Apex Cannabis","type":"dispensary","phone":"(509) 922-9235","city":"Otis Orchards","state":"Washington","zipcode":"99027","slug":"apex-cannabis"},{"name":"Green2Go Recreational Cannabis","type":"dispensary","phone":"509) 420-0000","city":"Sprague","state":"Washington","zipcode":"99032","slug":"green2go-recreational-cannabis"},{"name":"Cinder - Downtown","type":"dispensary","phone":"(509) 241-0110","city":"Spokane","state":"Washington","zipcode":"99201","slug":"cinder-2-2"},{"name":"Rosyln Herbs","type":"dispensary","phone":"(509) 649-3321","city":"Roslyn","state":"Washington","zipcode":"98941","slug":"rosyln-herbs"},{"name":"The Gallery - South Hill Puyallup","type":"dispensary","phone":"(253) 604-4360","city":"Puyallup","state":"Washington","zipcode":"98373","slug":"the-gallery-south-hill-puyallup"},{"name":"2020 Solutions - Soap Lake","type":"dispensary","phone":"(877) 934-2020","city":"Soap Lake","state":"Washington","zipcode":"98851","slug":"2020-solutions-soap-lake"},{"name":"Green Life Cannabis - Recreational","type":"dispensary","phone":"509-663-9980","city":"Wenatchee","state":"Washington","zipcode":"98801","slug":"green-life-cannabis"},{"name":"Golden Dispensaries","type":"dispensary","phone":"(509) 773-0700","city":"Goldendale","state":"Washington","zipcode":"98620","slug":"golden-dispensaries"},{"name":"420 Holiday","type":"dispensary","phone":"(360) 703-3103","city":"Longview","state":"Washington","zipcode":"98632","slug":"420-holiday"},{"name":"Miller's Marijuana","type":"dispensary","phone":"(360) 861-4300","city":"Elma","state":"Washington","zipcode":"98541","slug":"miller-s-marijuana"},{"name":"GreenHead Cannabis","type":"dispensary","phone":"(360) 433-9753","city":"Vancouver","state":"Washington","zipcode":"98661","slug":"greenhead-cannabis-2"},{"name":"B Street Bud","type":"dispensary","phone":"(509) 592-9334","city":"Grand Coulee","state":"Washington","zipcode":"99133","slug":"b-street-bud"},{"name":"Happy Time","type":"dispensary","phone":"(509) 571-1106","city":"Yakima","state":"Washington","zipcode":"98901","slug":"happy-time-2"},{"name":"The Green Shelf","type":"dispensary","phone":"(509) 304-9790","city":"Ellensburg","state":"Washington","zipcode":"98926","slug":"the-green-shelf-2"},{"name":"Freedom Market Longview - Recreational","type":"dispensary","phone":"(360) 703-3229","city":"Longview","state":"Washington","zipcode":"98632","slug":"longview-freedom-market-recreational"},{"name":"Green2Go Recreational Cannabis","type":"dispensary","phone":"(509) 591-7100","city":"Kennewick","state":"Washington","zipcode":"99337","slug":"green2go-collective-gardens"},{"name":"Spokane Green Leaf","type":"dispensary","phone":"(509) 919-3467","city":"Spokane","state":"Washington","zipcode":"99218","slug":"spokane-green-leaf-recreational"},{"name":"TreeHouse Club","type":"dispensary","phone":"(509) 413-2169","city":"Spokane Valley","state":"Washington","zipcode":"99216","slug":"treehouse-club"},{"name":"Nirvana Cannabis Company - East Wenatchee","type":"dispensary","phone":" (509) 888-5894","city":"East Wenatchee","state":"Washington","zipcode":"98802","slug":"nirvana-cannabis-company-7f313fc5-b692-48c7-9e03-5b947aa6acd2"},{"name":"GoodBudS","type":"dispensary","phone":"(509) 398-8843","city":"Quincy","state":"Washington","zipcode":"98848","slug":"goodbudstore"},{"name":"Altitude - Recreational","type":"dispensary","phone":"(509) 786-4200","city":"Prosser","state":"Washington","zipcode":"99350","slug":"altitude"},{"name":"Cannabis Provisions Inc - Wenatchee","type":"dispensary","phone":"(509) 470-9420","city":"Wenatchee","state":"Washington","zipcode":"98801","slug":"cannabis-provisions-inc-2"},{"name":"The Slow Burn","type":"dispensary","phone":"(509) 452-2787","city":"Union Gap","state":"Washington","zipcode":"98903","slug":"the-slow-burn-union-gap"},{"name":"The Herbal Center","type":"dispensary","phone":"(360) 557-4209","city":"Tenino","state":"Washington","zipcode":"98589","slug":"the-herbal-center"},{"name":"Cannabis Country Store","type":"dispensary","phone":"(360) 723-0073","city":"Battle Ground","state":"Washington","zipcode":"98604","slug":"cannabis-country-store"},{"name":"Piece of Mind Cannabis North Spokane","type":"dispensary","phone":"(509) 703-7191","city":"Spokane","state":"Washington","zipcode":"99218","slug":"satori-cured"},{"name":"Evergreen Behavioral Health","type":"doctor","phone":"(360) 450-0140","city":"Vancouver","state":"Washington","zipcode":"98686","slug":"evergreen-behavioral-health"},{"name":"New Vansterdam - Vancouver","type":"dispensary","phone":"(360) 597-4739","city":"Vancouver","state":"Washington","zipcode":"98661","slug":"new-vansterdam-2"},{"name":"The Link Cannabis Company","type":"dispensary","phone":"3603533515","city":"Longview","state":"Washington","zipcode":"98632","slug":"the-link-cannabis-company"},{"name":"2020 Solutions - Ephrata","type":"dispensary","phone":"(877) 934-2020","city":"Ephrata","state":"Washington","zipcode":"98832","slug":"2020-solutions-ephrata"},{"name":"Yakima Weed Company","type":"dispensary","phone":"(509) 571-1616","city":"Yakima","state":"Washington","zipcode":"98902","slug":"yakima-weed-company"},{"name":"28 Grahams Cannabis","type":"dispensary","phone":"2538460339","city":"Graham","state":"Washington","zipcode":"98338","slug":"28grahams-cannabis-29"},{"name":"Cannabis Superstore","type":"dispensary","phone":"(509) 674-5356","city":"Cle Elum","state":"Washington","zipcode":"98922","slug":"cannabis-superstore"},{"name":"Mj's Pot Shop","type":"dispensary","phone":"(509) 332-5203","city":"Pullman","state":"Washington","zipcode":"99163-6408","slug":"mj-s-pot-shop"},{"name":"The Herbery- ST. JOHNS","type":"dispensary","phone":"(360) 841-7505","city":"Vancouver","state":"Washington","zipcode":"98661","slug":"the-herbery-i-5"},{"name":"The Slow Burn","type":"dispensary","phone":"(509) 823-4792","city":"Union Gap","state":"Washington","zipcode":"98903","slug":"the-slow-burn"},{"name":"Forbidden Cannabis Club - Carson","type":"dispensary","phone":"(509) 427-5322","city":"Carson","state":"Washington","zipcode":"98610","slug":"forbidden-cannabis-club-carson"},{"name":"112th Street Cannabis","type":"dispensary","phone":"(253) 446-7437","city":"Puyallup","state":"Washington","zipcode":"98373","slug":"issaquah-cannabis-company-2"},{"name":"Funk Regenerative Med Clinic","type":"doctor","phone":"(509) 763-9716","city":"Wenatchee","state":"Washington","zipcode":"98801","slug":"funk-regenerative-med-clinic"},{"name":"The Fire House","type":"dispensary","phone":"(509) 968-5454","city":"Ellensburg","state":"Washington","zipcode":"98926","slug":"the-fire-house-2-2"},{"name":"Cannarail Station","type":"dispensary","phone":"(509) 754-1047","city":"Ephrata","state":"Washington","zipcode":"98823","slug":"cannarail-station"},{"name":"Royal's Cannabis","type":"dispensary","phone":"(509) 808-2098","city":"Spokane","state":"Washington","zipcode":"99208","slug":"royal-s-cannabis"},{"name":"Freedom Market Kelso - Recreational","type":"dispensary","phone":"(360) 636-0420","city":"Kelso","state":"Washington","zipcode":"98626","slug":"freedom-market-recreational"},{"name":"Sweet Relief","type":"dispensary","phone":"(509) 426-2436","city":"Yakima","state":"Washington","zipcode":"98901","slug":"sweet-relief-2-2"},{"name":"The Bake Shop - Prosser","type":"dispensary","phone":"(509) 778-2512","city":"Prosser","state":"Washington","zipcode":"99350","slug":"prosser-bake-shop"},{"name":"The Grass Station Ritzville","type":"dispensary","phone":" (360) 523-8345","city":"Ritzville","state":"Washington","zipcode":"99169","slug":"the-grass-station-ritzville"},{"name":"Natural Blessing","type":"dispensary","phone":"(253) 433-3961","city":"Spanaway","state":"Washington","zipcode":"98387","slug":"natural-blessing"},{"name":"Localamster in Longview","type":"dispensary","phone":"(360) 353-3628","city":"Longview","state":"Washington","zipcode":"98632","slug":"localamster"},{"name":"Greenhand Inc","type":"dispensary","phone":"(509) 919-3470","city":"Spokane","state":"Washington","zipcode":"99205","slug":"greenhand-inc"},{"name":"Green Star Cannabis","type":"dispensary","phone":"(509) 919-3398","city":"Spokane","state":"Washington","zipcode":"99202","slug":"green-star-cannabis"},{"name":"Clear Choice Cannabis - Bremerton","type":"dispensary","phone":"(253) 882-6344","city":"Bremertom","state":"Washington","zipcode":"98311","slug":"clear-choice-cannabis"},{"name":"Best Medical Consultation","type":"doctor","phone":"(509) 467-1990","city":"Spokane","state":"Washington","zipcode":"99218","slug":"best-medical-consultation"},{"name":"Westside 420 Recreational","type":"dispensary","phone":"(360) 270-0046","city":"Longview","state":"Washington","zipcode":"98632","slug":"westside-420-recreational"},{"name":"4Evergereen Group (Kennewick)\/ Medi Solutions","type":"doctor","phone":"(800) 414-2202","city":"Kennewick","state":"Washington","zipcode":"99336","slug":"4evergereen-group-kennewick"},{"name":"Kush 21 Spokane","type":"dispensary","phone":"509-368-9065","city":"Spokane","state":"Washington","zipcode":"99217","slug":"kush-21-spokane"},{"name":"Pot Zone Vancouver - Grand Opening","type":"dispensary","phone":"3607680235","city":"Vancouver","state":"Washington","zipcode":"98665","slug":"pot-zone-1"},{"name":"The Bake Shop Salem","type":"dispensary","phone":"971-332-5433","city":"Salem","state":"Washington","zipcode":"97301","slug":"the-bake-shop-salem"},{"name":"Main St. Marijuana - Downtown","type":"dispensary","phone":"(360) 828-7737","city":"Vancouver","state":"Washington","zipcode":"98660","slug":"main-street-marijuana-recreational"},{"name":"Main St. Marijuana - Longview","type":"dispensary","phone":"(360) 703-6050","city":"Longview","state":"Washington","zipcode":"98632","slug":"main-street-marijuana"},{"name":"I-90 Green House","type":"dispensary","phone":"(509) 770-4727","city":"Ritzville","state":"Washington","zipcode":"99169","slug":"i-90-green-house"},{"name":"The Back Porch","type":"dispensary","phone":"(509) 888-8241","city":"Wenatchee","state":"Washington","zipcode":"98801","slug":"the-back-porch"},{"name":"The Bake Shop George","type":"dispensary","phone":"509-379-5662","city":"George","state":"Washington","zipcode":"98824","slug":"the-bake-shop-george"},{"name":"American Harvest","type":"dispensary","phone":"(509) 470-9449","city":"Peshastin","state":"Washington","zipcode":"98847","slug":"american-harvest"},{"name":"Sweet Green NW","type":"dispensary","phone":"(360) 858-7630","city":"Rochester","state":"Washington","zipcode":"98579","slug":"sweet-green-nw"},{"name":"Local Roots Yakima","type":"dispensary","phone":"(509) 426-2436","city":"Yakima","state":"Washington","zipcode":"98901","slug":"local-roots-3"},{"name":"Terp Cannabis","type":"dispensary","phone":"(509) 598-1216","city":"Nine Mile Falls","state":"Washington","zipcode":"99026","slug":"terp-cannabis"},{"name":"Cannabis & Glass - Spokane Recreational","type":"dispensary","phone":"(509) 309-6974","city":"Spokane","state":"Washington","zipcode":"99208","slug":"cannabis-glass-recreational"},{"name":"The Bake Shop - Union Gap","type":"dispensary","phone":"(509) 902-1901","city":"Union Gap","state":"Washington","zipcode":"98903","slug":"the-bake-shop-3"},{"name":"Freedom Market Ilwaco - Recreational","type":"dispensary","phone":"(360) 261-7200","city":"Ilwaco","state":"Washington","zipcode":"98624","slug":"iwaco-freedom-market"},{"name":"Margie's Pot Shop - Recreational","type":"dispensary","phone":"(509) 493-0441","city":"Bingen","state":"Washington","zipcode":"98605","slug":"margie-s-pot-shop-recreational"},{"name":"Greenfoot Cannabis","type":"dispensary","phone":"3604133017","city":"Olympia","state":"Washington","zipcode":"98513","slug":"greenfoot-cannabis"},{"name":"Lovely Buds","type":"dispensary","phone":"(509) 474-0461","city":"Spokane","state":"Washington","zipcode":"99202","slug":"lovely-buds"},{"name":"Fire & Frost Cannabis","type":"dispensary","phone":"(360) 433-2758","city":"Vancouver","state":"Washington","zipcode":"98661","slug":"mary-jane-s-house-of-grass"},{"name":"Canna4Life","type":"dispensary","phone":"(509) 295-8218","city":"Clarkston","state":"Washington","zipcode":"99403","slug":"canna-4-life"},{"name":"Cannabis & Glass - Liberty Lake","type":"dispensary","phone":"(509) 710-7118","city":"Spokane","state":"Washington","zipcode":"99019","slug":"cannabis-glass-liberty-lake"},{"name":"420 Evergreen","type":"dispensary","phone":"(509) 427-4393","city":"Stevenson","state":"Washington","zipcode":"98648","slug":"the-cannabis-corner"},{"name":"Freedom Market Cathlamet Recreational","type":"dispensary","phone":"(360) 849-4504","city":"Cathlamet","state":"Washington","zipcode":"98612","slug":"freedom-market-cathlamet"},{"name":"The Canyon","type":"dispensary","phone":"(509) 452-5627","city":"Gleed","state":"Washington","zipcode":"98904","slug":"the-canyon-2"},{"name":"The Herbery Fourth Plain","type":"dispensary","phone":"(360) 776-3160","city":"Vancouver","state":"Washington","zipcode":"98682","slug":"the-herbery-fourth-plain"},{"name":"Bud Barn Yelm","type":"dispensary","phone":"(360) 960-1220","city":"YELM","state":"Washington","zipcode":"98597","slug":"bud-barn"},{"name":"Natural Green Cannabis","type":"dispensary","phone":"509-725-0941","city":"Davenport","state":"Washington","zipcode":"99122","slug":"natural-green-cannabis"},{"name":"Medical Green Spokane","type":"doctor","phone":"(253) 458-1263","city":"Spokane","state":"Washington","zipcode":"99202","slug":"medical-green-spokane"},{"name":"T Brothers Recreational","type":"dispensary","phone":"(360) 489-1342","city":"Lacey","state":"Washington","zipcode":"98503","slug":"t-brothers-recreational"},{"name":"Blowin Smoke","type":"dispensary","phone":"(509) 935-7420","city":"Chewelah","state":"Washington","zipcode":"99109","slug":"blowin-smoke"},{"name":"Mary Jane's","type":"dispensary","phone":"(509) 855-4485","city":"Moses Lake","state":"Washington","zipcode":"98837","slug":"mary-jane-s"},{"name":"The Happy Crop Shoppe - Wenatchee","type":"dispensary","phone":"(509) 888-7957","city":"Wenatchee","state":"Washington","zipcode":"98801","slug":"the-happy-crop-shoppe-2-2"},{"name":"420 Friendly","type":"dispensary","phone":"(509) 844-7287","city":"Spokane","state":"Washington","zipcode":"99224","slug":"420-friendly"},{"name":"Piece of Mind Cannabis South Spokane","type":"dispensary","phone":"(509) 241-3066","city":"Spokane","state":"Washington","zipcode":"99223","slug":"satori-south"},{"name":"Walla Walla Cannabis Company","type":"dispensary","phone":"(509) 876-4946","city":"Walla Walla","state":"Washington","zipcode":"99362","slug":"walla-walla-weedery-2-4"},{"name":"High Life Cannabis","type":"dispensary","phone":"5096755309","city":"nine mile falls","state":"Washington","zipcode":"99026","slug":"high-life-cannabis-1"},{"name":"Simply Cannabis","type":"dispensary","phone":"(509) 443-5238","city":"Spokane","state":"Washington","zipcode":"99208","slug":"simply-cannabis"},{"name":"Kitsap Cannabis Kelso","type":"dispensary","phone":"(360) 425-8134","city":"Kelso","state":"Washington","zipcode":"98626","slug":"kitsap-cannabis-kelso"},{"name":"LUCID","type":"dispensary","phone":"(360) 338-0258","city":"Lacey","state":"Washington","zipcode":"98503","slug":"lucid"},{"name":"Savage THC","type":"dispensary","phone":"(509) 999-2989","city":"Clayton","state":"Washington","zipcode":"99110","slug":"savage-thc"},{"name":"Greenfield Cannabis Company","type":"dispensary","phone":"(509) 780-0009","city":"Clarkston","state":"Washington","zipcode":"99403","slug":"greenfield-company"},{"name":"High End Market Place","type":"dispensary","phone":"(360) 695-3612","city":"Vancouver","state":"Washington","zipcode":"98663","slug":"high-end-market-place"},{"name":"High 5 Cannabis","type":"dispensary","phone":"(360) 947-5404","city":"Orchards - Vancouver","state":"Washington","zipcode":"98682","slug":"high-5-cannabis-2"},{"name":"Green Wellness","type":"doctor","phone":"(888) 885-9949","city":"Spokane","state":"Washington","zipcode":"99206","slug":"green-wellness-spokane"},{"name":"The Vault - Spokane","type":"dispensary","phone":"(509) 315-9262","city":"Spokane","state":"Washington","zipcode":"99223","slug":"the-vault-spokane"},{"name":"Herbal E Scents","type":"dispensary","phone":"(509) 684-4420","city":"Colville","state":"Washington","zipcode":"99114","slug":"herbal-e-scents-2"},{"name":"The Happy Crop Shoppe - Cashmere","type":"dispensary","phone":"(509) 888-2454","city":"Cashmere","state":"Washington","zipcode":"98815","slug":"the-happy-crop-shoppe-2"},{"name":"Piece of Mind Cannabis Pullman","type":"dispensary","phone":"(509) 334-2875","city":"Pullman","state":"Washington","zipcode":"99163","slug":"satori"},{"name":"Access Canibus LLC","type":"dispensary","phone":"(509) 937-4900","city":"Valley","state":"Washington","zipcode":"99181","slug":"access-canibus-llc"},{"name":"Nirvana Cannabis Company","type":"dispensary","phone":"(509) 244-7087","city":"Airway Heights","state":"Washington","zipcode":"99001","slug":"nirvana-cannabis-company"},{"name":"American Cannabinoid Clinics","type":"doctor","phone":"(503) 747-3760","city":"Vancouver","state":"Washington","zipcode":"98663","slug":"american-cannabinoid-clinics-5"},{"name":"Green Wellness","type":"doctor","phone":"(360) 936-9875","city":"Vancouver","state":"Washington","zipcode":"98665","slug":"redwood-clinic-dr-corie-linn"},{"name":"Toker Friendly","type":"dispensary","phone":"(509) 244-8728","city":"Airway Heights","state":"Washington","zipcode":"99001","slug":"toker-friendly"},{"name":"Floyds Cannabis Co Pullman","type":"dispensary","phone":"(509) 872-3080","city":"Pullman","state":"Washington","zipcode":"99163","slug":"floyds-cannabis-co-pullman"},{"name":"The Green Nugget","type":"dispensary","phone":"(509) 309-2130","city":"Spokane","state":"Washington","zipcode":"99208","slug":"the-green-nugget"},{"name":"Elysium Medical Center","type":"doctor","phone":"(360) 400-2233","city":"Yelm","state":"Washington","zipcode":"98597","slug":"elysium-medical-center"},{"name":"Nirvana Cannabis Company - Tri-Cities","type":"dispensary","phone":"1 (509) 572-2310","city":"Richland","state":"Washington","zipcode":"99352","slug":"nirvana-cannabis-company-3"},{"name":"Lucid - Cheney","type":"dispensary","phone":"(509) 559-5904","city":"Cheney","state":"Washington","zipcode":"99004","slug":"lucid-cheney"},{"name":"THE HERBERY - CHKALOV","type":"dispensary","phone":"(360) 776-3001","city":"Vancouver","state":"Washington","zipcode":"98684","slug":"the-herbery-2"},{"name":"Uncle Ando's Wurld of Weed - Centralia","type":"dispensary","phone":"360-736-0564","city":"Centralia","state":"Washington","zipcode":"98531","slug":"uncle-ando-s-wurld-of-weed-1"},{"name":"Station 420 LLC - Recreational","type":"dispensary","phone":"(509) 452-4200","city":"Union Gap","state":"Washington","zipcode":"98903","slug":"station-420-verde-valley"},{"name":"The Happy Crop Shoppe - East Wenatchee","type":"dispensary","phone":"(509) 888-1597","city":"East Wenatchee","state":"Washington","zipcode":"98802","slug":"the-happy-crop-shoppe"},{"name":"420 GRAND CENTRAL","type":"dispensary","phone":"3608583075","city":"Rochester","state":"Washington","zipcode":"98579","slug":"420-grand-central"},{"name":"Sativa Sisters","type":"dispensary","phone":"(509) 381-1502","city":"Spokane Valley","state":"Washington","zipcode":"99206","slug":"sativa-sisters"},{"name":"Nirvana Cannabis Company - Spokane","type":"dispensary","phone":"1 (509) 244-7087","city":"Otis Orchards","state":"Washington","zipcode":"99027","slug":"nirvana-cannabis-company-2"},{"name":"Green Light - Recreational","type":"dispensary","phone":"(509) 309-3193","city":"Millwood","state":"Washington","zipcode":"99206","slug":"green-light"},{"name":"Mary Jane's - Spokane","type":"dispensary","phone":"509-315-8223","city":"Spokane","state":"Washington","zipcode":"99207","slug":"mary-jane-s-2-2"},{"name":"Walla Walla Cannabis Company","type":"dispensary","phone":"(509) 876-4946","city":"Walla Walla","state":"Washington","zipcode":"99362","slug":"walla-walla-cannabis-company"},{"name":"365 Recreational Cannabis - Dayton","type":"dispensary","phone":"(509) 382-3161","city":"Dayton","state":"Washington","zipcode":"99328","slug":"365-recreational"},{"name":"Cannabis Central","type":"dispensary","phone":"(509) 201-1144","city":"Ellensburg","state":"Washington","zipcode":"98926","slug":"cannabis-central"},{"name":"Craft Cannabis","type":"dispensary","phone":"(509) 667-9999","city":"Wenatchee","state":"Washington","zipcode":"98801","slug":"the-joint-in-wenatchee"},{"name":"Cinder - Spokane Valley","type":"dispensary","phone":"(509) 241-3726","city":"Spokane Valley","state":"Washington","zipcode":"99206","slug":"cinder-spokane-valley"},{"name":"Station 420 South","type":"dispensary","phone":"(509) 367-3200","city":"Union Gap","state":"Washington","zipcode":"98903","slug":"mill-creek-natural-foods"},{"name":"The Hidden Joint","type":"dispensary","phone":"(509) 368-9065","city":"Spokane","state":"Washington","zipcode":"99217","slug":"the-hidden-joint"},{"name":"High Life Cannabis","type":"dispensary","phone":"111-111-1111","city":"Loon Lake","state":"Washington","zipcode":"99148","slug":"high-life-cannabis"},{"name":"Cannabis & Glass - Spokane Valley","type":"dispensary","phone":"(509) 710-7118","city":"Spokane Valley","state":"Washington","zipcode":"99206","slug":"cannabis-glass"},{"name":"Main St. Marijuana - East Vancouver","type":"dispensary","phone":"360-984-3881","city":"Vancouver","state":"Washington","zipcode":"98683","slug":"main-street-marijuana-2"},{"name":"Primo Cannabis","type":"dispensary","phone":"(509) 927-9333","city":"Otis Orchard","state":"Washington","zipcode":"99027","slug":"primo-cannabis"},{"name":"Northwest Cannabis Connection","type":"dispensary","phone":"(253) 292-0444","city":"Puyallup","state":"Washington","zipcode":"98373","slug":"northwest-cannabis-connection"},{"name":"Apex Cannabis","type":"dispensary","phone":"(509) 765-4216","city":"Moses Lake","state":"Washington","zipcode":"98837","slug":"apex-cannabis-2"},{"name":"Olympia Weed Company","type":"dispensary","phone":"(360) 915-6071","city":"Olympia","state":"Washington","zipcode":"98501","slug":"northwest-collective"},{"name":"2020 Solutions Sprague","type":"dispensary","phone":"(877) 934-2020","city":"Sprague","state":"Washington","zipcode":"99032","slug":"2020-solutions-sprague"},{"name":"Thunder Cannabis","type":"dispensary","phone":"3607062183","city":"Olympia","state":"Washington","zipcode":"98512","slug":"thunder-cannabis"},{"name":"King Cronic","type":"dispensary","phone":"(360) 960-1627","city":"Yelm","state":"Washington","zipcode":"98597","slug":"nw-natural-wellness"},{"name":"Cinder - North Spokane","type":"dispensary","phone":"(509) 241-3091","city":"Spokane","state":"Washington","zipcode":"99208","slug":"cinder"},{"name":"Locals Canna House","type":"dispensary","phone":"(509) 413-2796","city":"Spokane Valley","state":"Washington","zipcode":"99206","slug":"locals-canna-house"},{"name":"Lucky Leaf Co.","type":"dispensary","phone":"(509) 474-9616","city":"Spokane","state":"Washington","zipcode":"99201","slug":"lucky-leaf-co"},{"name":"Kush21 - Pullman","type":"dispensary","phone":"(509) 237-4632","city":"Pullman","state":"Washington","zipcode":"99163","slug":"kush-21-pullman"},{"name":"The Top Shelf","type":"dispensary","phone":"(509) 474-1050","city":"Airway Heights","state":"Washington","zipcode":"99224","slug":"the-top-shelf-2-9"},{"name":"Molecule Cannabis","type":"dispensary","phone":"(509) 725-9333","city":"Davenport","state":"Washington","zipcode":"99122","slug":"molecule-cannabis"},{"name":"The Herbery - NE 78th","type":"dispensary","phone":"(360) 844-0486","city":"Vancouver","state":"Washington","zipcode":"98665","slug":"the-herbery-ne-78th"},{"name":"The Green Seed","type":"dispensary","phone":"(509) 762-3034","city":"Moses Lake","state":"Washington","zipcode":"98837","slug":"the-green-seed"},{"name":"Happy Trees","type":"dispensary","phone":"(509) 596-8430","city":"Cle Elum","state":"Washington","zipcode":"98922","slug":"happy-trees-2-3"},{"name":"Mr. Bills of Buckley","type":"dispensary","phone":"(360) 761-7540","city":"Buckley","state":"Washington","zipcode":"98321","slug":"mr-bills-of-buckley"},{"name":"Better Buds - Longview","type":"dispensary","phone":"360-703-3791","city":"Longview","state":"Washington","zipcode":"98632","slug":"better-buds-2-7"},{"name":"The Green Door Buckley","type":"dispensary","phone":"(360) 761-7347","city":"Buckley","state":"Washington","zipcode":"98321","slug":"the-green-door-buckley"},{"name":"Smokane","type":"dispensary","phone":"(509) 536-4000","city":"Spokane","state":"Washington","zipcode":"99202","slug":"smokane"},{"name":"A Greener Today Walla Walla","type":"dispensary","phone":"(206) 380-3608","city":"Walla Walla","state":"Washington","zipcode":"99362","slug":"a-greener-today-walla-walla"},{"name":"Old Toby","type":"dispensary","phone":"(360) 996-4089","city":"Chehalis","state":"Washington","zipcode":"98532","slug":"old-toby-2"},{"name":"Walla Walla Weedery","type":"dispensary","phone":"(509) 876-4279","city":"Walla Walla","state":"Washington","zipcode":"99362","slug":"walla-walla-weedery"}]}}